{
  "type": "FeatureCollection",
  "features": [
    {
      "type": "Feature",
      "properties": {
        "Name": "Fuji Speedway",
        "source": "tobi/track-atlas (OpenStreetMap contributors; ODbL 1.0)",
        "source_id": "fuji/gp",
        "revision": "c783def5a24df8ce8f034262e8228c262b854e0e",
        "upstream_path": "tracks/fuji/raw/layers/gp.geojson",
        "upstream_sha256": "f1a499054f1048f851c5fa844d9f6a9c761370989675071d93eddc57e364fdb8",
        "line": [
          35.372405,
          138.927423
        ],
        "direction": "clockwise",
        "heights": "Open-Meteo DEM (Copernicus GLO-90), metres above sea level",
        "retrieved": "2026-09-27"
      },
      "geometry": {
        "type": "LineString",
        "coordinates": [
          [138.927423, 35.372405, 592.0],
          [138.927681, 35.372574, 595.0],
          [138.927938, 35.372742, 595.0],
          [138.928196, 35.372911, 595.0],
          [138.928453, 35.37308, 590.0],
          [138.928711, 35.373248, 590.0],
          [138.928968, 35.373417, 604.0],
          [138.929226, 35.373586, 593.0],
          [138.929483, 35.373754, 593.0],
          [138.92974, 35.373923, 593.0],
          [138.929998, 35.374092, 583.0],
          [138.930255, 35.37426, 592.0],
          [138.930513, 35.374429, 592.0],
          [138.93077, 35.374598, 592.0],
          [138.931028, 35.374766, 583.0],
          [138.931285, 35.374935, 583.0],
          [138.931543, 35.375104, 591.0],
          [138.9318, 35.375272, 586.0],
          [138.932058, 35.375441, 586.0],
          [138.932315, 35.37561, 586.0],
          [138.932572, 35.375778, 582.0],
          [138.93283, 35.375947, 589.0],
          [138.933087, 35.376115, 589.0],
          [138.933331, 35.376294, 584.0],
          [138.933383, 35.376322, 584.0],
          [138.933437, 35.376339, 584.0],
          [138.933487, 35.37635, 584.0],
          [138.933538, 35.376352, 584.0],
          [138.933583, 35.376345, 584.0],
          [138.933628, 35.376332, 584.0],
          [138.933668, 35.376319, 584.0],
          [138.933704, 35.376302, 584.0],
          [138.93374, 35.376275, 584.0],
          [138.93377, 35.376244, 584.0],
          [138.933796, 35.376205, 584.0],
          [138.933815, 35.376169, 584.0],
          [138.933824, 35.376136, 584.0],
          [138.933829, 35.376096, 584.0],
          [138.933828, 35.376059, 584.0],
          [138.933793, 35.375848, 584.0],
          [138.933758, 35.375637, 575.0],
          [138.933722, 35.375426, 575.0],
          [138.933687, 35.375215, 575.0],
          [138.933678, 35.375162, 575.0],
          [138.93366, 35.375104, 575.0],
          [138.933637, 35.375036, 575.0],
          [138.933612, 35.37498, 565.0],
          [138.933579, 35.374931, 565.0],
          [138.933542, 35.374879, 565.0],
          [138.933349, 35.374681, 565.0],
          [138.933157, 35.374483, 569.0],
          [138.932964, 35.374285, 569.0],
          [138.932772, 35.374087, 560.0],
          [138.932579, 35.373889, 560.0],
          [138.932387, 35.373691, 570.0],
          [138.932194, 35.373493, 570.0],
          [138.932001, 35.373295, 561.0],
          [138.931809, 35.373097, 561.0],
          [138.931616, 35.372899, 575.0],
          [138.931424, 35.372701, 575.0],
          [138.931231, 35.372503, 575.0],
          [138.931039, 35.372304, 566.0],
          [138.931012, 35.372273, 566.0],
          [138.930986, 35.372233, 566.0],
          [138.930973, 35.372202, 566.0],
          [138.930963, 35.372169, 566.0],
          [138.930962, 35.372138, 566.0],
          [138.930966, 35.372107, 566.0],
          [138.930971, 35.372071, 566.0],
          [138.930979, 35.372038, 566.0],
          [138.930988, 35.372003, 566.0],
          [138.930999, 35.371968, 566.0],
          [138.931014, 35.371935, 566.0],
          [138.93103, 35.371898, 566.0],
          [138.931047, 35.371867, 566.0],
          [138.931064, 35.371834, 566.0],
          [138.931082, 35.371803, 566.0],
          [138.931099, 35.371768, 566.0],
          [138.931227, 35.371565, 562.0],
          [138.931355, 35.371362, 562.0],
          [138.931483, 35.371159, 562.0],
          [138.931532, 35.371067, 562.0],
          [138.931579, 35.370959, 562.0],
          [138.931621, 35.370832, 562.0],
          [138.931647, 35.370717, 563.0],
          [138.931667, 35.370576, 557.0],
          [138.931671, 35.370434, 557.0],
          [138.931657, 35.370256, 563.0],
          [138.931633, 35.370089, 563.0],
          [138.93159, 35.369912, 561.0],
          [138.931534, 35.369772, 561.0],
          [138.931477, 35.369656, 561.0],
          [138.931434, 35.369582, 561.0],
          [138.931398, 35.369534, 561.0],
          [138.931357, 35.369487, 561.0],
          [138.931299, 35.369436, 561.0],
          [138.931243, 35.369391, 561.0],
          [138.931164, 35.369342, 561.0],
          [138.931075, 35.369298, 561.0],
          [138.930932, 35.369242, 561.0],
          [138.930759, 35.369185, 565.0],
          [138.930557, 35.369132, 554.0],
          [138.930405, 35.369106, 554.0],
          [138.930325, 35.369096, 554.0],
          [138.930252, 35.369089, 554.0],
          [138.930187, 35.369087, 554.0],
          [138.930113, 35.369089, 554.0],
          [138.930037, 35.369095, 554.0],
          [138.929963, 35.369107, 558.0],
          [138.929875, 35.369131, 558.0],
          [138.929795, 35.36916, 563.0],
          [138.929708, 35.369193, 563.0],
          [138.929611, 35.369238, 563.0],
          [138.929538, 35.369279, 563.0],
          [138.929489, 35.369313, 563.0],
          [138.929426, 35.36936, 563.0],
          [138.929363, 35.369419, 563.0],
          [138.929196, 35.369605, 563.0],
          [138.92903, 35.36979, 562.0],
          [138.928863, 35.369976, 562.0],
          [138.928696, 35.370161, 567.0],
          [138.928529, 35.370347, 567.0],
          [138.928363, 35.370532, 567.0],
          [138.928334, 35.370561, 567.0],
          [138.928297, 35.370582, 568.0],
          [138.928248, 35.370602, 568.0],
          [138.928195, 35.370614, 568.0],
          [138.928124, 35.37062, 568.0],
          [138.928073, 35.370616, 568.0],
          [138.928023, 35.370603, 568.0],
          [138.927966, 35.370576, 568.0],
          [138.927912, 35.370539, 568.0],
          [138.927858, 35.370486, 568.0],
          [138.927794, 35.370414, 568.0],
          [138.927695, 35.370276, 568.0],
          [138.927629, 35.370156, 568.0],
          [138.927575, 35.370024, 568.0],
          [138.927541, 35.36989, 563.0],
          [138.927522, 35.369782, 563.0],
          [138.927511, 35.369646, 563.0],
          [138.927512, 35.369508, 563.0],
          [138.927526, 35.369349, 563.0],
          [138.927565, 35.369089, 560.0],
          [138.927604, 35.368828, 560.0],
          [138.927643, 35.368568, 560.0],
          [138.927656, 35.368486, 560.0],
          [138.927662, 35.368402, 560.0],
          [138.927667, 35.368318, 558.0],
          [138.927662, 35.368237, 558.0],
          [138.927655, 35.368161, 558.0],
          [138.927646, 35.368088, 558.0],
          [138.927635, 35.368023, 558.0],
          [138.927618, 35.367957, 558.0],
          [138.927595, 35.367893, 558.0],
          [138.927551, 35.367803, 558.0],
          [138.92751, 35.36772, 558.0],
          [138.927374, 35.367493, 565.0],
          [138.927237, 35.367266, 565.0],
          [138.9271, 35.367039, 565.0],
          [138.926964, 35.366812, 565.0],
          [138.926827, 35.366585, 553.0],
          [138.926768, 35.366494, 553.0],
          [138.92669, 35.366394, 553.0],
          [138.926616, 35.366313, 559.0],
          [138.926544, 35.366243, 559.0],
          [138.926466, 35.366172, 559.0],
          [138.926354, 35.366081, 559.0],
          [138.926266, 35.366021, 559.0],
          [138.926171, 35.365965, 559.0],
          [138.925912, 35.365812, 547.0],
          [138.925654, 35.365659, 550.0],
          [138.925395, 35.365506, 550.0],
          [138.925136, 35.365353, 550.0],
          [138.924878, 35.3652, 551.0],
          [138.924619, 35.365047, 551.0],
          [138.92436, 35.364894, 547.0],
          [138.924102, 35.364741, 550.0],
          [138.924055, 35.364723, 550.0],
          [138.924009, 35.364714, 550.0],
          [138.923962, 35.364716, 550.0],
          [138.923927, 35.364727, 550.0],
          [138.923893, 35.364747, 550.0],
          [138.923867, 35.364782, 550.0],
          [138.92385, 35.364822, 550.0],
          [138.923841, 35.364866, 550.0],
          [138.923837, 35.365111, 553.0],
          [138.923823, 35.365155, 553.0],
          [138.923804, 35.365189, 553.0],
          [138.923778, 35.365224, 553.0],
          [138.923743, 35.365258, 553.0],
          [138.923696, 35.365285, 553.0],
          [138.923652, 35.365302, 553.0],
          [138.923603, 35.365315, 553.0],
          [138.923548, 35.365319, 553.0],
          [138.923492, 35.365315, 553.0],
          [138.923435, 35.365305, 553.0],
          [138.923379, 35.365295, 553.0],
          [138.92329, 35.365273, 557.0],
          [138.923212, 35.365255, 557.0],
          [138.92311, 35.365243, 557.0],
          [138.923028, 35.365243, 557.0],
          [138.922953, 35.365244, 557.0],
          [138.922876, 35.365254, 557.0],
          [138.922793, 35.36527, 557.0],
          [138.922519, 35.365389, 557.0],
          [138.922246, 35.365508, 564.0],
          [138.922139, 35.365567, 564.0],
          [138.922057, 35.365621, 564.0],
          [138.921983, 35.36567, 564.0],
          [138.921874, 35.365749, 564.0],
          [138.921786, 35.36582, 564.0],
          [138.921729, 35.365874, 568.0],
          [138.921688, 35.365915, 568.0],
          [138.921662, 35.365955, 568.0],
          [138.921639, 35.366009, 574.0],
          [138.921629, 35.366064, 574.0],
          [138.921625, 35.366103, 574.0],
          [138.921629, 35.366152, 574.0],
          [138.921642, 35.366201, 574.0],
          [138.921662, 35.366249, 568.0],
          [138.921687, 35.366295, 568.0],
          [138.92173, 35.366349, 568.0],
          [138.921785, 35.366399, 568.0],
          [138.921844, 35.366439, 568.0],
          [138.921926, 35.366484, 568.0],
          [138.92201, 35.366527, 568.0],
          [138.922087, 35.36656, 568.0],
          [138.922196, 35.366603, 568.0],
          [138.922321, 35.366655, 568.0],
          [138.922412, 35.366698, 572.0],
          [138.922565, 35.366786, 568.0],
          [138.922693, 35.366878, 568.0],
          [138.922761, 35.366941, 568.0],
          [138.922813, 35.367007, 568.0],
          [138.922851, 35.367068, 568.0],
          [138.922884, 35.367132, 568.0],
          [138.922909, 35.367206, 568.0],
          [138.92292, 35.367281, 568.0],
          [138.922921, 35.36737, 568.0],
          [138.922915, 35.367446, 568.0],
          [138.922898, 35.36753, 575.0],
          [138.922865, 35.367627, 575.0],
          [138.922831, 35.367704, 575.0],
          [138.922789, 35.367771, 575.0],
          [138.922725, 35.367858, 575.0],
          [138.922664, 35.367934, 575.0],
          [138.922603, 35.367998, 575.0],
          [138.922564, 35.368027, 575.0],
          [138.92251, 35.368052, 575.0],
          [138.922454, 35.368061, 579.0],
          [138.922405, 35.368062, 579.0],
          [138.922362, 35.368059, 579.0],
          [138.922318, 35.368047, 579.0],
          [138.922276, 35.368026, 579.0],
          [138.922234, 35.368002, 579.0],
          [138.922197, 35.367972, 579.0],
          [138.922017, 35.367809, 579.0],
          [138.921836, 35.367646, 579.0],
          [138.921656, 35.367483, 572.0],
          [138.921585, 35.367425, 577.0],
          [138.921493, 35.367362, 577.0],
          [138.921386, 35.367294, 577.0],
          [138.921291, 35.367231, 577.0],
          [138.921163, 35.367162, 577.0],
          [138.921049, 35.367108, 577.0],
          [138.920962, 35.367072, 577.0],
          [138.920876, 35.367045, 577.0],
          [138.920784, 35.367022, 582.0],
          [138.920713, 35.367014, 582.0],
          [138.92062, 35.367015, 582.0],
          [138.920547, 35.367019, 582.0],
          [138.920473, 35.367026, 582.0],
          [138.920387, 35.367043, 582.0],
          [138.920285, 35.367067, 582.0],
          [138.920196, 35.367099, 582.0],
          [138.920139, 35.367129, 582.0],
          [138.920085, 35.367169, 582.0],
          [138.920042, 35.367218, 582.0],
          [138.920012, 35.367272, 582.0],
          [138.919995, 35.367319, 585.0],
          [138.919986, 35.367373, 585.0],
          [138.919989, 35.367425, 585.0],
          [138.920001, 35.367471, 585.0],
          [138.920018, 35.367514, 587.0],
          [138.920049, 35.367556, 587.0],
          [138.920087, 35.3676, 587.0],
          [138.920144, 35.367639, 587.0],
          [138.920378, 35.367792, 587.0],
          [138.920612, 35.367945, 587.0],
          [138.920847, 35.368098, 585.0],
          [138.921081, 35.368251, 585.0],
          [138.921315, 35.368404, 602.0],
          [138.921549, 35.368557, 602.0],
          [138.921783, 35.36871, 591.0],
          [138.922017, 35.368863, 591.0],
          [138.922274, 35.369032, 591.0],
          [138.922532, 35.369201, 590.0],
          [138.922789, 35.369369, 590.0],
          [138.923047, 35.369538, 590.0],
          [138.923304, 35.369707, 590.0],
          [138.923562, 35.369875, 583.0],
          [138.923819, 35.370044, 593.0],
          [138.924077, 35.370213, 593.0],
          [138.924334, 35.370381, 588.0],
          [138.924591, 35.37055, 588.0],
          [138.924849, 35.370719, 588.0],
          [138.925106, 35.370887, 593.0],
          [138.925364, 35.371056, 593.0],
          [138.925621, 35.371225, 593.0],
          [138.925879, 35.371393, 589.0],
          [138.926136, 35.371562, 589.0],
          [138.926394, 35.371731, 594.0],
          [138.926651, 35.371899, 594.0],
          [138.926909, 35.372068, 592.0],
          [138.927166, 35.372236, 592.0],
          [138.927423, 35.372405, 592.0]
        ]
      }
    }
  ]
}
