{
  "type": "FeatureCollection",
  "features": [
    {
      "type": "Feature",
      "properties": {
        "Name": "WeatherTech Raceway Laguna Seca",
        "source": "tobi/track-atlas (OpenStreetMap contributors; ODbL 1.0)",
        "source_id": "laguna-seca/gp",
        "revision": "c783def5a24df8ce8f034262e8228c262b854e0e",
        "upstream_path": "tracks/laguna-seca/raw/layers/gp.geojson",
        "upstream_sha256": "a8005aab1aabae9f92a66924ccc926451749dcacd203a1e080970b73ad798b90",
        "line": [
          36.5864713,
          -121.7566627
        ],
        "direction": "anticlockwise",
        "heights": "Open-Meteo DEM (Copernicus GLO-90), metres above sea level",
        "retrieved": "2026-09-27"
      },
      "geometry": {
        "type": "LineString",
        "coordinates": [
          [-121.756662, 36.5864722, 235.0],
          [-121.7567528, 36.5863681, 246.0],
          [-121.7567898, 36.5863231, 246.0],
          [-121.7568131, 36.5862923, 246.0],
          [-121.7568393, 36.5862525, 246.0],
          [-121.7568803, 36.5861785, 246.0],
          [-121.7569296, 36.5861078, 246.0],
          [-121.7569834, 36.5860186, 246.0],
          [-121.7570215, 36.5859436, 246.0],
          [-121.7571061, 36.5857915, 243.0],
          [-121.7571908, 36.5856394, 243.0],
          [-121.7572354, 36.5855568, 243.0],
          [-121.7572922, 36.5854538, 243.0],
          [-121.7573489, 36.5853509, 243.0],
          [-121.7573857, 36.5852852, 243.0],
          [-121.7574283, 36.5852117, 243.0],
          [-121.7575108, 36.5850638, 251.0],
          [-121.7575685, 36.5849661, 252.0],
          [-121.7575993, 36.5849082, 252.0],
          [-121.7576204, 36.5848664, 252.0],
          [-121.7576361, 36.5848327, 252.0],
          [-121.7576546, 36.5847902, 252.0],
          [-121.7576753, 36.5847388, 252.0],
          [-121.7576982, 36.5846784, 252.0],
          [-121.7577167, 36.5846265, 252.0],
          [-121.7577247, 36.5846002, 252.0],
          [-121.7577366, 36.5845562, 252.0],
          [-121.7577443, 36.5845207, 252.0],
          [-121.7577611, 36.5844225, 252.0],
          [-121.7577658, 36.5843776, 252.0],
          [-121.7577719, 36.5842876, 252.0],
          [-121.7577753, 36.5841164, 250.0],
          [-121.7577738, 36.5840353, 250.0],
          [-121.7577734, 36.5839091, 250.0],
          [-121.7577697, 36.5838461, 250.0],
          [-121.7577732, 36.5837651, 250.0],
          [-121.7577707, 36.583675, 250.0],
          [-121.7577724, 36.583639, 250.0],
          [-121.7577784, 36.5835851, 250.0],
          [-121.7577805, 36.5835581, 250.0],
          [-121.7577808, 36.5835221, 250.0],
          [-121.757779, 36.583468, 250.0],
          [-121.7577733, 36.5833961, 250.0],
          [-121.7577706, 36.583333, 250.0],
          [-121.757767, 36.5832971, 244.0],
          [-121.7577585, 36.5832435, 244.0],
          [-121.7577572, 36.5832255, 244.0],
          [-121.7577556, 36.5831714, 244.0],
          [-121.7577529, 36.5831354, 244.0],
          [-121.7577459, 36.5830636, 244.0],
          [-121.757738, 36.5830099, 244.0],
          [-121.7577344, 36.5829468, 244.0],
          [-121.7577328, 36.5828928, 244.0],
          [-121.7577308, 36.5828568, 244.0],
          [-121.7577247, 36.5827849, 244.0],
          [-121.7577197, 36.582749, 244.0],
          [-121.7577138, 36.5827224, 244.0],
          [-121.7577053, 36.5826963, 244.0],
          [-121.757698, 36.5826792, 244.0],
          [-121.7576847, 36.5826544, 244.0],
          [-121.7576686, 36.5826307, 244.0],
          [-121.7576564, 36.5826156, 244.0],
          [-121.7576431, 36.5826011, 244.0],
          [-121.7576214, 36.5825805, 244.0],
          [-121.757598, 36.5825612, 244.0],
          [-121.7575814, 36.5825491, 244.0],
          [-121.7575637, 36.582538, 244.0],
          [-121.7575356, 36.5825233, 244.0],
          [-121.757506, 36.5825107, 244.0],
          [-121.7574753, 36.5824998, 231.0],
          [-121.7574437, 36.5824908, 231.0],
          [-121.7574221, 36.5824861, 231.0],
          [-121.7574002, 36.5824826, 231.0],
          [-121.7573781, 36.5824802, 231.0],
          [-121.7573558, 36.582479, 231.0],
          [-121.7573222, 36.5824791, 231.0],
          [-121.7572999, 36.5824803, 231.0],
          [-121.7572666, 36.5824835, 231.0],
          [-121.7572336, 36.5824879, 231.0],
          [-121.7571897, 36.582495, 231.0],
          [-121.7571572, 36.5825015, 231.0],
          [-121.7571358, 36.5825067, 231.0],
          [-121.7571042, 36.5825158, 231.0],
          [-121.7570735, 36.5825265, 231.0],
          [-121.7570536, 36.5825348, 231.0],
          [-121.7570345, 36.5825442, 231.0],
          [-121.7570162, 36.5825545, 231.0],
          [-121.7569901, 36.5825715, 231.0],
          [-121.7569658, 36.5825901, 231.0],
          [-121.7569505, 36.5826033, 231.0],
          [-121.7569365, 36.5826172, 231.0],
          [-121.756924, 36.5826322, 231.0],
          [-121.756913, 36.5826479, 231.0],
          [-121.7569035, 36.5826642, 231.0],
          [-121.7568914, 36.5826894, 231.0],
          [-121.7568809, 36.5827151, 231.0],
          [-121.756872, 36.5827412, 231.0],
          [-121.756867, 36.5827587, 231.0],
          [-121.756863, 36.5827765, 231.0],
          [-121.7568603, 36.5827944, 231.0],
          [-121.7568594, 36.5828124, 231.0],
          [-121.7568599, 36.5828304, 231.0],
          [-121.7568631, 36.5828573, 231.0],
          [-121.7568668, 36.5828751, 231.0],
          [-121.7568718, 36.5828927, 231.0],
          [-121.7568778, 36.58291, 231.0],
          [-121.7568919, 36.5829442, 231.0],
          [-121.756911, 36.5829865, 231.0],
          [-121.7569641, 36.5830956, 231.0],
          [-121.7569742, 36.5831214, 231.0],
          [-121.757, 36.5832091, 231.0],
          [-121.7570195, 36.5832702, 231.0],
          [-121.757034, 36.5833229, 231.0],
          [-121.7570525, 36.5833842, 233.0],
          [-121.7570586, 36.5834108, 233.0],
          [-121.7570798, 36.5835176, 233.0],
          [-121.7570854, 36.5835534, 233.0],
          [-121.7570953, 36.5836341, 233.0],
          [-121.7571001, 36.583679, 233.0],
          [-121.7571028, 36.5837149, 233.0],
          [-121.7571086, 36.583832, 233.0],
          [-121.7571087, 36.5839311, 233.0],
          [-121.7571079, 36.5839672, 233.0],
          [-121.7571042, 36.5840121, 233.0],
          [-121.7570914, 36.5841288, 233.0],
          [-121.7570832, 36.5841825, 240.0],
          [-121.7570634, 36.5842712, 240.0],
          [-121.757045, 36.5843601, 240.0],
          [-121.7570181, 36.5844752, 240.0],
          [-121.7569792, 36.5846344, 240.0],
          [-121.7569689, 36.5846694, 240.0],
          [-121.7569623, 36.5846866, 240.0],
          [-121.7569547, 36.5847036, 240.0],
          [-121.7569327, 36.584745, 240.0],
          [-121.7569116, 36.5847768, 240.0],
          [-121.7568874, 36.5848071, 240.0],
          [-121.7568604, 36.5848358, 240.0],
          [-121.7568376, 36.5848557, 240.0],
          [-121.7568045, 36.5848799, 240.0],
          [-121.7567693, 36.5849021, 240.0],
          [-121.7567507, 36.5849121, 240.0],
          [-121.7567314, 36.5849212, 240.0],
          [-121.7567115, 36.5849293, 240.0],
          [-121.756691, 36.5849365, 240.0],
          [-121.7566701, 36.584943, 229.0],
          [-121.7566383, 36.5849515, 229.0],
          [-121.7566168, 36.5849564, 229.0],
          [-121.7565841, 36.5849625, 229.0],
          [-121.7565511, 36.584967, 229.0],
          [-121.7565289, 36.5849691, 229.0],
          [-121.7565066, 36.5849703, 229.0],
          [-121.7564843, 36.5849705, 229.0],
          [-121.7564397, 36.5849679, 229.0],
          [-121.7563844, 36.5849611, 229.0],
          [-121.7563186, 36.5849508, 229.0],
          [-121.7562097, 36.5849307, 229.0],
          [-121.7560141, 36.584893, 229.0],
          [-121.7558184, 36.5848554, 229.0],
          [-121.7556885, 36.5848285, 229.0],
          [-121.7555259, 36.5847959, 229.0],
          [-121.7554386, 36.5847802, 229.0],
          [-121.7552393, 36.5847422, 229.0],
          [-121.7550399, 36.5847041, 229.0],
          [-121.7548405, 36.5846661, 228.0],
          [-121.7547642, 36.5846524, 228.0],
          [-121.7546775, 36.5846349, 228.0],
          [-121.7546012, 36.5846209, 228.0],
          [-121.7544821, 36.5845965, 228.0],
          [-121.7542976, 36.5845599, 228.0],
          [-121.7542545, 36.5845503, 228.0],
          [-121.7542227, 36.5845417, 228.0],
          [-121.7541811, 36.5845285, 228.0],
          [-121.7541408, 36.584513, 229.0],
          [-121.7541018, 36.5844953, 229.0],
          [-121.7540736, 36.5844807, 229.0],
          [-121.7540467, 36.5844647, 229.0],
          [-121.7540125, 36.5844414, 229.0],
          [-121.7539559, 36.5843979, 229.0],
          [-121.7539324, 36.5843786, 229.0],
          [-121.7539177, 36.584365, 229.0],
          [-121.7538972, 36.5843437, 229.0],
          [-121.7538786, 36.5843212, 229.0],
          [-121.7538618, 36.5842977, 229.0],
          [-121.7538419, 36.5842655, 229.0],
          [-121.7538191, 36.5842243, 229.0],
          [-121.7538069, 36.5841991, 229.0],
          [-121.753797, 36.5841733, 229.0],
          [-121.7537892, 36.584147, 228.0],
          [-121.7537813, 36.5841116, 228.0],
          [-121.7537669, 36.5840222, 228.0],
          [-121.7537601, 36.5839684, 228.0],
          [-121.7537495, 36.5838606, 228.0],
          [-121.7537413, 36.5837617, 228.0],
          [-121.7537242, 36.5836091, 228.0],
          [-121.7537123, 36.5834698, 228.0],
          [-121.7537003, 36.5833304, 228.0],
          [-121.7536919, 36.5832496, 228.0],
          [-121.7536804, 36.5830786, 228.0],
          [-121.753672, 36.5829978, 228.0],
          [-121.7536672, 36.5829348, 228.0],
          [-121.7536651, 36.5828988, 228.0],
          [-121.7536647, 36.5828718, 228.0],
          [-121.7536669, 36.5827727, 228.0],
          [-121.7536684, 36.5827457, 228.0],
          [-121.7536772, 36.5826468, 228.0],
          [-121.7536945, 36.5825214, 228.0],
          [-121.7537024, 36.5824768, 229.0],
          [-121.7537144, 36.5824236, 229.0],
          [-121.7537307, 36.5823436, 229.0],
          [-121.7537677, 36.5822117, 229.0],
          [-121.7537929, 36.5821332, 229.0],
          [-121.7538379, 36.582003, 229.0],
          [-121.7538828, 36.5818728, 229.0],
          [-121.7539209, 36.5817691, 229.0],
          [-121.7539534, 36.5816782, 229.0],
          [-121.7539859, 36.5815872, 230.0],
          [-121.754015, 36.5815096, 230.0],
          [-121.7540457, 36.581423, 230.0],
          [-121.7540747, 36.5813453, 230.0],
          [-121.7541125, 36.5812368, 230.0],
          [-121.7541503, 36.5811284, 230.0],
          [-121.7541722, 36.5810678, 228.0],
          [-121.7541988, 36.5809896, 228.0],
          [-121.7542561, 36.5808341, 228.0],
          [-121.7542787, 36.5807644, 230.0],
          [-121.7543231, 36.580634, 230.0],
          [-121.754366, 36.5805127, 230.0],
          [-121.7543782, 36.5804688, 230.0],
          [-121.7543833, 36.580442, 230.0],
          [-121.7543868, 36.5804151, 230.0],
          [-121.7543887, 36.5803882, 230.0],
          [-121.7543891, 36.5803701, 230.0],
          [-121.7543883, 36.5803521, 230.0],
          [-121.7543861, 36.5803342, 230.0],
          [-121.7543827, 36.5803164, 230.0],
          [-121.7543758, 36.5802899, 230.0],
          [-121.7543672, 36.5802638, 230.0],
          [-121.7543541, 36.5802293, 230.0],
          [-121.7543434, 36.5802037, 230.0],
          [-121.7543308, 36.5801787, 230.0],
          [-121.7543157, 36.5801545, 230.0],
          [-121.754294, 36.580123, 230.0],
          [-121.7542758, 36.5801003, 230.0],
          [-121.7542618, 36.5800863, 230.0],
          [-121.7542312, 36.58006, 230.0],
          [-121.7542063, 36.5800419, 230.0],
          [-121.7541889, 36.5800306, 230.0],
          [-121.7541617, 36.5800148, 231.0],
          [-121.7540961, 36.5799804, 235.0],
          [-121.7540476, 36.579958, 235.0],
          [-121.7540075, 36.5799422, 235.0],
          [-121.7539658, 36.5799292, 235.0],
          [-121.7539232, 36.5799182, 235.0],
          [-121.7538691, 36.5799071, 235.0],
          [-121.7538142, 36.5798988, 235.0],
          [-121.7537255, 36.5798896, 235.0],
          [-121.7536699, 36.5798852, 235.0],
          [-121.7536252, 36.5798837, 235.0],
          [-121.7535806, 36.5798843, 235.0],
          [-121.753469, 36.5798889, 235.0],
          [-121.7534244, 36.5798916, 235.0],
          [-121.7533799, 36.5798954, 235.0],
          [-121.7532138, 36.5799131, 237.0],
          [-121.753092, 36.5799267, 237.0],
          [-121.7529703, 36.5799404, 237.0],
          [-121.7528714, 36.5799551, 237.0],
          [-121.7527397, 36.5799757, 237.0],
          [-121.7525748, 36.5799998, 236.0],
          [-121.7524651, 36.5800169, 242.0],
          [-121.7523552, 36.5800332, 242.0],
          [-121.7522453, 36.5800495, 242.0],
          [-121.7520588, 36.5800784, 242.0],
          [-121.7518497, 36.5801085, 242.0],
          [-121.7516734, 36.5801322, 242.0],
          [-121.7515463, 36.5801476, 253.0],
          [-121.7514192, 36.580163, 253.0],
          [-121.7512312, 36.5801847, 253.0],
          [-121.751115, 36.5801977, 253.0],
          [-121.7509987, 36.5802106, 253.0],
          [-121.750844, 36.580229, 253.0],
          [-121.7506786, 36.5802512, 266.0],
          [-121.7505577, 36.580269, 266.0],
          [-121.7504368, 36.5802868, 266.0],
          [-121.7503157, 36.5803039, 266.0],
          [-121.7502169, 36.5803192, 266.0],
          [-121.7500957, 36.5803357, 266.0],
          [-121.750052, 36.580343, 266.0],
          [-121.7499981, 36.5803549, 257.0],
          [-121.749977, 36.5803609, 257.0],
          [-121.7499564, 36.5803679, 257.0],
          [-121.7499365, 36.5803761, 257.0],
          [-121.7499176, 36.5803856, 257.0],
          [-121.7499086, 36.580391, 257.0],
          [-121.7498916, 36.5804027, 257.0],
          [-121.749876, 36.5804156, 257.0],
          [-121.7498615, 36.5804293, 257.0],
          [-121.7498482, 36.5804438, 257.0],
          [-121.7498361, 36.5804589, 257.0],
          [-121.7497643, 36.5805608, 257.0],
          [-121.7497293, 36.5806172, 257.0],
          [-121.7497085, 36.5806491, 257.0],
          [-121.7496997, 36.5806656, 257.0],
          [-121.7496884, 36.5806911, 257.0],
          [-121.7496823, 36.5807084, 257.0],
          [-121.7496662, 36.5807609, 257.0],
          [-121.7496598, 36.5807782, 257.0],
          [-121.7496484, 36.5808036, 257.0],
          [-121.7496356, 36.5808286, 272.0],
          [-121.7496218, 36.5808532, 272.0],
          [-121.7495768, 36.5809257, 272.0],
          [-121.749538, 36.5809907, 272.0],
          [-121.7495059, 36.5810482, 272.0],
          [-121.7494681, 36.5811136, 272.0],
          [-121.7494367, 36.5811713, 272.0],
          [-121.7493919, 36.5812636, 272.0],
          [-121.7493663, 36.5813327, 272.0],
          [-121.7493554, 36.5813677, 272.0],
          [-121.7493386, 36.5814293, 272.0],
          [-121.7493278, 36.5814735, 272.0],
          [-121.7493183, 36.5815179, 272.0],
          [-121.7493015, 36.581607, 272.0],
          [-121.7492934, 36.5816607, 269.0],
          [-121.7492862, 36.5817506, 269.0],
          [-121.749279, 36.5818405, 269.0],
          [-121.7492776, 36.5818766, 269.0],
          [-121.7492772, 36.5819306, 269.0],
          [-121.7492798, 36.5820568, 269.0],
          [-121.7492784, 36.5820838, 269.0],
          [-121.7492752, 36.5821107, 269.0],
          [-121.7492706, 36.5821375, 269.0],
          [-121.7492647, 36.5821641, 269.0],
          [-121.7492491, 36.5822167, 269.0],
          [-121.7492379, 36.5822608, 269.0],
          [-121.7492288, 36.5822868, 269.0],
          [-121.7492034, 36.5823465, 269.0],
          [-121.7491972, 36.5823638, 269.0],
          [-121.7491912, 36.5823904, 269.0],
          [-121.7491862, 36.5824262, 269.0],
          [-121.7491786, 36.5824708, 269.0],
          [-121.7491763, 36.5824978, 267.0],
          [-121.7491755, 36.5825248, 267.0],
          [-121.7491783, 36.5826149, 267.0],
          [-121.7491779, 36.582651, 267.0],
          [-121.7491626, 36.5828037, 276.0],
          [-121.7491574, 36.5828757, 276.0],
          [-121.7491507, 36.5829475, 276.0],
          [-121.7491401, 36.5830915, 276.0],
          [-121.7491359, 36.5831725, 276.0],
          [-121.7491329, 36.5832716, 276.0],
          [-121.7491296, 36.5834338, 282.0],
          [-121.7491308, 36.583578, 282.0],
          [-121.7491299, 36.583596, 282.0],
          [-121.7491277, 36.5836139, 282.0],
          [-121.749121, 36.5836496, 282.0],
          [-121.7491184, 36.5836675, 282.0],
          [-121.7491175, 36.5836945, 282.0],
          [-121.7491201, 36.5837124, 282.0],
          [-121.7491225, 36.5837212, 282.0],
          [-121.7491257, 36.5837298, 282.0],
          [-121.749134, 36.5837465, 282.0],
          [-121.7491492, 36.5837706, 282.0],
          [-121.7491883, 36.5838252, 274.0],
          [-121.7492032, 36.5838495, 274.0],
          [-121.7492115, 36.5838662, 274.0],
          [-121.7492145, 36.5838749, 274.0],
          [-121.749217, 36.5838836, 274.0],
          [-121.7492183, 36.5838926, 274.0],
          [-121.7492191, 36.5839015, 274.0],
          [-121.749219, 36.5839286, 274.0],
          [-121.749217, 36.5839556, 274.0],
          [-121.749202, 36.5840721, 274.0],
          [-121.7491977, 36.5840989, 274.0],
          [-121.74916, 36.584249, 280.0],
          [-121.7491495, 36.5842841, 280.0],
          [-121.749121, 36.5843712, 280.0],
          [-121.7490898, 36.5844578, 280.0],
          [-121.7490672, 36.5845181, 280.0],
          [-121.7490221, 36.5846295, 280.0],
          [-121.7490092, 36.584664, 280.0],
          [-121.7490011, 36.5846903, 280.0],
          [-121.7489949, 36.5847168, 280.0],
          [-121.7489915, 36.5847437, 280.0],
          [-121.7489908, 36.5847617, 280.0],
          [-121.7489926, 36.5847887, 280.0],
          [-121.7489959, 36.5848065, 280.0],
          [-121.7490012, 36.584824, 280.0],
          [-121.7490085, 36.5848411, 280.0],
          [-121.7490132, 36.5848492, 280.0],
          [-121.7490233, 36.5848653, 280.0],
          [-121.7490355, 36.5848803, 280.0],
          [-121.74905, 36.5848941, 280.0],
          [-121.7490667, 36.584906, 280.0],
          [-121.749076, 36.5849109, 280.0],
          [-121.7490855, 36.5849156, 280.0],
          [-121.7491058, 36.5849232, 280.0],
          [-121.7491164, 36.5849261, 280.0],
          [-121.7491378, 36.5849312, 280.0],
          [-121.7491705, 36.5849371, 280.0],
          [-121.7492036, 36.5849414, 278.0],
          [-121.7492259, 36.5849429, 278.0],
          [-121.7492482, 36.5849428, 278.0],
          [-121.7493039, 36.5849399, 278.0],
          [-121.7493151, 36.58494, 278.0],
          [-121.7493374, 36.5849408, 278.0],
          [-121.7493595, 36.5849435, 278.0],
          [-121.7493812, 36.5849477, 278.0],
          [-121.7494024, 36.5849535, 278.0],
          [-121.7494126, 36.5849571, 278.0],
          [-121.7494321, 36.5849659, 278.0],
          [-121.7494413, 36.584971, 278.0],
          [-121.7494592, 36.5849817, 278.0],
          [-121.7494841, 36.5849999, 271.0],
          [-121.7494991, 36.5850132, 271.0],
          [-121.7495128, 36.5850274, 271.0],
          [-121.7495307, 36.5850503, 271.0],
          [-121.7495458, 36.5850744, 271.0],
          [-121.7495542, 36.5850911, 271.0],
          [-121.7495643, 36.5851169, 271.0],
          [-121.7495833, 36.5851781, 271.0],
          [-121.7495927, 36.5852133, 271.0],
          [-121.7496006, 36.5852488, 271.0],
          [-121.7496129, 36.5853111, 271.0],
          [-121.7496325, 36.5854271, 271.0],
          [-121.7496373, 36.585463, 271.0],
          [-121.749641, 36.5855079, 271.0],
          [-121.7496424, 36.585544, 271.0],
          [-121.7496429, 36.5856161, 271.0],
          [-121.749641, 36.5856701, 271.0],
          [-121.749636, 36.5857421, 271.0],
          [-121.7496304, 36.5857869, 271.0],
          [-121.7496139, 36.5858669, 255.0],
          [-121.7496062, 36.5859116, 255.0],
          [-121.7495988, 36.5859653, 255.0],
          [-121.7495952, 36.5860012, 255.0],
          [-121.7495952, 36.5860192, 255.0],
          [-121.7495986, 36.5860642, 255.0],
          [-121.7495992, 36.5861183, 255.0],
          [-121.7496009, 36.5861453, 255.0],
          [-121.7496091, 36.586208, 255.0],
          [-121.7496202, 36.5862704, 255.0],
          [-121.7496299, 36.5863148, 255.0],
          [-121.7496409, 36.586359, 255.0],
          [-121.7496704, 36.5864552, 255.0],
          [-121.7496863, 36.5864984, 255.0],
          [-121.7497082, 36.5865495, 255.0],
          [-121.7497163, 36.5865663, 255.0],
          [-121.7497255, 36.5865827, 255.0],
          [-121.7497412, 36.5866066, 255.0],
          [-121.7497639, 36.5866377, 255.0],
          [-121.7497882, 36.5866679, 258.0],
          [-121.749815, 36.5866967, 258.0],
          [-121.74988, 36.5867587, 258.0],
          [-121.7499107, 36.5867848, 258.0],
          [-121.7499429, 36.5868099, 258.0],
          [-121.7499844, 36.58684, 258.0],
          [-121.7500185, 36.5868634, 253.0],
          [-121.7500454, 36.5868795, 253.0],
          [-121.7500643, 36.5868891, 253.0],
          [-121.7500937, 36.586902, 253.0],
          [-121.750124, 36.5869137, 253.0],
          [-121.750165, 36.5869279, 253.0],
          [-121.7502069, 36.5869406, 253.0],
          [-121.7502385, 36.5869494, 253.0],
          [-121.7502708, 36.5869567, 253.0],
          [-121.7503696, 36.586972, 253.0],
          [-121.7504027, 36.586976, 253.0],
          [-121.7504362, 36.5869771, 253.0],
          [-121.7504697, 36.5869754, 253.0],
          [-121.7505138, 36.58697, 253.0],
          [-121.7505462, 36.586963, 253.0],
          [-121.7505567, 36.5869599, 253.0],
          [-121.7506086, 36.5869433, 253.0],
          [-121.7506498, 36.5869293, 253.0],
          [-121.7507206, 36.5869026, 253.0],
          [-121.7507521, 36.5868933, 253.0],
          [-121.7509021, 36.5868573, 247.0],
          [-121.750999, 36.5868358, 247.0],
          [-121.7510751, 36.5868212, 247.0],
          [-121.7511285, 36.586808, 247.0],
          [-121.7511602, 36.586799, 247.0],
          [-121.7512957, 36.586757, 247.0],
          [-121.7513992, 36.5867229, 247.0],
          [-121.7514307, 36.5867136, 247.0],
          [-121.7514953, 36.5866992, 247.0],
          [-121.751517, 36.586695, 247.0],
          [-121.751539, 36.5866918, 247.0],
          [-121.7515724, 36.5866892, 247.0],
          [-121.7516394, 36.5866887, 247.0],
          [-121.7516617, 36.5866876, 247.0],
          [-121.7516949, 36.5866837, 245.0],
          [-121.7517493, 36.5866735, 245.0],
          [-121.7517815, 36.5866661, 245.0],
          [-121.7518877, 36.586638, 238.0],
          [-121.7520105, 36.5866074, 238.0],
          [-121.7521333, 36.5865769, 238.0],
          [-121.7522512, 36.5865488, 238.0],
          [-121.7523691, 36.5865207, 238.0],
          [-121.7524758, 36.586494, 238.0],
          [-121.7525298, 36.5864824, 235.0],
          [-121.7525845, 36.5864732, 235.0],
          [-121.7526398, 36.586467, 235.0],
          [-121.7526621, 36.5864655, 235.0],
          [-121.7526844, 36.586465, 235.0],
          [-121.7527179, 36.5864665, 235.0],
          [-121.75274, 36.5864688, 235.0],
          [-121.752773, 36.5864739, 235.0],
          [-121.752838, 36.586487, 235.0],
          [-121.7528594, 36.5864923, 235.0],
          [-121.7528803, 36.5864985, 235.0],
          [-121.7529107, 36.5865099, 235.0],
          [-121.7529495, 36.5865279, 235.0],
          [-121.7529866, 36.586548, 235.0],
          [-121.7530045, 36.5865587, 235.0],
          [-121.7530216, 36.5865703, 235.0],
          [-121.7530455, 36.5865893, 235.0],
          [-121.7530669, 36.5866101, 235.0],
          [-121.7530992, 36.5866469, 235.0],
          [-121.7531421, 36.5866996, 236.0],
          [-121.7531651, 36.5867305, 236.0],
          [-121.753223, 36.586818, 236.0],
          [-121.7533004, 36.5869379, 236.0],
          [-121.7534004, 36.5870889, 233.0],
          [-121.7534518, 36.5871689, 233.0],
          [-121.7535308, 36.5872881, 233.0],
          [-121.7536098, 36.5874074, 233.0],
          [-121.7536796, 36.5875049, 234.0],
          [-121.7537495, 36.5876025, 234.0],
          [-121.7538516, 36.5877422, 234.0],
          [-121.753868, 36.5877658, 234.0],
          [-121.753878, 36.5877819, 234.0],
          [-121.7538871, 36.5877984, 234.0],
          [-121.7539204, 36.5878653, 234.0],
          [-121.7539527, 36.5879325, 234.0],
          [-121.7539778, 36.5879826, 234.0],
          [-121.7539916, 36.5880073, 234.0],
          [-121.7540743, 36.5881351, 234.0],
          [-121.754157, 36.588263, 234.0],
          [-121.7542096, 36.5883424, 232.0],
          [-121.7542953, 36.588469, 232.0],
          [-121.754346, 36.5885493, 232.0],
          [-121.7543677, 36.5885808, 232.0],
          [-121.754386, 36.5886035, 232.0],
          [-121.7544065, 36.5886248, 232.0],
          [-121.7544299, 36.5886442, 232.0],
          [-121.7544471, 36.5886558, 232.0],
          [-121.754466, 36.5886654, 232.0],
          [-121.7544866, 36.5886722, 232.0],
          [-121.7545084, 36.5886761, 232.0],
          [-121.7545196, 36.588677, 232.0],
          [-121.7545419, 36.5886775, 232.0],
          [-121.7545641, 36.5886759, 232.0],
          [-121.7545859, 36.5886718, 232.0],
          [-121.7546069, 36.5886656, 232.0],
          [-121.7546169, 36.5886616, 232.0],
          [-121.754636, 36.5886523, 232.0],
          [-121.7546539, 36.5886415, 232.0],
          [-121.7546788, 36.5886234, 232.0],
          [-121.7547094, 36.5885971, 232.0],
          [-121.754731, 36.5885764, 232.0],
          [-121.7547442, 36.5885619, 232.0],
          [-121.7547562, 36.5885467, 232.0],
          [-121.7548047, 36.5884756, 232.0],
          [-121.7548164, 36.5884603, 232.0],
          [-121.7548352, 36.5884379, 232.0],
          [-121.7549279, 36.5883363, 232.0],
          [-121.7550128, 36.5882412, 238.0],
          [-121.7550869, 36.5881621, 238.0],
          [-121.7551611, 36.5880831, 238.0],
          [-121.7552615, 36.5879638, 238.0],
          [-121.755353, 36.5878614, 238.0],
          [-121.7553668, 36.5878472, 238.0],
          [-121.7553816, 36.5878337, 238.0],
          [-121.755492, 36.5877444, 238.0],
          [-121.7555147, 36.5877245, 238.0],
          [-121.755535, 36.587703, 238.0],
          [-121.7555807, 36.5876518, 238.0],
          [-121.7556539, 36.5875721, 238.0],
          [-121.7557521, 36.5874663, 233.0],
          [-121.7558503, 36.5873605, 239.0],
          [-121.7559485, 36.5872547, 239.0],
          [-121.7559768, 36.5872268, 239.0],
          [-121.7560228, 36.5871875, 239.0],
          [-121.7560777, 36.5871306, 239.0],
          [-121.7561775, 36.587022, 239.0],
          [-121.7562365, 36.5869562, 239.0],
          [-121.7562973, 36.5868916, 239.0],
          [-121.7563157, 36.5868691, 239.0],
          [-121.7563437, 36.58683, 239.0],
          [-121.7563733, 36.5867919, 239.0],
          [-121.7564071, 36.5867559, 239.0],
          [-121.7565059, 36.5866468, 235.0],
          [-121.7566048, 36.5865376, 235.0],
          [-121.756662, 36.5864722, 235.0]
        ]
      }
    }
  ]
}
