{
  "type": "FeatureCollection",
  "features": [
    {
      "type": "Feature",
      "properties": {
        "Name": "Circuit de la Sarthe",
        "source": "tobi/track-atlas (OpenStreetMap contributors; ODbL 1.0)",
        "source_id": "circuit-de-la-sarthe/24h",
        "revision": "c783def5a24df8ce8f034262e8228c262b854e0e",
        "upstream_path": "tracks/circuit-de-la-sarthe/raw/layers/24h.geojson",
        "upstream_sha256": "e4255e65b684daae109b95670d5c1f54983d30aa1d9cad7aa57497edfb75587c",
        "line": [
          47.95091,
          0.207592
        ],
        "direction": "clockwise",
        "heights": "Open-Meteo DEM (Copernicus GLO-90), metres above sea level",
        "retrieved": "2026-09-27"
      },
      "geometry": {
        "type": "LineString",
        "coordinates": [
          [0.207592, 47.95091, 55.0],
          [0.207606, 47.951166, 55.0],
          [0.207619, 47.951414, 55.0],
          [0.207631, 47.951663, 57.0],
          [0.207644, 47.951911, 57.0],
          [0.207656, 47.952159, 57.0],
          [0.207669, 47.952407, 57.0],
          [0.207681, 47.952655, 61.0],
          [0.207692, 47.952776, 61.0],
          [0.207707, 47.952895, 61.0],
          [0.207716, 47.952964, 61.0],
          [0.207731, 47.953049, 61.0],
          [0.207747, 47.953141, 61.0],
          [0.20777, 47.953257, 61.0],
          [0.207794, 47.953357, 62.0],
          [0.20783, 47.953498, 62.0],
          [0.207876, 47.953655, 62.0],
          [0.207921, 47.9538, 62.0],
          [0.207967, 47.953945, 62.0],
          [0.207997, 47.954031, 62.0],
          [0.208042, 47.954159, 64.0],
          [0.208098, 47.954295, 64.0],
          [0.208169, 47.954457, 64.0],
          [0.208252, 47.954628, 64.0],
          [0.208336, 47.954788, 64.0],
          [0.208419, 47.954926, 64.0],
          [0.208503, 47.955069, 67.0],
          [0.208572, 47.95518, 67.0],
          [0.208605, 47.955228, 67.0],
          [0.208637, 47.955269, 67.0],
          [0.208666, 47.955304, 67.0],
          [0.208696, 47.955339, 67.0],
          [0.208725, 47.95537, 67.0],
          [0.208764, 47.95541, 67.0],
          [0.208806, 47.955451, 67.0],
          [0.208856, 47.955497, 67.0],
          [0.208913, 47.955544, 67.0],
          [0.208972, 47.955589, 67.0],
          [0.209018, 47.955621, 67.0],
          [0.209055, 47.955647, 67.0],
          [0.209094, 47.955672, 67.0],
          [0.209128, 47.955692, 67.0],
          [0.209193, 47.955728, 69.0],
          [0.209252, 47.955758, 69.0],
          [0.209397, 47.955823, 69.0],
          [0.209699, 47.955946, 71.0],
          [0.21, 47.95607, 74.0],
          [0.210301, 47.956193, 74.0],
          [0.210602, 47.956317, 74.0],
          [0.210903, 47.95644, 75.0],
          [0.210923, 47.956449, 75.0],
          [0.210938, 47.956456, 75.0],
          [0.210949, 47.956461, 75.0],
          [0.210958, 47.956466, 75.0],
          [0.210967, 47.956471, 75.0],
          [0.210976, 47.956478, 75.0],
          [0.210986, 47.956485, 75.0],
          [0.210994, 47.956492, 75.0],
          [0.211001, 47.956498, 75.0],
          [0.211008, 47.956505, 75.0],
          [0.211013, 47.956512, 75.0],
          [0.211018, 47.95652, 75.0],
          [0.211023, 47.956526, 75.0],
          [0.211027, 47.956532, 75.0],
          [0.21103, 47.956539, 75.0],
          [0.211033, 47.956545, 75.0],
          [0.211036, 47.956552, 75.0],
          [0.211038, 47.956558, 75.0],
          [0.21104, 47.956565, 75.0],
          [0.211042, 47.956571, 75.0],
          [0.211043, 47.956578, 75.0],
          [0.211044, 47.956586, 75.0],
          [0.211045, 47.956593, 75.0],
          [0.211045, 47.956601, 75.0],
          [0.211045, 47.956609, 75.0],
          [0.211045, 47.956617, 75.0],
          [0.211044, 47.956624, 75.0],
          [0.211042, 47.956632, 75.0],
          [0.211039, 47.95664, 75.0],
          [0.211035, 47.956651, 75.0],
          [0.211029, 47.95667, 80.0],
          [0.210981, 47.956808, 80.0],
          [0.210933, 47.956945, 80.0],
          [0.21093, 47.956954, 80.0],
          [0.210928, 47.956963, 80.0],
          [0.210926, 47.95697, 80.0],
          [0.210925, 47.956979, 80.0],
          [0.210924, 47.956988, 80.0],
          [0.210923, 47.956998, 80.0],
          [0.210923, 47.957006, 80.0],
          [0.210923, 47.957012, 80.0],
          [0.210923, 47.95702, 80.0],
          [0.210924, 47.957028, 80.0],
          [0.210925, 47.957037, 80.0],
          [0.210927, 47.957044, 80.0],
          [0.210929, 47.95705, 80.0],
          [0.210931, 47.957057, 80.0],
          [0.210934, 47.957063, 80.0],
          [0.210937, 47.957069, 80.0],
          [0.210941, 47.957075, 80.0],
          [0.210944, 47.957081, 80.0],
          [0.21095, 47.957089, 80.0],
          [0.210955, 47.957097, 80.0],
          [0.21096, 47.957104, 80.0],
          [0.210966, 47.95711, 80.0],
          [0.210971, 47.957117, 80.0],
          [0.210978, 47.957123, 80.0],
          [0.210985, 47.957131, 80.0],
          [0.210993, 47.957138, 80.0],
          [0.211, 47.957144, 80.0],
          [0.211007, 47.95715, 80.0],
          [0.211014, 47.957155, 80.0],
          [0.211021, 47.95716, 80.0],
          [0.211029, 47.957166, 80.0],
          [0.211036, 47.95717, 80.0],
          [0.211043, 47.957174, 80.0],
          [0.21105, 47.957178, 80.0],
          [0.211059, 47.957182, 80.0],
          [0.211074, 47.957189, 80.0],
          [0.211384, 47.957322, 80.0],
          [0.211695, 47.957455, 81.0],
          [0.212005, 47.957587, 82.0],
          [0.212315, 47.95772, 82.0],
          [0.21251, 47.957803, 81.0],
          [0.212702, 47.957885, 81.0],
          [0.212832, 47.957942, 81.0],
          [0.212922, 47.957985, 81.0],
          [0.212997, 47.958025, 81.0],
          [0.21307, 47.958067, 81.0],
          [0.21313, 47.958105, 81.0],
          [0.213189, 47.958145, 81.0],
          [0.213246, 47.958188, 81.0],
          [0.21329, 47.958224, 81.0],
          [0.213335, 47.958265, 80.0],
          [0.213382, 47.958309, 80.0],
          [0.213569, 47.958491, 80.0],
          [0.213765, 47.958682, 80.0],
          [0.213831, 47.958742, 80.0],
          [0.213892, 47.958789, 80.0],
          [0.213948, 47.95883, 80.0],
          [0.214016, 47.958875, 80.0],
          [0.214072, 47.958909, 80.0],
          [0.214142, 47.95895, 80.0],
          [0.214181, 47.958972, 76.0],
          [0.214212, 47.958988, 76.0],
          [0.214245, 47.959002, 76.0],
          [0.214279, 47.959016, 76.0],
          [0.214308, 47.959029, 76.0],
          [0.21433, 47.959038, 76.0],
          [0.214352, 47.959046, 76.0],
          [0.214365, 47.95905, 76.0],
          [0.214519, 47.959101, 76.0],
          [0.214674, 47.959149, 76.0],
          [0.214755, 47.959171, 82.0],
          [0.214827, 47.959192, 82.0],
          [0.214877, 47.959205, 82.0],
          [0.214942, 47.959221, 82.0],
          [0.214993, 47.959232, 80.0],
          [0.215041, 47.959242, 80.0],
          [0.215103, 47.959253, 80.0],
          [0.215169, 47.959262, 80.0],
          [0.215226, 47.95927, 80.0],
          [0.215283, 47.959274, 80.0],
          [0.215432, 47.959284, 80.0],
          [0.215637, 47.959292, 80.0],
          [0.215839, 47.959297, 75.0],
          [0.216041, 47.959303, 75.0],
          [0.216336, 47.95931, 75.0],
          [0.216477, 47.959313, 75.0],
          [0.216632, 47.959317, 75.0],
          [0.216729, 47.959325, 72.0],
          [0.216782, 47.959329, 72.0],
          [0.216833, 47.959335, 72.0],
          [0.216877, 47.959341, 72.0],
          [0.216915, 47.959347, 72.0],
          [0.216949, 47.959354, 72.0],
          [0.216978, 47.959361, 72.0],
          [0.217007, 47.959369, 72.0],
          [0.217039, 47.959379, 72.0],
          [0.217075, 47.959393, 72.0],
          [0.217112, 47.959409, 72.0],
          [0.217154, 47.959428, 72.0],
          [0.21719, 47.959446, 72.0],
          [0.217225, 47.959464, 72.0],
          [0.217262, 47.959486, 72.0],
          [0.217302, 47.959511, 72.0],
          [0.217331, 47.959531, 72.0],
          [0.217358, 47.959553, 72.0],
          [0.217384, 47.959574, 72.0],
          [0.21741, 47.959596, 72.0],
          [0.217434, 47.959621, 72.0],
          [0.217457, 47.959647, 72.0],
          [0.217476, 47.95967, 72.0],
          [0.217497, 47.959697, 69.0],
          [0.217517, 47.959727, 69.0],
          [0.217535, 47.959757, 69.0],
          [0.217553, 47.959785, 69.0],
          [0.21757, 47.959815, 69.0],
          [0.217583, 47.95984, 69.0],
          [0.217594, 47.959863, 69.0],
          [0.217601, 47.959882, 69.0],
          [0.217605, 47.9599, 69.0],
          [0.217609, 47.959916, 69.0],
          [0.217611, 47.959928, 69.0],
          [0.217612, 47.959937, 69.0],
          [0.217613, 47.959957, 69.0],
          [0.217613, 47.959987, 69.0],
          [0.217615, 47.960023, 77.0],
          [0.217616, 47.960116, 77.0],
          [0.217617, 47.960142, 77.0],
          [0.217619, 47.960166, 77.0],
          [0.217621, 47.960193, 77.0],
          [0.217624, 47.960215, 77.0],
          [0.217627, 47.960237, 77.0],
          [0.217632, 47.96026, 77.0],
          [0.217638, 47.960286, 77.0],
          [0.217644, 47.960312, 77.0],
          [0.217651, 47.960333, 77.0],
          [0.21766, 47.960362, 77.0],
          [0.21767, 47.960385, 77.0],
          [0.217681, 47.960408, 77.0],
          [0.217694, 47.960435, 77.0],
          [0.217706, 47.960458, 77.0],
          [0.217719, 47.960483, 77.0],
          [0.21773, 47.960502, 77.0],
          [0.217742, 47.960522, 77.0],
          [0.217756, 47.960543, 77.0],
          [0.217768, 47.96056, 77.0],
          [0.217782, 47.960579, 77.0],
          [0.217798, 47.960596, 77.0],
          [0.217816, 47.960616, 77.0],
          [0.217834, 47.960632, 77.0],
          [0.217851, 47.960647, 77.0],
          [0.217868, 47.960659, 77.0],
          [0.217887, 47.960672, 77.0],
          [0.217914, 47.96069, 77.0],
          [0.217939, 47.960705, 77.0],
          [0.217958, 47.960717, 77.0],
          [0.217975, 47.960727, 77.0],
          [0.217999, 47.960741, 77.0],
          [0.218022, 47.960754, 77.0],
          [0.218048, 47.960769, 77.0],
          [0.218081, 47.960787, 77.0],
          [0.218265, 47.960882, 84.0],
          [0.218449, 47.960977, 81.0],
          [0.218673, 47.961091, 81.0],
          [0.218778, 47.961143, 81.0],
          [0.218878, 47.96119, 81.0],
          [0.218944, 47.96122, 81.0],
          [0.219008, 47.961246, 81.0],
          [0.219056, 47.961264, 81.0],
          [0.219099, 47.96128, 81.0],
          [0.219136, 47.961293, 81.0],
          [0.219202, 47.961316, 77.0],
          [0.219327, 47.961359, 77.0],
          [0.219428, 47.961392, 77.0],
          [0.219545, 47.961426, 77.0],
          [0.219644, 47.961454, 77.0],
          [0.219792, 47.961492, 77.0],
          [0.220139, 47.961579, 74.0],
          [0.220485, 47.961667, 82.0],
          [0.220831, 47.961754, 82.0],
          [0.221178, 47.961841, 80.0],
          [0.22124, 47.961855, 80.0],
          [0.221306, 47.961866, 80.0],
          [0.221373, 47.961872, 80.0],
          [0.221431, 47.961872, 80.0],
          [0.221498, 47.961867, 80.0],
          [0.221555, 47.961859, 80.0],
          [0.221617, 47.961846, 80.0],
          [0.2217, 47.961823, 77.0],
          [0.221802, 47.961786, 77.0],
          [0.221979, 47.961719, 77.0],
          [0.222156, 47.961654, 68.0],
          [0.222301, 47.961596, 68.0],
          [0.222444, 47.961536, 68.0],
          [0.222586, 47.961476, 67.0],
          [0.222717, 47.961419, 67.0],
          [0.222859, 47.961356, 67.0],
          [0.223012, 47.961286, 67.0],
          [0.223114, 47.961241, 67.0],
          [0.223131, 47.961233, 67.0],
          [0.223211, 47.961194, 67.0],
          [0.223384, 47.96111, 67.0],
          [0.223473, 47.961063, 67.0],
          [0.223559, 47.961015, 67.0],
          [0.223653, 47.960958, 67.0],
          [0.223747, 47.960899, 67.0],
          [0.223871, 47.960822, 61.0],
          [0.223929, 47.960785, 61.0],
          [0.223951, 47.96077, 61.0],
          [0.223986, 47.960747, 61.0],
          [0.224019, 47.960724, 61.0],
          [0.224113, 47.960665, 61.0],
          [0.224186, 47.960613, 62.0],
          [0.224286, 47.960534, 62.0],
          [0.224385, 47.96045, 62.0],
          [0.224479, 47.960369, 62.0],
          [0.224581, 47.960285, 62.0],
          [0.224692, 47.960188, 62.0],
          [0.224905, 47.959963, 57.0],
          [0.225118, 47.959737, 57.0],
          [0.2253, 47.959544, 57.0],
          [0.225482, 47.959351, 57.0],
          [0.225663, 47.959158, 57.0],
          [0.225845, 47.958965, 54.0],
          [0.226026, 47.958772, 54.0],
          [0.226197, 47.958593, 54.0],
          [0.226367, 47.958415, 54.0],
          [0.226538, 47.958237, 53.0],
          [0.226675, 47.958085, 53.0],
          [0.226812, 47.957933, 53.0],
          [0.226935, 47.957787, 53.0],
          [0.227024, 47.957677, 53.0],
          [0.227107, 47.957573, 53.0],
          [0.227191, 47.957461, 53.0],
          [0.227298, 47.95731, 53.0],
          [0.227401, 47.957157, 53.0],
          [0.227515, 47.95697, 55.0],
          [0.22764, 47.956748, 55.0],
          [0.227759, 47.9565, 55.0],
          [0.227877, 47.956253, 55.0],
          [0.227996, 47.956005, 55.0],
          [0.228114, 47.955758, 54.0],
          [0.228233, 47.95551, 54.0],
          [0.228352, 47.955263, 55.0],
          [0.22847, 47.955015, 55.0],
          [0.228589, 47.954768, 55.0],
          [0.228708, 47.95452, 55.0],
          [0.228826, 47.954273, 55.0],
          [0.228945, 47.954025, 57.0],
          [0.229064, 47.953778, 57.0],
          [0.229182, 47.95353, 56.0],
          [0.229301, 47.953283, 56.0],
          [0.22942, 47.953035, 56.0],
          [0.229529, 47.952808, 56.0],
          [0.229638, 47.952581, 56.0],
          [0.229748, 47.952354, 57.0],
          [0.229857, 47.952127, 57.0],
          [0.229967, 47.951899, 57.0],
          [0.230076, 47.951672, 55.0],
          [0.230191, 47.951433, 54.0],
          [0.230307, 47.951193, 54.0],
          [0.230422, 47.950953, 54.0],
          [0.230537, 47.950714, 53.0],
          [0.230657, 47.950464, 53.0],
          [0.230777, 47.950214, 53.0],
          [0.230894, 47.94997, 52.0],
          [0.231011, 47.949726, 52.0],
          [0.231129, 47.949482, 52.0],
          [0.231246, 47.949238, 52.0],
          [0.231363, 47.948995, 53.0],
          [0.23148, 47.948751, 53.0],
          [0.231597, 47.948507, 53.0],
          [0.231687, 47.948324, 53.0],
          [0.231777, 47.948141, 53.0],
          [0.231823, 47.948045, 53.0],
          [0.231946, 47.947789, 53.0],
          [0.232069, 47.947532, 53.0],
          [0.232193, 47.947275, 50.0],
          [0.232316, 47.947018, 50.0],
          [0.232439, 47.946762, 50.0],
          [0.232563, 47.946505, 49.0],
          [0.232674, 47.946272, 49.0],
          [0.232785, 47.946038, 49.0],
          [0.232897, 47.945805, 48.0],
          [0.233008, 47.945572, 48.0],
          [0.23312, 47.945338, 48.0],
          [0.233231, 47.945105, 48.0],
          [0.233238, 47.945064, 48.0],
          [0.233245, 47.945032, 48.0],
          [0.233248, 47.945011, 48.0],
          [0.233251, 47.94499, 49.0],
          [0.233252, 47.944974, 49.0],
          [0.233253, 47.944961, 49.0],
          [0.233253, 47.94495, 49.0],
          [0.233253, 47.944942, 49.0],
          [0.233252, 47.944931, 49.0],
          [0.23325, 47.944921, 49.0],
          [0.233249, 47.944911, 49.0],
          [0.233246, 47.9449, 49.0],
          [0.233242, 47.944889, 49.0],
          [0.233238, 47.944878, 49.0],
          [0.23323, 47.944859, 49.0],
          [0.23322, 47.944841, 49.0],
          [0.23321, 47.944824, 49.0],
          [0.2332, 47.944808, 49.0],
          [0.233187, 47.944791, 49.0],
          [0.233176, 47.944775, 49.0],
          [0.233163, 47.94476, 49.0],
          [0.233158, 47.944755, 49.0],
          [0.23315, 47.944746, 49.0],
          [0.233136, 47.944733, 49.0],
          [0.233125, 47.944723, 49.0],
          [0.233118, 47.944717, 49.0],
          [0.232998, 47.944621, 49.0],
          [0.232994, 47.944617, 49.0],
          [0.232989, 47.944613, 49.0],
          [0.232985, 47.944609, 49.0],
          [0.23298, 47.944604, 49.0],
          [0.232975, 47.944599, 49.0],
          [0.23297, 47.944593, 49.0],
          [0.232965, 47.944587, 49.0],
          [0.23296, 47.944582, 49.0],
          [0.232956, 47.944576, 49.0],
          [0.232951, 47.94457, 49.0],
          [0.232946, 47.944564, 49.0],
          [0.232941, 47.944558, 49.0],
          [0.232937, 47.944551, 49.0],
          [0.232933, 47.944544, 49.0],
          [0.232929, 47.944537, 49.0],
          [0.232926, 47.944529, 49.0],
          [0.232922, 47.944521, 49.0],
          [0.232919, 47.944513, 49.0],
          [0.232916, 47.944504, 49.0],
          [0.232914, 47.944496, 49.0],
          [0.232912, 47.944488, 49.0],
          [0.23291, 47.944482, 49.0],
          [0.232908, 47.944475, 49.0],
          [0.232906, 47.944467, 49.0],
          [0.232905, 47.944458, 49.0],
          [0.232903, 47.944451, 49.0],
          [0.232902, 47.944443, 49.0],
          [0.2329, 47.944435, 49.0],
          [0.232899, 47.944427, 49.0],
          [0.232898, 47.94442, 49.0],
          [0.232897, 47.944411, 49.0],
          [0.232897, 47.944404, 49.0],
          [0.232897, 47.944397, 49.0],
          [0.232897, 47.94439, 49.0],
          [0.232898, 47.944381, 49.0],
          [0.232898, 47.944371, 49.0],
          [0.232899, 47.944362, 49.0],
          [0.2329, 47.944353, 49.0],
          [0.232902, 47.944344, 49.0],
          [0.232904, 47.944335, 49.0],
          [0.232906, 47.944324, 49.0],
          [0.232908, 47.944314, 49.0],
          [0.23291, 47.944303, 49.0],
          [0.232913, 47.944291, 49.0],
          [0.232916, 47.94428, 49.0],
          [0.232919, 47.944271, 49.0],
          [0.232923, 47.944261, 49.0],
          [0.232927, 47.944251, 49.0],
          [0.232931, 47.944242, 49.0],
          [0.232936, 47.944233, 49.0],
          [0.232941, 47.944223, 49.0],
          [0.232947, 47.944214, 49.0],
          [0.232953, 47.944206, 49.0],
          [0.232959, 47.944198, 49.0],
          [0.232963, 47.944191, 49.0],
          [0.232968, 47.944186, 49.0],
          [0.232974, 47.944178, 49.0],
          [0.232981, 47.94417, 49.0],
          [0.232987, 47.944164, 49.0],
          [0.232994, 47.944157, 48.0],
          [0.233002, 47.94415, 48.0],
          [0.233011, 47.944142, 48.0],
          [0.233023, 47.944133, 48.0],
          [0.233034, 47.944125, 48.0],
          [0.23305, 47.944114, 48.0],
          [0.233073, 47.944098, 48.0],
          [0.233093, 47.944086, 48.0],
          [0.233106, 47.944078, 48.0],
          [0.233241, 47.943998, 48.0],
          [0.2334, 47.943905, 49.0],
          [0.23356, 47.943812, 49.0],
          [0.233658, 47.943755, 49.0],
          [0.233686, 47.943738, 49.0],
          [0.233719, 47.943716, 49.0],
          [0.233756, 47.943692, 49.0],
          [0.233796, 47.943665, 49.0],
          [0.233827, 47.943641, 49.0],
          [0.233859, 47.943617, 49.0],
          [0.233887, 47.943592, 49.0],
          [0.233908, 47.943571, 49.0],
          [0.233931, 47.943546, 49.0],
          [0.233954, 47.94352, 49.0],
          [0.233977, 47.943491, 49.0],
          [0.234009, 47.943448, 49.0],
          [0.234035, 47.943409, 49.0],
          [0.234065, 47.943359, 49.0],
          [0.234114, 47.943273, 49.0],
          [0.234218, 47.943059, 50.0],
          [0.234323, 47.942845, 50.0],
          [0.234427, 47.94263, 50.0],
          [0.234538, 47.942399, 49.0],
          [0.234649, 47.942167, 49.0],
          [0.234759, 47.941936, 49.0],
          [0.23487, 47.941704, 49.0],
          [0.23498, 47.941473, 51.0],
          [0.235091, 47.941241, 49.0],
          [0.235201, 47.94101, 49.0],
          [0.235241, 47.940938, 49.0],
          [0.235365, 47.940682, 50.0],
          [0.235489, 47.940426, 50.0],
          [0.235613, 47.94017, 50.0],
          [0.235737, 47.939915, 54.0],
          [0.235861, 47.939659, 53.0],
          [0.235984, 47.939403, 53.0],
          [0.236108, 47.939147, 52.0],
          [0.236232, 47.938891, 52.0],
          [0.236356, 47.938636, 52.0],
          [0.236473, 47.938392, 52.0],
          [0.23659, 47.938148, 59.0],
          [0.236707, 47.937905, 59.0],
          [0.236824, 47.937661, 59.0],
          [0.236942, 47.937417, 62.0],
          [0.237059, 47.937174, 62.0],
          [0.237176, 47.93693, 62.0],
          [0.237293, 47.936686, 62.0],
          [0.237383, 47.936498, 62.0],
          [0.237473, 47.936309, 62.0],
          [0.237595, 47.936053, 58.0],
          [0.237717, 47.935797, 57.0],
          [0.237839, 47.935541, 57.0],
          [0.237961, 47.935285, 57.0],
          [0.238083, 47.935029, 57.0],
          [0.238205, 47.934773, 65.0],
          [0.238327, 47.934518, 62.0],
          [0.23845, 47.934262, 62.0],
          [0.238572, 47.934006, 60.0],
          [0.238694, 47.93375, 60.0],
          [0.238812, 47.933504, 60.0],
          [0.23893, 47.933258, 65.0],
          [0.239049, 47.933012, 65.0],
          [0.239167, 47.932766, 52.0],
          [0.239285, 47.93252, 52.0],
          [0.239404, 47.932273, 55.0],
          [0.239522, 47.932027, 55.0],
          [0.23964, 47.931781, 55.0],
          [0.239759, 47.931535, 52.0],
          [0.239877, 47.931289, 52.0],
          [0.239995, 47.931043, 52.0],
          [0.240114, 47.930797, 54.0],
          [0.240232, 47.930551, 54.0],
          [0.24035, 47.930305, 54.0],
          [0.240469, 47.930059, 54.0],
          [0.240587, 47.929813, 54.0],
          [0.240705, 47.929567, 54.0],
          [0.240823, 47.929321, 53.0],
          [0.240942, 47.929075, 53.0],
          [0.241059, 47.928831, 53.0],
          [0.241145, 47.928654, 53.0],
          [0.241231, 47.928477, 53.0],
          [0.241243, 47.928461, 53.0],
          [0.241253, 47.928449, 53.0],
          [0.241262, 47.928438, 53.0],
          [0.241272, 47.928429, 53.0],
          [0.241284, 47.928419, 53.0],
          [0.241292, 47.928413, 53.0],
          [0.241298, 47.928409, 53.0],
          [0.241303, 47.928405, 53.0],
          [0.241313, 47.928399, 53.0],
          [0.241325, 47.928392, 53.0],
          [0.241338, 47.928385, 53.0],
          [0.241351, 47.928377, 53.0],
          [0.241373, 47.928365, 53.0],
          [0.241398, 47.928351, 53.0],
          [0.24143, 47.928334, 53.0],
          [0.241457, 47.928321, 53.0],
          [0.241487, 47.928308, 53.0],
          [0.241517, 47.928295, 53.0],
          [0.241544, 47.928285, 53.0],
          [0.241568, 47.928277, 53.0],
          [0.241594, 47.928269, 53.0],
          [0.241631, 47.92826, 53.0],
          [0.241698, 47.928245, 55.0],
          [0.241837, 47.928216, 55.0],
          [0.241865, 47.928211, 55.0],
          [0.241897, 47.928203, 55.0],
          [0.241925, 47.928196, 55.0],
          [0.241951, 47.928188, 55.0],
          [0.241977, 47.928179, 55.0],
          [0.242001, 47.92817, 55.0],
          [0.24202, 47.928162, 55.0],
          [0.242042, 47.928151, 55.0],
          [0.242063, 47.92814, 55.0],
          [0.242086, 47.928125, 55.0],
          [0.24211, 47.928107, 55.0],
          [0.24213, 47.928093, 55.0],
          [0.24215, 47.928078, 55.0],
          [0.242168, 47.928061, 55.0],
          [0.242185, 47.928045, 55.0],
          [0.2422, 47.92803, 55.0],
          [0.242213, 47.928015, 55.0],
          [0.242224, 47.927999, 55.0],
          [0.242234, 47.927983, 55.0],
          [0.242244, 47.927963, 55.0],
          [0.242254, 47.927942, 55.0],
          [0.242262, 47.927918, 55.0],
          [0.242266, 47.927899, 55.0],
          [0.24227, 47.927879, 55.0],
          [0.242272, 47.927856, 55.0],
          [0.242273, 47.927834, 55.0],
          [0.242272, 47.927818, 55.0],
          [0.24227, 47.927803, 55.0],
          [0.242267, 47.927788, 55.0],
          [0.242263, 47.927765, 55.0],
          [0.242258, 47.927743, 55.0],
          [0.242252, 47.927723, 55.0],
          [0.242245, 47.927701, 55.0],
          [0.242176, 47.927539, 55.0],
          [0.242106, 47.927377, 56.0],
          [0.242082, 47.927319, 56.0],
          [0.242063, 47.927262, 56.0],
          [0.242054, 47.927239, 56.0],
          [0.242049, 47.92722, 56.0],
          [0.242045, 47.927202, 56.0],
          [0.24204, 47.927184, 56.0],
          [0.242036, 47.927162, 56.0],
          [0.242033, 47.927142, 56.0],
          [0.242031, 47.927122, 56.0],
          [0.242029, 47.927099, 56.0],
          [0.242026, 47.927075, 56.0],
          [0.242023, 47.92705, 56.0],
          [0.242022, 47.927027, 56.0],
          [0.242021, 47.927005, 56.0],
          [0.242021, 47.926981, 56.0],
          [0.24202, 47.926952, 56.0],
          [0.242022, 47.926918, 56.0],
          [0.242024, 47.926892, 56.0],
          [0.242028, 47.92687, 56.0],
          [0.242032, 47.926848, 56.0],
          [0.242037, 47.926828, 56.0],
          [0.242043, 47.926808, 56.0],
          [0.242051, 47.926785, 56.0],
          [0.242091, 47.92669, 56.0],
          [0.242209, 47.926445, 67.0],
          [0.242328, 47.9262, 67.0],
          [0.242446, 47.925956, 67.0],
          [0.242564, 47.925711, 64.0],
          [0.242682, 47.925466, 64.0],
          [0.2428, 47.925222, 64.0],
          [0.242867, 47.925074, 64.0],
          [0.242901, 47.924985, 64.0],
          [0.242937, 47.924884, 64.0],
          [0.242969, 47.92479, 64.0],
          [0.242996, 47.924683, 64.0],
          [0.24302, 47.924582, 64.0],
          [0.243045, 47.924466, 64.0],
          [0.243066, 47.924341, 64.0],
          [0.243079, 47.924221, 64.0],
          [0.243103, 47.923977, 69.0],
          [0.243126, 47.923734, 69.0],
          [0.24315, 47.92349, 69.0],
          [0.243174, 47.923246, 60.0],
          [0.243197, 47.922979, 60.0],
          [0.243221, 47.922712, 60.0],
          [0.243245, 47.922445, 60.0],
          [0.243268, 47.922178, 60.0],
          [0.243292, 47.921911, 60.0],
          [0.243316, 47.921644, 62.0],
          [0.24334, 47.921377, 63.0],
          [0.243363, 47.92111, 63.0],
          [0.243387, 47.920843, 63.0],
          [0.243411, 47.920576, 65.0],
          [0.243434, 47.920309, 65.0],
          [0.243458, 47.920042, 65.0],
          [0.243482, 47.919774, 62.0],
          [0.243506, 47.919507, 62.0],
          [0.243529, 47.91924, 62.0],
          [0.243553, 47.918973, 67.0],
          [0.243577, 47.918706, 67.0],
          [0.243598, 47.918441, 67.0],
          [0.243619, 47.918175, 68.0],
          [0.24364, 47.91791, 68.0],
          [0.243662, 47.917645, 68.0],
          [0.243683, 47.917379, 70.0],
          [0.243704, 47.917114, 70.0],
          [0.243725, 47.916848, 70.0],
          [0.243747, 47.916583, 70.0],
          [0.243768, 47.916318, 70.0],
          [0.243789, 47.916052, 70.0],
          [0.24381, 47.915787, 67.0],
          [0.243832, 47.915521, 67.0],
          [0.243853, 47.915256, 67.0],
          [0.243874, 47.914991, 68.0],
          [0.243872, 47.91491, 68.0],
          [0.243866, 47.91484, 68.0],
          [0.243858, 47.914764, 68.0],
          [0.243851, 47.914716, 68.0],
          [0.243843, 47.914663, 68.0],
          [0.243835, 47.914619, 68.0],
          [0.243826, 47.91458, 68.0],
          [0.243815, 47.914543, 68.0],
          [0.243801, 47.914504, 68.0],
          [0.243778, 47.914447, 68.0],
          [0.243747, 47.914371, 68.0],
          [0.243665, 47.91417, 68.0],
          [0.243583, 47.91397, 65.0],
          [0.243501, 47.913769, 65.0],
          [0.243418, 47.913569, 65.0],
          [0.243393, 47.913519, 65.0],
          [0.243374, 47.913495, 65.0],
          [0.243351, 47.913478, 65.0],
          [0.243317, 47.913462, 65.0],
          [0.243283, 47.913449, 65.0],
          [0.243247, 47.913438, 65.0],
          [0.243211, 47.913433, 65.0],
          [0.243174, 47.913428, 65.0],
          [0.243137, 47.913428, 65.0],
          [0.243097, 47.913432, 65.0],
          [0.24305, 47.91344, 65.0],
          [0.242812, 47.913485, 65.0],
          [0.242575, 47.913531, 65.0],
          [0.242277, 47.913585, 64.0],
          [0.241978, 47.91364, 64.0],
          [0.241643, 47.913702, 70.0],
          [0.241257, 47.913772, 70.0],
          [0.24087, 47.913843, 70.0],
          [0.240483, 47.913913, 72.0],
          [0.240097, 47.913984, 72.0],
          [0.23971, 47.914055, 72.0],
          [0.239324, 47.914125, 72.0],
          [0.238937, 47.914196, 70.0],
          [0.23855, 47.914266, 70.0],
          [0.238164, 47.914337, 74.0],
          [0.237777, 47.914408, 74.0],
          [0.23739, 47.914478, 73.0],
          [0.237004, 47.914549, 73.0],
          [0.236617, 47.914619, 73.0],
          [0.236231, 47.91469, 73.0],
          [0.235844, 47.914761, 73.0],
          [0.235457, 47.914831, 78.0],
          [0.235071, 47.914902, 78.0],
          [0.234684, 47.914972, 79.0],
          [0.234298, 47.915043, 73.0],
          [0.233976, 47.915107, 74.0],
          [0.233796, 47.915148, 74.0],
          [0.233646, 47.915185, 74.0],
          [0.233488, 47.915227, 74.0],
          [0.233327, 47.915274, 78.0],
          [0.233145, 47.915334, 78.0],
          [0.232963, 47.915393, 78.0],
          [0.232643, 47.915503, 78.0],
          [0.232323, 47.915613, 76.0],
          [0.232003, 47.915723, 76.0],
          [0.231683, 47.915832, 77.0],
          [0.231362, 47.915942, 76.0],
          [0.231042, 47.916052, 76.0],
          [0.230722, 47.916162, 68.0],
          [0.230402, 47.916272, 68.0],
          [0.23006, 47.916389, 68.0],
          [0.229718, 47.916506, 68.0],
          [0.229376, 47.916624, 68.0],
          [0.229034, 47.916741, 66.0],
          [0.228691, 47.916859, 66.0],
          [0.228349, 47.916976, 66.0],
          [0.228007, 47.917093, 69.0],
          [0.227729, 47.917189, 69.0],
          [0.227471, 47.917279, 68.0],
          [0.227213, 47.917368, 68.0],
          [0.22706, 47.917427, 68.0],
          [0.226913, 47.917487, 68.0],
          [0.226769, 47.91755, 74.0],
          [0.226626, 47.917617, 69.0],
          [0.226398, 47.91773, 69.0],
          [0.226169, 47.917843, 69.0],
          [0.225941, 47.917956, 69.0],
          [0.225757, 47.918046, 67.0],
          [0.225453, 47.918196, 67.0],
          [0.22515, 47.918347, 70.0],
          [0.224847, 47.918497, 67.0],
          [0.224544, 47.918647, 67.0],
          [0.224241, 47.918798, 67.0],
          [0.223925, 47.918954, 64.0],
          [0.22361, 47.91911, 64.0],
          [0.223306, 47.919262, 67.0],
          [0.223001, 47.919413, 67.0],
          [0.222799, 47.919515, 67.0],
          [0.222596, 47.919617, 67.0],
          [0.222284, 47.919784, 67.0],
          [0.221971, 47.919951, 67.0],
          [0.221729, 47.920084, 64.0],
          [0.221486, 47.920217, 57.0],
          [0.221243, 47.920351, 57.0],
          [0.221, 47.920484, 57.0],
          [0.220938, 47.92052, 57.0],
          [0.220858, 47.920567, 57.0],
          [0.220756, 47.920635, 58.0],
          [0.220673, 47.920693, 58.0],
          [0.220595, 47.920756, 58.0],
          [0.220522, 47.920828, 53.0],
          [0.22046, 47.920911, 53.0],
          [0.220413, 47.92098, 53.0],
          [0.220361, 47.921084, 53.0],
          [0.220291, 47.921241, 53.0],
          [0.22022, 47.921397, 53.0],
          [0.220138, 47.92157, 53.0],
          [0.220056, 47.921744, 57.0],
          [0.219984, 47.921898, 52.0],
          [0.219911, 47.922052, 52.0],
          [0.219872, 47.922125, 52.0],
          [0.219852, 47.922158, 52.0],
          [0.219827, 47.92219, 52.0],
          [0.219801, 47.922218, 52.0],
          [0.219774, 47.922243, 52.0],
          [0.219741, 47.922267, 52.0],
          [0.219701, 47.92229, 52.0],
          [0.219657, 47.92231, 52.0],
          [0.219609, 47.922328, 52.0],
          [0.219564, 47.922341, 52.0],
          [0.219521, 47.92235, 52.0],
          [0.219471, 47.922357, 52.0],
          [0.219413, 47.922361, 52.0],
          [0.219348, 47.922358, 52.0],
          [0.21928, 47.922353, 52.0],
          [0.219216, 47.922343, 52.0],
          [0.219125, 47.922325, 56.0],
          [0.219039, 47.922305, 56.0],
          [0.218754, 47.922231, 56.0],
          [0.218468, 47.922157, 56.0],
          [0.218183, 47.922084, 60.0],
          [0.217898, 47.92201, 60.0],
          [0.217549, 47.921918, 60.0],
          [0.2172, 47.921827, 53.0],
          [0.216852, 47.921735, 53.0],
          [0.216503, 47.921644, 50.0],
          [0.216154, 47.921552, 50.0],
          [0.215806, 47.921461, 51.0],
          [0.215775, 47.921454, 51.0],
          [0.215753, 47.921451, 51.0],
          [0.215728, 47.921448, 51.0],
          [0.215705, 47.921448, 51.0],
          [0.215681, 47.92145, 51.0],
          [0.215662, 47.921452, 51.0],
          [0.215648, 47.921454, 51.0],
          [0.215631, 47.921458, 51.0],
          [0.215615, 47.921461, 51.0],
          [0.215602, 47.921465, 51.0],
          [0.215588, 47.921469, 51.0],
          [0.215573, 47.921474, 51.0],
          [0.21556, 47.921481, 51.0],
          [0.215547, 47.921489, 51.0],
          [0.215535, 47.921497, 51.0],
          [0.215523, 47.921507, 51.0],
          [0.215514, 47.921517, 51.0],
          [0.215504, 47.921528, 51.0],
          [0.215494, 47.921542, 51.0],
          [0.215475, 47.921572, 51.0],
          [0.215444, 47.921658, 51.0],
          [0.215384, 47.921821, 53.0],
          [0.215292, 47.922083, 53.0],
          [0.215199, 47.922345, 53.0],
          [0.215107, 47.922606, 53.0],
          [0.215015, 47.922868, 53.0],
          [0.214923, 47.92313, 52.0],
          [0.214831, 47.923392, 52.0],
          [0.214739, 47.923653, 52.0],
          [0.214647, 47.923915, 52.0],
          [0.214555, 47.924177, 53.0],
          [0.214462, 47.924439, 53.0],
          [0.21437, 47.924701, 53.0],
          [0.214278, 47.924962, 53.0],
          [0.214186, 47.925224, 51.0],
          [0.214094, 47.925486, 52.0],
          [0.214002, 47.925748, 52.0],
          [0.21391, 47.926009, 51.0],
          [0.213826, 47.926221, 51.0],
          [0.213778, 47.92633, 51.0],
          [0.213727, 47.926441, 51.0],
          [0.213668, 47.926554, 51.0],
          [0.213608, 47.926662, 57.0],
          [0.213541, 47.926771, 57.0],
          [0.21347, 47.926877, 57.0],
          [0.213394, 47.926984, 57.0],
          [0.213314, 47.927093, 49.0],
          [0.213134, 47.92733, 49.0],
          [0.212955, 47.927567, 50.0],
          [0.212775, 47.927804, 50.0],
          [0.212596, 47.928041, 50.0],
          [0.212417, 47.928277, 50.0],
          [0.212237, 47.928514, 49.0],
          [0.212058, 47.928751, 49.0],
          [0.211907, 47.928956, 49.0],
          [0.211747, 47.92918, 56.0],
          [0.211641, 47.92933, 49.0],
          [0.211536, 47.92948, 49.0],
          [0.211417, 47.929648, 49.0],
          [0.211298, 47.929815, 49.0],
          [0.211179, 47.929983, 49.0],
          [0.211069, 47.930126, 54.0],
          [0.210988, 47.930229, 54.0],
          [0.210889, 47.930348, 54.0],
          [0.210802, 47.930445, 47.0],
          [0.210717, 47.930531, 47.0],
          [0.210595, 47.930654, 47.0],
          [0.210418, 47.930828, 48.0],
          [0.210263, 47.930964, 48.0],
          [0.210068, 47.931142, 48.0],
          [0.209906, 47.931287, 47.0],
          [0.20973, 47.931466, 47.0],
          [0.209592, 47.931614, 47.0],
          [0.209496, 47.93172, 49.0],
          [0.209418, 47.931814, 49.0],
          [0.209337, 47.931916, 49.0],
          [0.209223, 47.932066, 49.0],
          [0.209068, 47.932281, 52.0],
          [0.209028, 47.932375, 52.0],
          [0.209008, 47.932451, 52.0],
          [0.208993, 47.932537, 54.0],
          [0.208989, 47.932625, 54.0],
          [0.208988, 47.932722, 54.0],
          [0.208997, 47.932815, 54.0],
          [0.209009, 47.932892, 54.0],
          [0.20903, 47.932968, 54.0],
          [0.209058, 47.933041, 54.0],
          [0.209094, 47.933109, 54.0],
          [0.209134, 47.933179, 54.0],
          [0.209178, 47.933243, 51.0],
          [0.209222, 47.9333, 51.0],
          [0.209283, 47.933375, 52.0],
          [0.209336, 47.933428, 52.0],
          [0.209404, 47.93349, 52.0],
          [0.209457, 47.933529, 52.0],
          [0.209518, 47.933577, 52.0],
          [0.209582, 47.933623, 52.0],
          [0.209793, 47.933776, 52.0],
          [0.210005, 47.933929, 52.0],
          [0.210216, 47.934082, 52.0],
          [0.210428, 47.934235, 50.0],
          [0.210488, 47.934284, 50.0],
          [0.210537, 47.934327, 50.0],
          [0.210588, 47.934376, 50.0],
          [0.210621, 47.934408, 50.0],
          [0.210651, 47.934441, 50.0],
          [0.210673, 47.934467, 50.0],
          [0.210709, 47.934517, 50.0],
          [0.210741, 47.934561, 50.0],
          [0.210772, 47.934612, 50.0],
          [0.210803, 47.93467, 50.0],
          [0.21083, 47.934732, 52.0],
          [0.210851, 47.934788, 52.0],
          [0.210868, 47.934843, 52.0],
          [0.21088, 47.934898, 52.0],
          [0.210889, 47.934953, 52.0],
          [0.210896, 47.935001, 49.0],
          [0.21089, 47.935135, 49.0],
          [0.210871, 47.935292, 49.0],
          [0.210846, 47.935495, 49.0],
          [0.21082, 47.935698, 46.0],
          [0.2108, 47.935835, 47.0],
          [0.21078, 47.935972, 47.0],
          [0.210755, 47.936091, 47.0],
          [0.210728, 47.936189, 47.0],
          [0.210693, 47.936275, 47.0],
          [0.210643, 47.936381, 47.0],
          [0.210608, 47.936428, 47.0],
          [0.210571, 47.936475, 47.0],
          [0.210536, 47.936513, 47.0],
          [0.210506, 47.93654, 47.0],
          [0.210476, 47.936566, 47.0],
          [0.210443, 47.936594, 47.0],
          [0.210411, 47.936621, 47.0],
          [0.210341, 47.936674, 46.0],
          [0.210231, 47.936749, 46.0],
          [0.210144, 47.936803, 46.0],
          [0.209964, 47.936904, 46.0],
          [0.209783, 47.937005, 46.0],
          [0.209706, 47.937053, 46.0],
          [0.209627, 47.937097, 46.0],
          [0.20957, 47.937131, 46.0],
          [0.209522, 47.937163, 46.0],
          [0.209479, 47.937195, 46.0],
          [0.209446, 47.937223, 46.0],
          [0.20941, 47.937253, 46.0],
          [0.209377, 47.937285, 46.0],
          [0.209338, 47.937323, 46.0],
          [0.209303, 47.937357, 46.0],
          [0.209273, 47.937389, 46.0],
          [0.209243, 47.937424, 46.0],
          [0.20921, 47.937462, 46.0],
          [0.209179, 47.937499, 44.0],
          [0.209153, 47.937533, 44.0],
          [0.209132, 47.937565, 44.0],
          [0.209111, 47.937597, 44.0],
          [0.209092, 47.937632, 44.0],
          [0.209072, 47.937671, 44.0],
          [0.209056, 47.937712, 44.0],
          [0.209042, 47.937751, 44.0],
          [0.209028, 47.937797, 44.0],
          [0.209016, 47.937849, 44.0],
          [0.209007, 47.937897, 44.0],
          [0.208999, 47.937945, 44.0],
          [0.208995, 47.937985, 44.0],
          [0.208991, 47.93803, 44.0],
          [0.208988, 47.938078, 44.0],
          [0.208987, 47.938116, 44.0],
          [0.208988, 47.938153, 44.0],
          [0.208991, 47.938192, 44.0],
          [0.208996, 47.938231, 44.0],
          [0.209002, 47.938269, 44.0],
          [0.20901, 47.938309, 44.0],
          [0.20902, 47.93835, 44.0],
          [0.209033, 47.938391, 44.0],
          [0.209046, 47.938433, 44.0],
          [0.209061, 47.938471, 44.0],
          [0.209079, 47.938508, 44.0],
          [0.209099, 47.938547, 44.0],
          [0.209128, 47.938595, 44.0],
          [0.209153, 47.938634, 44.0],
          [0.209178, 47.93867, 44.0],
          [0.209209, 47.938709, 44.0],
          [0.209239, 47.938744, 44.0],
          [0.209275, 47.938783, 44.0],
          [0.209311, 47.938821, 44.0],
          [0.209344, 47.938854, 44.0],
          [0.209376, 47.938884, 44.0],
          [0.209409, 47.938911, 44.0],
          [0.209444, 47.93894, 44.0],
          [0.209475, 47.938964, 44.0],
          [0.209506, 47.938986, 44.0],
          [0.209546, 47.939017, 44.0],
          [0.209584, 47.939042, 44.0],
          [0.209625, 47.939068, 44.0],
          [0.209672, 47.939096, 44.0],
          [0.209758, 47.939143, 44.0],
          [0.209929, 47.939242, 45.0],
          [0.2101, 47.939341, 45.0],
          [0.21017, 47.939385, 45.0],
          [0.210232, 47.939427, 45.0],
          [0.210272, 47.939458, 45.0],
          [0.210309, 47.939492, 45.0],
          [0.210349, 47.939532, 45.0],
          [0.210386, 47.939573, 45.0],
          [0.210419, 47.939615, 45.0],
          [0.210452, 47.939661, 45.0],
          [0.210482, 47.939713, 45.0],
          [0.210506, 47.93976, 45.0],
          [0.210528, 47.939811, 45.0],
          [0.210545, 47.939851, 45.0],
          [0.210556, 47.939888, 45.0],
          [0.210566, 47.939921, 45.0],
          [0.210573, 47.939955, 45.0],
          [0.210576, 47.939987, 45.0],
          [0.210578, 47.940024, 45.0],
          [0.210576, 47.940073, 45.0],
          [0.210571, 47.940133, 45.0],
          [0.210563, 47.940194, 45.0],
          [0.210551, 47.940267, 45.0],
          [0.210537, 47.94034, 45.0],
          [0.210481, 47.940606, 45.0],
          [0.210429, 47.940848, 46.0],
          [0.210377, 47.94109, 46.0],
          [0.210332, 47.941283, 46.0],
          [0.210287, 47.941477, 46.0],
          [0.210242, 47.94167, 47.0],
          [0.210228, 47.941742, 47.0],
          [0.21022, 47.941789, 47.0],
          [0.210217, 47.941828, 47.0],
          [0.210214, 47.941869, 47.0],
          [0.210214, 47.941939, 47.0],
          [0.210217, 47.941999, 47.0],
          [0.210222, 47.942051, 47.0],
          [0.21023, 47.942103, 47.0],
          [0.210251, 47.9422, 47.0],
          [0.210289, 47.942359, 47.0],
          [0.210326, 47.942519, 47.0],
          [0.210337, 47.942569, 47.0],
          [0.210347, 47.942624, 47.0],
          [0.210358, 47.942691, 47.0],
          [0.210365, 47.942755, 47.0],
          [0.210371, 47.942851, 47.0],
          [0.210371, 47.942898, 47.0],
          [0.210368, 47.942948, 47.0],
          [0.210363, 47.942982, 47.0],
          [0.210355, 47.943023, 47.0],
          [0.21034, 47.943074, 47.0],
          [0.210325, 47.943123, 47.0],
          [0.210283, 47.943233, 47.0],
          [0.210211, 47.943422, 48.0],
          [0.210139, 47.943611, 48.0],
          [0.210045, 47.943841, 48.0],
          [0.209952, 47.94407, 48.0],
          [0.209858, 47.9443, 48.0],
          [0.209764, 47.94453, 48.0],
          [0.209671, 47.94476, 48.0],
          [0.209577, 47.94499, 48.0],
          [0.209479, 47.945229, 49.0],
          [0.209381, 47.945469, 49.0],
          [0.209285, 47.945706, 49.0],
          [0.209188, 47.945943, 49.0],
          [0.209091, 47.946181, 50.0],
          [0.208994, 47.946418, 50.0],
          [0.208922, 47.946599, 50.0],
          [0.208849, 47.94678, 50.0],
          [0.208837, 47.946806, 50.0],
          [0.208825, 47.94683, 50.0],
          [0.208814, 47.94685, 50.0],
          [0.208803, 47.946869, 50.0],
          [0.208794, 47.946882, 50.0],
          [0.208786, 47.946893, 50.0],
          [0.208778, 47.946904, 50.0],
          [0.208767, 47.946915, 50.0],
          [0.208755, 47.946927, 50.0],
          [0.208745, 47.946937, 50.0],
          [0.208735, 47.946947, 50.0],
          [0.208727, 47.946955, 50.0],
          [0.208717, 47.946963, 50.0],
          [0.208706, 47.946971, 50.0],
          [0.208695, 47.946979, 50.0],
          [0.208682, 47.946987, 50.0],
          [0.20867, 47.946995, 50.0],
          [0.208661, 47.947, 50.0],
          [0.208652, 47.947005, 50.0],
          [0.208643, 47.94701, 50.0],
          [0.208635, 47.947014, 50.0],
          [0.208626, 47.947018, 50.0],
          [0.208614, 47.947022, 50.0],
          [0.208599, 47.947027, 50.0],
          [0.208581, 47.947033, 50.0],
          [0.20856, 47.947039, 50.0],
          [0.20855, 47.947042, 50.0],
          [0.20842, 47.947077, 50.0],
          [0.208402, 47.947082, 50.0],
          [0.20839, 47.947087, 50.0],
          [0.208375, 47.947092, 50.0],
          [0.208361, 47.947097, 50.0],
          [0.208347, 47.947103, 50.0],
          [0.208335, 47.947109, 50.0],
          [0.208322, 47.947116, 50.0],
          [0.208311, 47.947122, 50.0],
          [0.2083, 47.947128, 50.0],
          [0.208287, 47.947135, 50.0],
          [0.208276, 47.947142, 50.0],
          [0.208265, 47.947149, 50.0],
          [0.208253, 47.947158, 50.0],
          [0.208241, 47.947167, 50.0],
          [0.208229, 47.947177, 50.0],
          [0.208217, 47.947188, 50.0],
          [0.208204, 47.947201, 50.0],
          [0.208191, 47.947214, 50.0],
          [0.20818, 47.947228, 50.0],
          [0.208169, 47.947242, 50.0],
          [0.20816, 47.947254, 50.0],
          [0.208153, 47.947266, 50.0],
          [0.208146, 47.947278, 50.0],
          [0.20814, 47.94729, 50.0],
          [0.208134, 47.947302, 50.0],
          [0.20813, 47.947313, 50.0],
          [0.208123, 47.947332, 50.0],
          [0.208114, 47.947357, 50.0],
          [0.208109, 47.947374, 50.0],
          [0.20805, 47.947585, 51.0],
          [0.207991, 47.947797, 51.0],
          [0.207932, 47.948008, 51.0],
          [0.207929, 47.948019, 51.0],
          [0.207925, 47.948028, 51.0],
          [0.20792, 47.948037, 51.0],
          [0.207915, 47.948045, 51.0],
          [0.207909, 47.948053, 51.0],
          [0.207901, 47.948061, 51.0],
          [0.207894, 47.948068, 51.0],
          [0.207886, 47.948077, 51.0],
          [0.207879, 47.948083, 51.0],
          [0.207871, 47.94809, 51.0],
          [0.207861, 47.948097, 51.0],
          [0.207851, 47.948104, 51.0],
          [0.207843, 47.94811, 51.0],
          [0.207833, 47.948116, 51.0],
          [0.207823, 47.948122, 51.0],
          [0.207813, 47.948127, 51.0],
          [0.207802, 47.948132, 51.0],
          [0.207789, 47.948137, 51.0],
          [0.207779, 47.948141, 51.0],
          [0.207767, 47.948144, 51.0],
          [0.207759, 47.948147, 51.0],
          [0.207746, 47.94815, 51.0],
          [0.207631, 47.94817, 51.0],
          [0.207608, 47.948174, 51.0],
          [0.207594, 47.948178, 51.0],
          [0.207581, 47.948181, 51.0],
          [0.20757, 47.948185, 51.0],
          [0.207558, 47.948189, 51.0],
          [0.207547, 47.948193, 51.0],
          [0.207536, 47.948199, 51.0],
          [0.207523, 47.948206, 51.0],
          [0.207511, 47.948214, 51.0],
          [0.2075, 47.948223, 51.0],
          [0.20749, 47.948232, 51.0],
          [0.207482, 47.94824, 51.0],
          [0.207475, 47.948249, 51.0],
          [0.207469, 47.948259, 51.0],
          [0.207464, 47.948268, 51.0],
          [0.207461, 47.948278, 51.0],
          [0.207459, 47.948286, 51.0],
          [0.207459, 47.948294, 51.0],
          [0.207458, 47.948303, 51.0],
          [0.207459, 47.948369, 52.0],
          [0.207468, 47.948481, 52.0],
          [0.207482, 47.94866, 52.0],
          [0.207496, 47.948845, 52.0],
          [0.207506, 47.94909, 51.0],
          [0.207517, 47.949336, 54.0],
          [0.207529, 47.949604, 54.0],
          [0.20754, 47.949872, 54.0],
          [0.207552, 47.950135, 55.0],
          [0.207563, 47.950398, 55.0],
          [0.207577, 47.950654, 55.0],
          [0.207592, 47.95091, 55.0]
        ]
      }
    }
  ]
}
