{
  "type": "FeatureCollection",
  "features": [
    {
      "type": "Feature",
      "properties": {
        "Name": "Lime Rock Park",
        "source": "tobi/track-atlas (OpenStreetMap contributors; ODbL 1.0)",
        "source_id": "lime-rock/gp",
        "revision": "c783def5a24df8ce8f034262e8228c262b854e0e",
        "upstream_path": "tracks/lime-rock/raw/layers/gp.geojson",
        "upstream_sha256": "c2ee6c42d45d9e60c7cc623a8ffa2f57fc1fad1512058349a15ee689a57c32ba",
        "line": [
          41.9285025,
          -73.3806913
        ],
        "direction": "clockwise",
        "heights": "Open-Meteo DEM (Copernicus GLO-90), metres above sea level",
        "retrieved": "2026-09-27",
        "processing": "Plan simplified within 0.5 m of the upstream line (Ramer–Douglas–Peucker); retained coordinates keep their sampled elevations. Removes sub-metre survey steps."
      },
      "geometry": {
        "type": "LineString",
        "coordinates": [
          [-73.3806881, 41.9285014, 166.0],
          [-73.3798006, 41.9282038, 165.0],
          [-73.3794577, 41.9280754, 165.0],
          [-73.3792092, 41.9280063, 165.0],
          [-73.378474, 41.9277566, 165.0],
          [-73.3783659, 41.9277168, 165.0],
          [-73.3782792, 41.9276682, 168.0],
          [-73.378181, 41.9275892, 168.0],
          [-73.378088, 41.9274842, 165.0],
          [-73.3780074, 41.9273534, 165.0],
          [-73.3779683, 41.9272495, 165.0],
          [-73.3779568, 41.9271153, 165.0],
          [-73.377962, 41.9270254, 165.0],
          [-73.378007, 41.9268947, 165.0],
          [-73.3780756, 41.9267797, 165.0],
          [-73.3781748, 41.9266563, 164.0],
          [-73.3782633, 41.9265708, 164.0],
          [-73.3783281, 41.9265175, 164.0],
          [-73.3784304, 41.9264546, 164.0],
          [-73.378526, 41.9264166, 164.0],
          [-73.3786736, 41.9263773, 164.0],
          [-73.3787686, 41.9263654, 164.0],
          [-73.378889, 41.9263646, 164.0],
          [-73.3789969, 41.9263733, 164.0],
          [-73.3790667, 41.9263872, 164.0],
          [-73.379273, 41.9264613, 165.0],
          [-73.3800813, 41.9268371, 165.0],
          [-73.3803683, 41.9269518, 165.0],
          [-73.3804796, 41.9269863, 165.0],
          [-73.3806198, 41.9270121, 165.0],
          [-73.3807641, 41.9270149, 165.0],
          [-73.3809189, 41.9269977, 166.0],
          [-73.3811014, 41.9269514, 166.0],
          [-73.3812193, 41.9269062, 166.0],
          [-73.3813685, 41.9268152, 166.0],
          [-73.381445, 41.9267459, 166.0],
          [-73.3814999, 41.926656, 165.0],
          [-73.381534, 41.9265511, 165.0],
          [-73.3815455, 41.9263983, 165.0],
          [-73.3815365, 41.9262185, 165.0],
          [-73.3815143, 41.9260482, 165.0],
          [-73.3815106, 41.9258953, 165.0],
          [-73.3815561, 41.9257556, 166.0],
          [-73.3816604, 41.9256243, 166.0],
          [-73.3817294, 41.925574, 172.0],
          [-73.3818337, 41.9255129, 172.0],
          [-73.3820665, 41.9254185, 172.0],
          [-73.3825257, 41.9252819, 177.0],
          [-73.3828437, 41.9251979, 177.0],
          [-73.3829943, 41.9251655, 177.0],
          [-73.3832297, 41.9251271, 177.0],
          [-73.3835791, 41.9251261, 177.0],
          [-73.3842112, 41.9251952, 177.0],
          [-73.3845596, 41.9252155, 177.0],
          [-73.3848126, 41.925211, 177.0],
          [-73.3850771, 41.9251963, 176.0],
          [-73.3861312, 41.9251079, 175.0],
          [-73.386203, 41.9251126, 175.0],
          [-73.3862579, 41.9251306, 175.0],
          [-73.3862927, 41.9251554, 175.0],
          [-73.3863288, 41.925202, 175.0],
          [-73.3863638, 41.9253434, 175.0],
          [-73.3863942, 41.9253918, 175.0],
          [-73.3864625, 41.9254276, 175.0],
          [-73.3867482, 41.925499, 179.0],
          [-73.3868395, 41.9255416, 179.0],
          [-73.386911, 41.9256247, 179.0],
          [-73.3870855, 41.9258817, 180.0],
          [-73.3872166, 41.9260537, 180.0],
          [-73.3873297, 41.9261589, 180.0],
          [-73.3875858, 41.9263622, 181.0],
          [-73.3878024, 41.9265176, 181.0],
          [-73.3880335, 41.9268335, 180.0],
          [-73.3884907, 41.9275283, 183.0],
          [-73.3885657, 41.9276512, 183.0],
          [-73.3886404, 41.9278221, 183.0],
          [-73.3886393, 41.9279207, 183.0],
          [-73.388611, 41.9280541, 183.0],
          [-73.3885371, 41.9282252, 183.0],
          [-73.388422, 41.9283727, 187.0],
          [-73.3883286, 41.9284666, 187.0],
          [-73.3882148, 41.9285596, 187.0],
          [-73.3870798, 41.9294553, 177.0],
          [-73.3868384, 41.9296314, 177.0],
          [-73.3866763, 41.9297392, 177.0],
          [-73.3864482, 41.929872, 171.0],
          [-73.3862241, 41.9299778, 171.0],
          [-73.3860534, 41.930022, 171.0],
          [-73.3858404, 41.9300524, 171.0],
          [-73.3856722, 41.9300619, 168.0],
          [-73.3854077, 41.9300511, 168.0],
          [-73.38521, 41.9300113, 168.0],
          [-73.3849958, 41.9299509, 167.0],
          [-73.3840395, 41.9296295, 169.0],
          [-73.3838741, 41.9295556, 169.0],
          [-73.3832605, 41.9293454, 169.0],
          [-73.3830991, 41.929311, 169.0],
          [-73.3806881, 41.9285014, 166.0]
        ]
      }
    }
  ]
}
