{
  "type": "FeatureCollection",
  "features": [
    {
      "type": "Feature",
      "properties": {
        "Name": "Long Beach Street Circuit",
        "source": "tobi/track-atlas (OpenStreetMap contributors; ODbL 1.0)",
        "source_id": "long-beach/gp",
        "revision": "c783def5a24df8ce8f034262e8228c262b854e0e",
        "upstream_path": "tracks/long-beach/raw/layers/gp.geojson",
        "upstream_sha256": "0430e9060dc22d85f374e396a9b680a5b6e9afe264ab2dd3e65ffb85f8380744",
        "line": [
          33.7621905,
          -118.1873484
        ],
        "direction": "clockwise",
        "heights": "Open-Meteo DEM (Copernicus GLO-90), metres above sea level",
        "retrieved": "2026-09-27"
      },
      "geometry": {
        "type": "LineString",
        "coordinates": [
          [-118.187345, 33.7621922, 5.0],
          [-118.1874225, 33.7621534, 5.0],
          [-118.1874985, 33.7621191, 5.0],
          [-118.1876427, 33.7620575, 6.0],
          [-118.1877472, 33.7620105, 6.0],
          [-118.1877954, 33.7619902, 6.0],
          [-118.1878249, 33.7619791, 6.0],
          [-118.1879269, 33.7619495, 6.0],
          [-118.1879898, 33.7619367, 6.0],
          [-118.1880838, 33.761916, 6.0],
          [-118.1881974, 33.7618872, 6.0],
          [-118.1883018, 33.7618643, 6.0],
          [-118.1883859, 33.7618477, 5.0],
          [-118.1884386, 33.7618382, 5.0],
          [-118.1885553, 33.7618196, 5.0],
          [-118.1886084, 33.7618118, 5.0],
          [-118.1886726, 33.7618044, 5.0],
          [-118.1887691, 33.7617949, 5.0],
          [-118.1888766, 33.7617869, 5.0],
          [-118.1890489, 33.7617769, 5.0],
          [-118.1891666, 33.7617635, 5.0],
          [-118.1892203, 33.7617589, 4.0],
          [-118.1892742, 33.7617569, 4.0],
          [-118.1893282, 33.7617579, 4.0],
          [-118.1894035, 33.7617632, 4.0],
          [-118.1895536, 33.7617781, 4.0],
          [-118.1896817, 33.7617942, 4.0],
          [-118.189756, 33.7618054, 4.0],
          [-118.1899159, 33.7618271, 4.0],
          [-118.1899475, 33.761833, 4.0],
          [-118.1900098, 33.7618477, 6.0],
          [-118.1900834, 33.7618621, 6.0],
          [-118.1901356, 33.7618734, 6.0],
          [-118.1902605, 33.7619022, 6.0],
          [-118.1902914, 33.7619102, 6.0],
          [-118.1903322, 33.761922, 6.0],
          [-118.1903827, 33.7619379, 6.0],
          [-118.1904227, 33.7619515, 6.0],
          [-118.1905715, 33.762005, 6.0],
          [-118.1906602, 33.762038, 6.0],
          [-118.1907583, 33.7620758, 6.0],
          [-118.1908563, 33.7621135, 6.0],
          [-118.1909141, 33.7621378, 6.0],
          [-118.1910843, 33.7622163, 6.0],
          [-118.191171, 33.7622528, 6.0],
          [-118.1912593, 33.7622866, 6.0],
          [-118.1913688, 33.762325, 6.0],
          [-118.191458, 33.7623572, 6.0],
          [-118.1915544, 33.7623978, 6.0],
          [-118.1917111, 33.7624585, 5.0],
          [-118.1918374, 33.7625095, 5.0],
          [-118.1919638, 33.7625605, 5.0],
          [-118.1920843, 33.7626113, 5.0],
          [-118.1922047, 33.7626621, 5.0],
          [-118.1923562, 33.7627314, 5.0],
          [-118.1924234, 33.7627603, 5.0],
          [-118.1924526, 33.762772, 5.0],
          [-118.1924927, 33.7627853, 5.0],
          [-118.1925341, 33.7627957, 4.0],
          [-118.1925763, 33.7628034, 4.0],
          [-118.1926612, 33.7628164, 4.0],
          [-118.1926927, 33.7628226, 4.0],
          [-118.1927238, 33.7628302, 4.0],
          [-118.1927443, 33.762836, 4.0],
          [-118.1927643, 33.7628426, 4.0],
          [-118.1928423, 33.7628738, 4.0],
          [-118.1928708, 33.7628865, 4.0],
          [-118.1928893, 33.7628958, 4.0],
          [-118.1929343, 33.7629207, 4.0],
          [-118.1929607, 33.7629363, 4.0],
          [-118.1930112, 33.7629702, 4.0],
          [-118.1931005, 33.7630356, 4.0],
          [-118.1931265, 33.7630518, 4.0],
          [-118.1931541, 33.7630659, 4.0],
          [-118.1931827, 33.7630785, 4.0],
          [-118.1932215, 33.7630943, 4.0],
          [-118.193327, 33.7631399, 4.0],
          [-118.1934325, 33.7631855, 4.0],
          [-118.1934619, 33.7631967, 4.0],
          [-118.1935122, 33.7632133, 4.0],
          [-118.1936004, 33.7632471, 4.0],
          [-118.1936279, 33.7632614, 4.0],
          [-118.1936995, 33.7633018, 4.0],
          [-118.1937834, 33.7633427, 6.0],
          [-118.1939536, 33.7634211, 6.0],
          [-118.1941063, 33.7634885, 6.0],
          [-118.1941816, 33.7635238, 8.0],
          [-118.1942484, 33.7635533, 8.0],
          [-118.1944256, 33.7636395, 8.0],
          [-118.1944546, 33.7636516, 8.0],
          [-118.1944746, 33.7636583, 8.0],
          [-118.1944954, 33.7636631, 8.0],
          [-118.1945061, 33.7636647, 8.0],
          [-118.1945276, 33.7636653, 8.0],
          [-118.194549, 33.7636627, 8.0],
          [-118.1945694, 33.763657, 8.0],
          [-118.1945882, 33.7636481, 8.0],
          [-118.1946056, 33.7636375, 8.0],
          [-118.1946474, 33.7636089, 8.0],
          [-118.1946957, 33.7635729, 8.0],
          [-118.1947445, 33.7635374, 8.0],
          [-118.1947595, 33.7635243, 8.0],
          [-118.1947731, 33.7635103, 8.0],
          [-118.1948354, 33.7634367, 8.0],
          [-118.1948819, 33.763387, 8.0],
          [-118.1949267, 33.7633361, 8.0],
          [-118.1949608, 33.7633012, 6.0],
          [-118.1949903, 33.7632749, 6.0],
          [-118.1950141, 33.7632565, 8.0],
          [-118.1950479, 33.7632341, 8.0],
          [-118.1950748, 33.7632191, 8.0],
          [-118.1951505, 33.7631842, 8.0],
          [-118.1951991, 33.7631646, 8.0],
          [-118.1952681, 33.7631389, 8.0],
          [-118.1953079, 33.7631249, 8.0],
          [-118.1953681, 33.763105, 8.0],
          [-118.1954088, 33.7630931, 8.0],
          [-118.1954606, 33.7630802, 8.0],
          [-118.1955027, 33.7630723, 8.0],
          [-118.1955666, 33.7630632, 8.0],
          [-118.1956844, 33.7630508, 8.0],
          [-118.1957159, 33.7630449, 8.0],
          [-118.1957362, 33.7630386, 8.0],
          [-118.1957556, 33.7630307, 8.0],
          [-118.1957739, 33.7630211, 8.0],
          [-118.1957909, 33.76301, 8.0],
          [-118.1958064, 33.7629975, 8.0],
          [-118.1958205, 33.7629838, 8.0],
          [-118.1958332, 33.7629693, 8.0],
          [-118.1958679, 33.7629236, 7.0],
          [-118.195874, 33.7629162, 7.0],
          [-118.1958871, 33.7629019, 7.0],
          [-118.195894, 33.7628949, 7.0],
          [-118.1959088, 33.7628818, 7.0],
          [-118.1959167, 33.7628757, 7.0],
          [-118.1959249, 33.7628698, 7.0],
          [-118.1959423, 33.7628592, 7.0],
          [-118.1959513, 33.7628542, 7.0],
          [-118.1959607, 33.7628497, 7.0],
          [-118.1959703, 33.7628456, 7.0],
          [-118.1959802, 33.7628421, 7.0],
          [-118.1959903, 33.7628388, 7.0],
          [-118.1960005, 33.762836, 7.0],
          [-118.1960109, 33.7628336, 7.0],
          [-118.1960214, 33.7628316, 7.0],
          [-118.196032, 33.76283, 7.0],
          [-118.1960535, 33.7628283, 7.0],
          [-118.1960751, 33.7628285, 7.0],
          [-118.1960965, 33.7628309, 7.0],
          [-118.1961175, 33.7628351, 7.0],
          [-118.1961378, 33.762841, 7.0],
          [-118.1961477, 33.7628447, 7.0],
          [-118.1961572, 33.7628489, 7.0],
          [-118.1961665, 33.7628536, 7.0],
          [-118.1961755, 33.7628585, 7.0],
          [-118.1961926, 33.7628695, 7.0],
          [-118.1962081, 33.762882, 7.0],
          [-118.1962221, 33.7628958, 7.0],
          [-118.1962282, 33.7629032, 7.0],
          [-118.1962393, 33.7629187, 7.0],
          [-118.1962444, 33.7629266, 7.0],
          [-118.1962571, 33.7629514, 7.0],
          [-118.1962638, 33.7629686, 7.0],
          [-118.196288, 33.7630378, 7.0],
          [-118.1962955, 33.7630547, 7.0],
          [-118.1963043, 33.7630712, 7.0],
          [-118.1963095, 33.7630791, 7.0],
          [-118.1963151, 33.7630868, 7.0],
          [-118.1963278, 33.7631013, 7.0],
          [-118.1963345, 33.7631084, 7.0],
          [-118.1963491, 33.7631217, 7.0],
          [-118.1963566, 33.7631282, 7.0],
          [-118.1963727, 33.7631401, 7.0],
          [-118.1963898, 33.7631512, 7.0],
          [-118.1963985, 33.7631566, 7.0],
          [-118.1964348, 33.763176, 7.0],
          [-118.1964911, 33.7632028, 7.0],
          [-118.1966045, 33.7632551, 7.0],
          [-118.1966603, 33.7632826, 7.0],
          [-118.1966695, 33.7632873, 7.0],
          [-118.1967147, 33.7633119, 7.0],
          [-118.196786, 33.7633526, 6.0],
          [-118.1967951, 33.7633575, 6.0],
          [-118.1968793, 33.763398, 6.0],
          [-118.1969252, 33.7634216, 6.0],
          [-118.1969343, 33.7634265, 6.0],
          [-118.1969606, 33.7634423, 6.0],
          [-118.1969693, 33.7634477, 6.0],
          [-118.1970113, 33.763476, 6.0],
          [-118.1970198, 33.7634815, 6.0],
          [-118.1970465, 33.7634968, 6.0],
          [-118.1970555, 33.7635018, 6.0],
          [-118.1970834, 33.7635155, 6.0],
          [-118.1971594, 33.7635497, 6.0],
          [-118.1971688, 33.7635541, 6.0],
          [-118.1971873, 33.7635635, 6.0],
          [-118.1971964, 33.7635684, 6.0],
          [-118.1972139, 33.7635789, 6.0],
          [-118.1972307, 33.7635902, 6.0],
          [-118.1972388, 33.7635962, 6.0],
          [-118.1972464, 33.7636025, 6.0],
          [-118.1972538, 33.7636091, 6.0],
          [-118.1972608, 33.763616, 6.0],
          [-118.1972674, 33.7636231, 6.0],
          [-118.1972735, 33.7636305, 6.0],
          [-118.1972793, 33.7636382, 6.0],
          [-118.1972846, 33.763646, 6.0],
          [-118.1972894, 33.7636541, 6.0],
          [-118.1972938, 33.7636623, 6.0],
          [-118.1972976, 33.7636707, 6.0],
          [-118.197301, 33.7636793, 6.0],
          [-118.1973064, 33.7636967, 6.0],
          [-118.19731, 33.7637145, 6.0],
          [-118.197313, 33.7637414, 6.0],
          [-118.1973135, 33.7637685, 6.0],
          [-118.1973125, 33.7637865, 6.0],
          [-118.1973088, 33.7638133, 6.0],
          [-118.1973034, 33.76384, 6.0],
          [-118.1972965, 33.7638664, 6.0],
          [-118.197285, 33.7639012, 6.0],
          [-118.1972684, 33.7639441, 6.0],
          [-118.1972502, 33.7639865, 6.0],
          [-118.1971897, 33.764112, 6.0],
          [-118.1971392, 33.7642116, 8.0],
          [-118.1971209, 33.7642443, 8.0],
          [-118.1970919, 33.7642927, 8.0],
          [-118.197067, 33.7643327, 8.0],
          [-118.1970309, 33.7643881, 8.0],
          [-118.197015, 33.7644117, 8.0],
          [-118.1970097, 33.7644195, 8.0],
          [-118.1969875, 33.7644505, 8.0],
          [-118.1969637, 33.7644806, 8.0],
          [-118.1969013, 33.7645541, 8.0],
          [-118.1968389, 33.7646277, 8.0],
          [-118.1968216, 33.7646506, 8.0],
          [-118.1967944, 33.7646895, 8.0],
          [-118.1967742, 33.7647214, 8.0],
          [-118.1967608, 33.764746, 8.0],
          [-118.1967259, 33.7648218, 8.0],
          [-118.1967093, 33.7648551, 8.0],
          [-118.1966948, 33.7648792, 8.0],
          [-118.1966836, 33.7648946, 8.0],
          [-118.1966709, 33.7649092, 8.0],
          [-118.1966564, 33.7649226, 5.0],
          [-118.1966401, 33.7649344, 5.0],
          [-118.1966219, 33.7649441, 5.0],
          [-118.1966021, 33.7649513, 5.0],
          [-118.1965811, 33.7649555, 5.0],
          [-118.1965704, 33.7649564, 5.0],
          [-118.1965596, 33.7649562, 5.0],
          [-118.1965488, 33.7649558, 5.0],
          [-118.1965382, 33.7649543, 5.0],
          [-118.1965276, 33.7649525, 5.0],
          [-118.1965172, 33.7649501, 5.0],
          [-118.1964972, 33.7649435, 5.0],
          [-118.1964779, 33.7649354, 5.0],
          [-118.1964686, 33.7649308, 5.0],
          [-118.1964505, 33.764921, 5.0],
          [-118.1964417, 33.7649158, 5.0],
          [-118.1964161, 33.7648992, 5.0],
          [-118.1964078, 33.7648935, 5.0],
          [-118.1963508, 33.7648521, 5.0],
          [-118.1962673, 33.7647949, 5.0],
          [-118.1961643, 33.7647293, 5.0],
          [-118.1961119, 33.7646975, 5.0],
          [-118.1960852, 33.7646821, 5.0],
          [-118.1959309, 33.7645992, 5.0],
          [-118.195848, 33.7645569, 5.0],
          [-118.1957082, 33.7644886, 9.0],
          [-118.1956252, 33.7644464, 9.0],
          [-118.1955878, 33.7644284, 9.0],
          [-118.1955396, 33.7644081, 9.0],
          [-118.19548, 33.764387, 9.0],
          [-118.1954408, 33.7643718, 9.0],
          [-118.1954312, 33.7643677, 9.0],
          [-118.1953934, 33.7643503, 9.0],
          [-118.1953264, 33.7643211, 9.0],
          [-118.1952225, 33.7642731, 9.0],
          [-118.1950981, 33.7642188, 9.0],
          [-118.195042, 33.7641918, 9.0],
          [-118.1949499, 33.7641448, 8.0],
          [-118.194841, 33.7640861, 8.0],
          [-118.1948036, 33.7640681, 8.0],
          [-118.194718, 33.7640298, 8.0],
          [-118.194662, 33.7640026, 8.0],
          [-118.1945444, 33.7639387, 8.0],
          [-118.1944984, 33.763915, 8.0],
          [-118.1944719, 33.7638995, 8.0],
          [-118.1943883, 33.7638424, 8.0],
          [-118.1943457, 33.7638148, 8.0],
          [-118.1943105, 33.7637939, 8.0],
          [-118.1942645, 33.7637704, 8.0],
          [-118.1941602, 33.763723, 6.0],
          [-118.1939953, 33.763646, 6.0],
          [-118.1938304, 33.763569, 6.0],
          [-118.1937823, 33.7635485, 6.0],
          [-118.1936944, 33.7635138, 6.0],
          [-118.1936461, 33.7634938, 6.0],
          [-118.1934762, 33.7634151, 6.0],
          [-118.1933137, 33.7633437, 13.0],
          [-118.1931513, 33.7632724, 4.0],
          [-118.1930651, 33.7632349, 4.0],
          [-118.19294, 33.7631818, 4.0],
          [-118.1929106, 33.7631705, 4.0],
          [-118.1928805, 33.7631604, 4.0],
          [-118.1928497, 33.7631522, 4.0],
          [-118.1928288, 33.7631478, 4.0],
          [-118.1927969, 33.7631432, 4.0],
          [-118.1927647, 33.7631402, 4.0],
          [-118.1927431, 33.7631402, 4.0],
          [-118.1927217, 33.7631425, 4.0],
          [-118.1927009, 33.7631473, 4.0],
          [-118.1926909, 33.7631507, 4.0],
          [-118.1926721, 33.7631595, 4.0],
          [-118.1926633, 33.7631648, 4.0],
          [-118.192647, 33.7631765, 4.0],
          [-118.1926253, 33.7631967, 4.0],
          [-118.1926131, 33.7632115, 4.0],
          [-118.1925973, 33.7632351, 4.0],
          [-118.1925557, 33.7633085, 4.0],
          [-118.1925245, 33.7633659, 13.0],
          [-118.1925168, 33.7633828, 13.0],
          [-118.1925104, 33.7634, 13.0],
          [-118.1924997, 33.7634349, 11.0],
          [-118.1924851, 33.7634783, 11.0],
          [-118.1924749, 33.7635134, 11.0],
          [-118.1924534, 33.7635739, 11.0],
          [-118.1924444, 33.7636091, 11.0],
          [-118.1924378, 33.7636448, 11.0],
          [-118.1924339, 33.7636716, 11.0],
          [-118.1924304, 33.7637076, 11.0],
          [-118.1924269, 33.7637887, 11.0],
          [-118.1924233, 33.7638427, 11.0],
          [-118.1924199, 33.7639418, 11.0],
          [-118.1924179, 33.76405, 11.0],
          [-118.1924191, 33.764077, 11.0],
          [-118.1924223, 33.764104, 11.0],
          [-118.1924273, 33.7641307, 11.0],
          [-118.1924355, 33.7641661, 12.0],
          [-118.1924391, 33.764193, 12.0],
          [-118.1924408, 33.76422, 12.0],
          [-118.1924419, 33.7642741, 12.0],
          [-118.1924444, 33.7643191, 12.0],
          [-118.1924444, 33.7643371, 12.0],
          [-118.192442, 33.7643731, 12.0],
          [-118.1924412, 33.7644002, 12.0],
          [-118.192438, 33.7644271, 12.0],
          [-118.1924324, 33.7644537, 12.0],
          [-118.1924277, 33.7644713, 12.0],
          [-118.192413, 33.7645147, 12.0],
          [-118.1924082, 33.7645323, 12.0],
          [-118.192405, 33.7645501, 12.0],
          [-118.192403, 33.7645771, 12.0],
          [-118.1924036, 33.7646222, 12.0],
          [-118.1924012, 33.7646943, 12.0],
          [-118.1924006, 33.7648025, 12.0],
          [-118.1923988, 33.7648656, 12.0],
          [-118.1923978, 33.7649648, 12.0],
          [-118.1923968, 33.7650639, 4.0],
          [-118.1923984, 33.7652262, 4.0],
          [-118.1923985, 33.7653434, 4.0],
          [-118.1924002, 33.7654336, 4.0],
          [-118.1923997, 33.7654696, 4.0],
          [-118.1923982, 33.7654967, 4.0],
          [-118.1923839, 33.7656676, 4.0],
          [-118.192381, 33.7656854, 4.0],
          [-118.1923767, 33.7657031, 4.0],
          [-118.1923681, 33.7657292, 4.0],
          [-118.1923648, 33.7657378, 4.0],
          [-118.1923611, 33.7657462, 4.0],
          [-118.1923569, 33.7657545, 4.0],
          [-118.1923522, 33.7657626, 4.0],
          [-118.1923467, 33.7657704, 4.0],
          [-118.1923406, 33.7657778, 4.0],
          [-118.1923337, 33.7657847, 4.0],
          [-118.1923258, 33.7657909, 4.0],
          [-118.1923085, 33.7658017, 4.0],
          [-118.19229, 33.7658109, 4.0],
          [-118.1922707, 33.7658189, 4.0],
          [-118.1922606, 33.7658221, 4.0],
          [-118.1922399, 33.7658272, 5.0],
          [-118.1921974, 33.7658336, 5.0],
          [-118.1920795, 33.7658457, 5.0],
          [-118.1920256, 33.7658484, 5.0],
          [-118.1918854, 33.7658515, 5.0],
          [-118.1918206, 33.7658514, 5.0],
          [-118.1917774, 33.7658505, 5.0],
          [-118.1917451, 33.7658485, 5.0],
          [-118.1917237, 33.7658463, 5.0],
          [-118.1916278, 33.7658335, 10.0],
          [-118.1916063, 33.7658318, 10.0],
          [-118.1915847, 33.7658311, 10.0],
          [-118.1915415, 33.7658317, 10.0],
          [-118.1914553, 33.7658355, 10.0],
          [-118.1914013, 33.7658366, 10.0],
          [-118.1913905, 33.7658368, 10.0],
          [-118.191315, 33.7658355, 10.0],
          [-118.1912718, 33.7658358, 10.0],
          [-118.1912395, 33.7658376, 10.0],
          [-118.1912073, 33.7658408, 10.0],
          [-118.1911754, 33.7658453, 10.0],
          [-118.1910802, 33.7658614, 10.0],
          [-118.1910481, 33.7658649, 10.0],
          [-118.1910158, 33.7658669, 10.0],
          [-118.1909834, 33.7658668, 10.0],
          [-118.190908, 33.7658623, 10.0],
          [-118.1907894, 33.7658581, 12.0],
          [-118.1907786, 33.7658578, 12.0],
          [-118.190757, 33.7658578, 12.0],
          [-118.1907355, 33.7658591, 12.0],
          [-118.1907141, 33.7658615, 12.0],
          [-118.1906182, 33.7658749, 12.0],
          [-118.1905753, 33.7658788, 12.0],
          [-118.1904891, 33.7658834, 12.0],
          [-118.1904028, 33.7658846, 12.0],
          [-118.1903596, 33.7658836, 12.0],
          [-118.1903274, 33.7658812, 12.0],
          [-118.1902313, 33.765869, 12.0],
          [-118.1901884, 33.7658649, 12.0],
          [-118.1901345, 33.7658626, 12.0],
          [-118.1900697, 33.7658626, 12.0],
          [-118.1900374, 33.7658641, 12.0],
          [-118.1899407, 33.7658723, 11.0],
          [-118.1898225, 33.765881, 11.0],
          [-118.1897042, 33.7658897, 11.0],
          [-118.1895966, 33.7658969, 11.0],
          [-118.1895319, 33.7659003, 11.0],
          [-118.1894672, 33.7659027, 11.0],
          [-118.1894132, 33.7659037, 11.0],
          [-118.1893701, 33.7659032, 11.0],
          [-118.1893377, 33.7659019, 11.0],
          [-118.1892947, 33.7658991, 11.0],
          [-118.1891981, 33.7658902, 11.0],
          [-118.1891233, 33.7658814, 11.0],
          [-118.1890063, 33.7658645, 11.0],
          [-118.1889526, 33.7658593, 11.0],
          [-118.1889311, 33.7658585, 11.0],
          [-118.1888987, 33.7658582, 11.0],
          [-118.1887476, 33.7658614, 11.0],
          [-118.1887044, 33.7658605, 11.0],
          [-118.1886721, 33.7658588, 11.0],
          [-118.18864, 33.7658551, 11.0],
          [-118.1886082, 33.7658501, 11.0],
          [-118.188503, 33.7658301, 11.0],
          [-118.1884708, 33.7658269, 11.0],
          [-118.1884492, 33.7658268, 11.0],
          [-118.1884384, 33.7658274, 11.0],
          [-118.1883744, 33.7658358, 11.0],
          [-118.1883422, 33.7658385, 11.0],
          [-118.1883099, 33.7658393, 14.0],
          [-118.1882883, 33.7658386, 14.0],
          [-118.1882561, 33.7658357, 14.0],
          [-118.1882135, 33.7658296, 14.0],
          [-118.1881184, 33.7658131, 9.0],
          [-118.1880759, 33.7658067, 9.0],
          [-118.1880225, 33.7658004, 9.0],
          [-118.1879795, 33.7657968, 9.0],
          [-118.1879472, 33.7657949, 9.0],
          [-118.187904, 33.7657938, 9.0],
          [-118.1877529, 33.7657938, 9.0],
          [-118.1876127, 33.7657887, 9.0],
          [-118.1875373, 33.7657842, 9.0],
          [-118.1874192, 33.7657741, 9.0],
          [-118.1873439, 33.7657684, 9.0],
          [-118.1871932, 33.7657595, 9.0],
          [-118.1871071, 33.7657535, 9.0],
          [-118.187032, 33.7657464, 9.0],
          [-118.1869895, 33.7657399, 9.0],
          [-118.1869479, 33.7657305, 9.0],
          [-118.1868659, 33.7657077, 9.0],
          [-118.1868343, 33.7657018, 9.0],
          [-118.1868129, 33.7656995, 9.0],
          [-118.1867805, 33.7656986, 9.0],
          [-118.1866942, 33.7657011, 9.0],
          [-118.186597, 33.7657013, 10.0],
          [-118.1865756, 33.765703, 10.0],
          [-118.1865221, 33.765709, 10.0],
          [-118.1864683, 33.7657129, 10.0],
          [-118.1864036, 33.7657154, 10.0],
          [-118.1863496, 33.7657153, 10.0],
          [-118.1863173, 33.7657136, 10.0],
          [-118.1862851, 33.7657108, 10.0],
          [-118.1861243, 33.7656944, 10.0],
          [-118.1860389, 33.7656837, 10.0],
          [-118.1859424, 33.7656748, 10.0],
          [-118.1858886, 33.7656707, 10.0],
          [-118.1858134, 33.7656642, 7.0],
          [-118.1857816, 33.7656594, 7.0],
          [-118.1857606, 33.7656549, 7.0],
          [-118.1857401, 33.7656493, 7.0],
          [-118.1857201, 33.7656425, 7.0],
          [-118.1857008, 33.7656345, 7.0],
          [-118.1856731, 33.7656205, 7.0],
          [-118.1856557, 33.7656098, 7.0],
          [-118.1856397, 33.7655977, 7.0],
          [-118.1856032, 33.7655645, 7.0],
          [-118.1855824, 33.7655438, 7.0],
          [-118.1855702, 33.7655289, 7.0],
          [-118.1855598, 33.7655131, 7.0],
          [-118.1855514, 33.7654965, 7.0],
          [-118.1855446, 33.7654793, 7.0],
          [-118.1855393, 33.7654619, 7.0],
          [-118.1855351, 33.7654442, 7.0],
          [-118.1855299, 33.7654084, 7.0],
          [-118.1855214, 33.7652733, 7.0],
          [-118.1855198, 33.7652192, 7.0],
          [-118.1855218, 33.7651561, 7.0],
          [-118.1855309, 33.7650031, 7.0],
          [-118.1855329, 33.7649129, 3.0],
          [-118.1855349, 33.7648228, 3.0],
          [-118.1855375, 33.7647777, 3.0],
          [-118.1855445, 33.7646878, 3.0],
          [-118.1855468, 33.7646427, 3.0],
          [-118.1855473, 33.7645976, 3.0],
          [-118.1855446, 33.7645526, 3.0],
          [-118.1855395, 33.7645168, 3.0],
          [-118.1855296, 33.7644725, 3.0],
          [-118.1855217, 33.7644462, 3.0],
          [-118.1855157, 33.7644289, 3.0],
          [-118.1855013, 33.7643949, 3.0],
          [-118.1854835, 33.7643621, 3.0],
          [-118.1854626, 33.7643305, 3.0],
          [-118.1854509, 33.7643153, 3.0],
          [-118.1854382, 33.7643008, 3.0],
          [-118.185417, 33.7642804, 3.0],
          [-118.1853855, 33.7642556, 3.0],
          [-118.1853605, 33.7642385, 3.0],
          [-118.1853348, 33.7642221, 3.0],
          [-118.1853169, 33.7642119, 3.0],
          [-118.1852985, 33.7642025, 3.0],
          [-118.1852602, 33.7641859, 3.0],
          [-118.1852304, 33.7641752, 3.0],
          [-118.1851898, 33.7641631, 3.0],
          [-118.1851588, 33.7641552, 5.0],
          [-118.1850964, 33.7641407, 5.0],
          [-118.1850654, 33.7641327, 5.0],
          [-118.1850352, 33.7641231, 5.0],
          [-118.1849756, 33.7641019, 5.0],
          [-118.1849552, 33.7640958, 5.0],
          [-118.1849345, 33.7640908, 5.0],
          [-118.1849026, 33.764086, 5.0],
          [-118.1848703, 33.7640842, 5.0],
          [-118.1848379, 33.7640846, 5.0],
          [-118.1847949, 33.7640879, 5.0],
          [-118.1847523, 33.7640936, 5.0],
          [-118.1847101, 33.7641012, 5.0],
          [-118.1846582, 33.7641135, 5.0],
          [-118.1846173, 33.7641252, 5.0],
          [-118.1845874, 33.7641355, 5.0],
          [-118.1845484, 33.7641511, 5.0],
          [-118.18452, 33.7641641, 4.0],
          [-118.1844924, 33.7641781, 4.0],
          [-118.1844658, 33.7641935, 4.0],
          [-118.1844488, 33.7642047, 4.0],
          [-118.1844244, 33.7642225, 4.0],
          [-118.184401, 33.7642412, 4.0],
          [-118.1843712, 33.7642673, 4.0],
          [-118.1843554, 33.7642796, 4.0],
          [-118.1843388, 33.7642911, 4.0],
          [-118.1843213, 33.7643017, 4.0],
          [-118.1843028, 33.7643109, 4.0],
          [-118.184293, 33.7643147, 4.0],
          [-118.1842725, 33.7643204, 4.0],
          [-118.1842619, 33.764322, 4.0],
          [-118.1842403, 33.7643225, 4.0],
          [-118.1842297, 33.7643213, 4.0],
          [-118.1842192, 33.764319, 4.0],
          [-118.1842091, 33.7643158, 4.0],
          [-118.1841995, 33.7643117, 4.0],
          [-118.1841906, 33.7643067, 4.0],
          [-118.1841824, 33.7643009, 4.0],
          [-118.184175, 33.7642943, 4.0],
          [-118.1841685, 33.7642871, 5.0],
          [-118.184163, 33.7642794, 5.0],
          [-118.1841587, 33.7642711, 5.0],
          [-118.1841554, 33.7642626, 5.0],
          [-118.1841532, 33.7642537, 5.0],
          [-118.1841524, 33.7642448, 5.0],
          [-118.1841523, 33.7642358, 5.0],
          [-118.1841532, 33.7642268, 5.0],
          [-118.1841548, 33.7642179, 5.0],
          [-118.1841604, 33.7642005, 5.0],
          [-118.1841642, 33.764192, 5.0],
          [-118.1841682, 33.7641837, 5.0],
          [-118.1841731, 33.7641757, 4.0],
          [-118.184179, 33.7641681, 4.0],
          [-118.1841851, 33.7641607, 4.0],
          [-118.1842056, 33.7641397, 5.0],
          [-118.1842837, 33.764065, 5.0],
          [-118.1843705, 33.7639847, 5.0],
          [-118.1843938, 33.7639659, 5.0],
          [-118.1844431, 33.7639309, 5.0],
          [-118.1845482, 33.7638532, 5.0],
          [-118.1845905, 33.7638252, 5.0],
          [-118.1847218, 33.763746, 5.0],
          [-118.1848168, 33.7636865, 5.0],
          [-118.1849839, 33.7635871, 5.0],
          [-118.1850826, 33.7635321, 5.0],
          [-118.1851264, 33.7635056, 5.0],
          [-118.1851517, 33.7634888, 5.0],
          [-118.1851763, 33.7634712, 5.0],
          [-118.1853017, 33.763372, 5.0],
          [-118.1853424, 33.7633424, 5.0],
          [-118.1853676, 33.7633254, 5.0],
          [-118.1854029, 33.7633046, 5.0],
          [-118.1854402, 33.7632865, 5.0],
          [-118.1854693, 33.7632746, 5.0],
          [-118.1855583, 33.763242, 5.0],
          [-118.1855966, 33.7632254, 5.0],
          [-118.1856526, 33.7631982, 5.0],
          [-118.185716, 33.7631638, 5.0],
          [-118.1858568, 33.7630803, 5.0],
          [-118.1859663, 33.7630144, 5.0],
          [-118.1860758, 33.7629486, 5.0],
          [-118.1861641, 33.7628967, 5.0],
          [-118.1863045, 33.7628127, 5.0],
          [-118.1863466, 33.7627844, 5.0],
          [-118.1864252, 33.7627226, 5.0],
          [-118.1864581, 33.7626992, 5.0],
          [-118.1865442, 33.7626449, 5.0],
          [-118.1866312, 33.7625915, 5.0],
          [-118.1867181, 33.762538, 6.0],
          [-118.1867887, 33.7624965, 6.0],
          [-118.1869627, 33.7624058, 5.0],
          [-118.1869981, 33.7623851, 5.0],
          [-118.1870584, 33.762347, 5.0],
          [-118.1871834, 33.7622762, 5.0],
          [-118.1872651, 33.7622323, 5.0],
          [-118.187345, 33.7621922, 5.0]
        ]
      }
    }
  ]
}
