{
  "type": "FeatureCollection",
  "features": [
    {
      "type": "Feature",
      "properties": {
        "Name": "Mid-Ohio Sports Car Course, 13-turn professional course",
        "source": "OpenStreetMap contributors (ODbL 1.0)",
        "source_id": "mid-ohio/pro-13",
        "revision": "5adb13159b1d453e6e81ba7c6aaa46d2e5ee534c",
        "upstream_path": "docs/track-screening/traces/mid-ohio-source.osm",
        "upstream_sha256": "9b6527cc68be283f68274f9390dcecbf2755c241feaa6e854dff627528613a82",
        "line": [
          40.68955,
          -82.63715
        ],
        "direction": "clockwise",
        "heights": "Open-Meteo DEM (Copernicus GLO-90), metres above sea level",
        "retrieved": "2026-09-27",
        "layout_note": "13-turn 2.258-mile ALMS layout; excludes chicane way 444205376 and practice cut-throughs 444205377/378. Linear subdivision to <=20 metres retains surveyed plan and locates the finish on the pit straight.",
        "osm_versions": "2026-09-27 444205375v5,1315957515v1,1315957514v1,1315957513v1,1315957512v1,1315957511v1"
      },
      "geometry": {
        "type": "LineString",
        "coordinates": [
          [-82.6401586, 40.6843694, 430.0],
          [-82.6401637, 40.6845484, 430.0],
          [-82.6401688, 40.6847275, 430.0],
          [-82.6401739, 40.6849065, 430.0],
          [-82.6401806, 40.6850604, 427.0],
          [-82.6401874, 40.6852143, 427.0],
          [-82.6401941, 40.6853682, 427.0],
          [-82.6402008, 40.6855221, 427.0],
          [-82.6402076, 40.685676, 427.0],
          [-82.6402143, 40.6858299, 431.0],
          [-82.6402232, 40.6859829, 431.0],
          [-82.6402321, 40.6861358, 431.0],
          [-82.6402411, 40.6862888, 431.0],
          [-82.64025, 40.6864417, 431.0],
          [-82.6402589, 40.6865947, 431.0],
          [-82.6402693, 40.6867729, 437.0],
          [-82.6402797, 40.686951, 437.0],
          [-82.6402901, 40.6871292, 437.0],
          [-82.6403005, 40.6873073, 437.0],
          [-82.6403109, 40.6874855, 437.0],
          [-82.6403109, 40.6876543, 430.0],
          [-82.6403109, 40.6878231, 430.0],
          [-82.6403109, 40.687992, 430.0],
          [-82.6403109, 40.6881608, 430.0],
          [-82.6402738, 40.6883318, 426.0],
          [-82.6402564, 40.6884307, 426.0],
          [-82.6402158, 40.6885486, 426.0],
          [-82.6401714, 40.6886768, 426.0],
          [-82.6401271, 40.688805, 426.0],
          [-82.6400827, 40.6889332, 426.0],
          [-82.6400116, 40.6890784, 426.0],
          [-82.6399406, 40.6892235, 418.0],
          [-82.6398696, 40.6893687, 418.0],
          [-82.6397985, 40.6895138, 418.0],
          [-82.6397275, 40.689659, 418.0],
          [-82.6396564, 40.6898041, 418.0],
          [-82.6395775, 40.6899534, 418.0],
          [-82.6394985, 40.6901028, 423.0],
          [-82.6394196, 40.6902521, 423.0],
          [-82.6393407, 40.6904014, 423.0],
          [-82.6392618, 40.6905507, 423.0],
          [-82.6391828, 40.6907001, 423.0],
          [-82.6391039, 40.6908494, 416.0],
          [-82.6390236, 40.6910027, 416.0],
          [-82.6389433, 40.6911561, 416.0],
          [-82.6388629, 40.6913094, 416.0],
          [-82.6387826, 40.6914627, 416.0],
          [-82.6387023, 40.6916161, 416.0],
          [-82.638622, 40.6917694, 423.0],
          [-82.6385416, 40.6919227, 423.0],
          [-82.6384613, 40.6920761, 423.0],
          [-82.638381, 40.6922294, 423.0],
          [-82.6383283, 40.6922836, 407.0],
          [-82.63823, 40.6923571, 407.0],
          [-82.6381507, 40.692391, 407.0],
          [-82.6380619, 40.6924158, 407.0],
          [-82.6379702, 40.6924266, 407.0],
          [-82.637873, 40.6924271, 407.0],
          [-82.6377908, 40.6924204, 407.0],
          [-82.6377085, 40.6923994, 407.0],
          [-82.6375302, 40.6923205, 407.0],
          [-82.6373518, 40.6922416, 403.0],
          [-82.6371769, 40.6921686, 403.0],
          [-82.6370019, 40.6920955, 403.0],
          [-82.6368533, 40.6920643, 403.0],
          [-82.6367073, 40.6920596, 403.0],
          [-82.636604, 40.6920792, 404.0],
          [-82.6365195, 40.692109, 404.0],
          [-82.63643, 40.6921667, 404.0],
          [-82.6363593, 40.6922305, 404.0],
          [-82.6362891, 40.6923259, 404.0],
          [-82.6362632, 40.6924243, 404.0],
          [-82.6362682, 40.6925481, 401.0],
          [-82.6362733, 40.6926718, 401.0],
          [-82.6362783, 40.6927956, 401.0],
          [-82.6362882, 40.692971, 401.0],
          [-82.636298, 40.6931464, 401.0],
          [-82.6363079, 40.6933218, 401.0],
          [-82.6363079, 40.69339, 418.0],
          [-82.6362957, 40.6934653, 418.0],
          [-82.6362768, 40.6935156, 418.0],
          [-82.6362479, 40.6935527, 418.0],
          [-82.6362108, 40.6935878, 418.0],
          [-82.6361612, 40.693624, 418.0],
          [-82.6361063, 40.693652, 418.0],
          [-82.6360286, 40.6936771, 418.0],
          [-82.6359604, 40.6936869, 418.0],
          [-82.6358868, 40.6936906, 418.0],
          [-82.6357059, 40.6936884, 408.0],
          [-82.635525, 40.6936861, 408.0],
          [-82.6353145, 40.6936726, 408.0],
          [-82.6351039, 40.6936591, 408.0],
          [-82.6350282, 40.6936567, 408.0],
          [-82.6349499, 40.6936645, 401.0],
          [-82.6348702, 40.6936855, 401.0],
          [-82.6348093, 40.6937146, 401.0],
          [-82.6346373, 40.69383, 401.0],
          [-82.6344653, 40.6939453, 401.0],
          [-82.6342933, 40.6940607, 401.0],
          [-82.6341991, 40.6941601, 406.0],
          [-82.634105, 40.6942595, 406.0],
          [-82.6340108, 40.6943589, 406.0],
          [-82.6339402, 40.6944254, 406.0],
          [-82.6338774, 40.694474, 406.0],
          [-82.6338012, 40.6945062, 406.0],
          [-82.6337073, 40.6945293, 406.0],
          [-82.6336108, 40.6945422, 406.0],
          [-82.633486, 40.6945481, 406.0],
          [-82.6333586, 40.6945498, 406.0],
          [-82.633137, 40.6945585, 402.0],
          [-82.6329153, 40.6945671, 402.0],
          [-82.6326937, 40.6945758, 402.0],
          [-82.6325936, 40.6945741, 402.0],
          [-82.6324936, 40.6945603, 400.0],
          [-82.6324042, 40.6945321, 400.0],
          [-82.6323244, 40.6944941, 400.0],
          [-82.6322653, 40.6944545, 400.0],
          [-82.6322206, 40.69441, 400.0],
          [-82.6321496, 40.694309, 400.0],
          [-82.6321025, 40.6942104, 400.0],
          [-82.6320665, 40.6940759, 400.0],
          [-82.6320465, 40.6939389, 400.0],
          [-82.6320378, 40.6937764, 400.0],
          [-82.632029, 40.6936138, 400.0],
          [-82.6320203, 40.6934513, 400.0],
          [-82.6320116, 40.6932888, 400.0],
          [-82.6320005, 40.6931468, 400.0],
          [-82.6319894, 40.6930049, 400.0],
          [-82.6319783, 40.6928629, 400.0],
          [-82.6319754, 40.6927565, 400.0],
          [-82.6319724, 40.69265, 400.0],
          [-82.6319802, 40.6925497, 400.0],
          [-82.6319879, 40.6924493, 408.0],
          [-82.6320023, 40.6923461, 408.0],
          [-82.6320167, 40.6922429, 408.0],
          [-82.6320431, 40.6921504, 408.0],
          [-82.6320695, 40.6920579, 408.0],
          [-82.6321056, 40.6919702, 408.0],
          [-82.6321417, 40.6918825, 408.0],
          [-82.6322138, 40.6917701, 408.0],
          [-82.632286, 40.6916577, 404.0],
          [-82.6323761, 40.6915453, 404.0],
          [-82.6324663, 40.6914329, 404.0],
          [-82.6326001, 40.6912935, 410.0],
          [-82.6327339, 40.6911541, 410.0],
          [-82.6328677, 40.6910147, 410.0],
          [-82.6329295, 40.6909465, 410.0],
          [-82.6329685, 40.6908782, 410.0],
          [-82.6330007, 40.6908011, 407.0],
          [-82.6330139, 40.6907241, 407.0],
          [-82.6330119, 40.6906442, 407.0],
          [-82.6329985, 40.6905642, 407.0],
          [-82.6329417, 40.6904524, 407.0],
          [-82.6328736, 40.690355, 407.0],
          [-82.632744, 40.690215, 407.0],
          [-82.6326143, 40.6900751, 407.0],
          [-82.6324847, 40.6899351, 414.0],
          [-82.6323891, 40.6898048, 414.0],
          [-82.6323545, 40.6897418, 414.0],
          [-82.6323278, 40.6896789, 414.0],
          [-82.6322901, 40.6895888, 414.0],
          [-82.6322524, 40.6894988, 414.0],
          [-82.632221, 40.6893967, 414.0],
          [-82.6322152, 40.6892921, 414.0],
          [-82.6322145, 40.6892089, 414.0],
          [-82.632233, 40.6891257, 414.0],
          [-82.6322726, 40.6890328, 414.0],
          [-82.632321, 40.6889672, 414.0],
          [-82.6323837, 40.6889053, 414.0],
          [-82.632472, 40.6888387, 414.0],
          [-82.6325731, 40.6887914, 413.0],
          [-82.6326777, 40.6887627, 413.0],
          [-82.6327886, 40.6887509, 413.0],
          [-82.6329073, 40.688763, 413.0],
          [-82.6330101, 40.6887944, 413.0],
          [-82.6330944, 40.688825, 413.0],
          [-82.6331564, 40.6888604, 413.0],
          [-82.6332559, 40.6889377, 413.0],
          [-82.6333363, 40.6890343, 412.0],
          [-82.6333956, 40.6891182, 412.0],
          [-82.6334549, 40.6892022, 410.0],
          [-82.6335173, 40.6892786, 410.0],
          [-82.6335485, 40.6893119, 410.0],
          [-82.6335813, 40.6893451, 410.0],
          [-82.6336183, 40.6893715, 410.0],
          [-82.6336601, 40.6893954, 410.0],
          [-82.633694, 40.689409, 410.0],
          [-82.6337326, 40.689419, 410.0],
          [-82.6338026, 40.6894299, 410.0],
          [-82.6338661, 40.6894336, 410.0],
          [-82.6340948, 40.6894413, 410.0],
          [-82.6343234, 40.6894489, 411.0],
          [-82.6345521, 40.6894566, 411.0],
          [-82.6346714, 40.6894614, 411.0],
          [-82.6347908, 40.6894663, 411.0],
          [-82.6349535, 40.6894727, 411.0],
          [-82.6351163, 40.6894791, 412.0],
          [-82.635279, 40.6894855, 412.0],
          [-82.6355153, 40.689494, 412.0],
          [-82.6357515, 40.6895025, 412.0],
          [-82.6359878, 40.689511, 413.0],
          [-82.636224, 40.6895195, 413.0],
          [-82.6364603, 40.689528, 413.0],
          [-82.6366965, 40.6895364, 415.0],
          [-82.6369328, 40.6895449, 415.0],
          [-82.637169, 40.6895534, 415.0],
          [-82.6374053, 40.6895619, 415.0],
          [-82.6376415, 40.6895704, 420.0],
          [-82.6378778, 40.6895789, 420.0],
          [-82.6380309, 40.6895839, 420.0],
          [-82.638184, 40.6895789, 420.0],
          [-82.6383446, 40.6895589, 415.0],
          [-82.6384193, 40.6895439, 415.0],
          [-82.6384901, 40.6895246, 415.0],
          [-82.6386069, 40.6894855, 415.0],
          [-82.6387143, 40.6894327, 415.0],
          [-82.6388446, 40.6893597, 415.0],
          [-82.6389541, 40.6892751, 415.0],
          [-82.6390423, 40.6891953, 415.0],
          [-82.6391154, 40.6891097, 417.0],
          [-82.6391683, 40.6890134, 417.0],
          [-82.6392088, 40.6889178, 417.0],
          [-82.6392282, 40.688841, 417.0],
          [-82.6392401, 40.6887663, 417.0],
          [-82.639241, 40.6886787, 417.0],
          [-82.6392457, 40.6885911, 417.0],
          [-82.6392367, 40.6884402, 417.0],
          [-82.6392277, 40.6882893, 419.0],
          [-82.6392186, 40.6881384, 419.0],
          [-82.6392096, 40.6879875, 419.0],
          [-82.6392021, 40.6878611, 419.0],
          [-82.6391945, 40.6877347, 419.0],
          [-82.639187, 40.6876083, 419.0],
          [-82.6391827, 40.6874495, 423.0],
          [-82.6391783, 40.6872906, 423.0],
          [-82.6391739, 40.6871317, 423.0],
          [-82.6391696, 40.6869729, 424.0],
          [-82.6391652, 40.686814, 424.0],
          [-82.6391609, 40.6866552, 426.0],
          [-82.6391565, 40.6864942, 426.0],
          [-82.6391521, 40.6863333, 426.0],
          [-82.6391477, 40.6861723, 426.0],
          [-82.6391445, 40.686058, 426.0],
          [-82.6391414, 40.6859438, 426.0],
          [-82.6391271, 40.6857815, 429.0],
          [-82.6391128, 40.6856193, 429.0],
          [-82.6390985, 40.685457, 429.0],
          [-82.6390842, 40.6852948, 429.0],
          [-82.6390699, 40.6851325, 429.0],
          [-82.6390556, 40.6849703, 434.0],
          [-82.6390413, 40.684808, 434.0],
          [-82.639027, 40.6846458, 434.0],
          [-82.6390127, 40.6844835, 434.0],
          [-82.6390088, 40.6844361, 434.0],
          [-82.6389966, 40.6842882, 434.0],
          [-82.6390221, 40.6842089, 434.0],
          [-82.639065, 40.6841367, 438.0],
          [-82.6391287, 40.6840609, 438.0],
          [-82.6392058, 40.6839953, 434.0],
          [-82.6393104, 40.6839394, 434.0],
          [-82.6394204, 40.6838977, 434.0],
          [-82.639517, 40.6838824, 434.0],
          [-82.6396135, 40.6838814, 434.0],
          [-82.6397369, 40.6839038, 434.0],
          [-82.6398549, 40.6839384, 434.0],
          [-82.6399488, 40.6839943, 434.0],
          [-82.6400212, 40.6840563, 431.0],
          [-82.6400815, 40.6841285, 431.0],
          [-82.6401151, 40.6842069, 430.0],
          [-82.6401586, 40.6843694, 430.0]
        ]
      }
    }
  ]
}
