{
  "type": "FeatureCollection",
  "features": [
    {
      "type": "Feature",
      "properties": {
        "Name": "Canadian Tire Motorsport Park",
        "source": "tobi/track-atlas (OpenStreetMap contributors; ODbL 1.0)",
        "source_id": "mosport/gp",
        "revision": "c783def5a24df8ce8f034262e8228c262b854e0e",
        "upstream_path": "tracks/mosport/raw/layers/gp.geojson",
        "upstream_sha256": "b6c0ba8bd445e482c86e41254461c3cae9aa9bb3a83824a85bae120cc9b8bd90",
        "line": [
          44.052774,
          -78.67178
        ],
        "direction": "clockwise",
        "heights": "Open-Meteo DEM (Copernicus GLO-90), metres above sea level",
        "retrieved": "2026-09-27"
      },
      "geometry": {
        "type": "LineString",
        "coordinates": [
          [-78.67178, 44.052774, 326.0],
          [-78.671833, 44.052601, 326.0],
          [-78.671963, 44.052405, 322.0],
          [-78.67209, 44.052232, 322.0],
          [-78.672217, 44.05206, 322.0],
          [-78.672405, 44.051846, 322.0],
          [-78.672592, 44.051633, 318.0],
          [-78.67278, 44.051419, 318.0],
          [-78.672936, 44.051222, 318.0],
          [-78.673092, 44.051025, 318.0],
          [-78.673249, 44.050828, 318.0],
          [-78.673405, 44.05063, 324.0],
          [-78.673552, 44.050433, 324.0],
          [-78.673699, 44.050236, 324.0],
          [-78.673787, 44.050082, 324.0],
          [-78.673852, 44.04986, 325.0],
          [-78.673858, 44.049655, 325.0],
          [-78.673818, 44.049502, 325.0],
          [-78.673723, 44.049297, 325.0],
          [-78.673597, 44.049075, 309.0],
          [-78.673407, 44.048848, 309.0],
          [-78.673201, 44.048666, 308.0],
          [-78.672979, 44.04854, 308.0],
          [-78.672719, 44.048439, 308.0],
          [-78.672387, 44.048371, 308.0],
          [-78.672171, 44.048345, 308.0],
          [-78.671956, 44.048319, 302.0],
          [-78.671587, 44.048303, 303.0],
          [-78.671217, 44.048287, 303.0],
          [-78.670848, 44.048271, 303.0],
          [-78.670478, 44.048256, 303.0],
          [-78.670109, 44.04824, 303.0],
          [-78.669888, 44.048229, 305.0],
          [-78.669678, 44.048181, 305.0],
          [-78.669445, 44.048103, 305.0],
          [-78.669263, 44.048007, 305.0],
          [-78.669113, 44.047858, 309.0],
          [-78.669026, 44.047751, 309.0],
          [-78.668931, 44.047576, 309.0],
          [-78.668907, 44.047461, 310.0],
          [-78.668951, 44.047219, 310.0],
          [-78.669017, 44.047025, 310.0],
          [-78.669176, 44.046796, 312.0],
          [-78.669279, 44.046679, 312.0],
          [-78.669381, 44.046563, 307.0],
          [-78.669544, 44.046433, 307.0],
          [-78.669682, 44.046353, 307.0],
          [-78.669974, 44.046183, 307.0],
          [-78.670265, 44.046014, 311.0],
          [-78.670557, 44.045845, 311.0],
          [-78.670848, 44.045676, 301.0],
          [-78.67114, 44.045507, 301.0],
          [-78.671432, 44.045338, 301.0],
          [-78.671723, 44.045169, 305.0],
          [-78.672015, 44.045, 305.0],
          [-78.672205, 44.044858, 304.0],
          [-78.672387, 44.044704, 304.0],
          [-78.672513, 44.044553, 305.0],
          [-78.67264, 44.044403, 305.0],
          [-78.67277, 44.044211, 305.0],
          [-78.672869, 44.04405, 299.0],
          [-78.672952, 44.043832, 299.0],
          [-78.672972, 44.043641, 299.0],
          [-78.672956, 44.043476, 299.0],
          [-78.67294, 44.043311, 293.0],
          [-78.672901, 44.043121, 293.0],
          [-78.672861, 44.04293, 293.0],
          [-78.672826, 44.042794, 293.0],
          [-78.67279, 44.042658, 293.0],
          [-78.672774, 44.04251, 293.0],
          [-78.672845, 44.042368, 291.0],
          [-78.672972, 44.04222, 291.0],
          [-78.67313, 44.04214, 291.0],
          [-78.673359, 44.0421, 296.0],
          [-78.673699, 44.0421, 296.0],
          [-78.67385, 44.042157, 296.0],
          [-78.673945, 44.042271, 296.0],
          [-78.673968, 44.042425, 296.0],
          [-78.673976, 44.04264, 298.0],
          [-78.673976, 44.042817, 298.0],
          [-78.674, 44.042987, 298.0],
          [-78.674071, 44.043169, 298.0],
          [-78.67419, 44.043408, 305.0],
          [-78.674316, 44.043624, 305.0],
          [-78.67449, 44.043851, 305.0],
          [-78.674675, 44.044004, 305.0],
          [-78.674906, 44.044204, 305.0],
          [-78.675137, 44.044404, 305.0],
          [-78.675367, 44.044603, 305.0],
          [-78.675598, 44.044803, 305.0],
          [-78.675829, 44.045003, 320.0],
          [-78.67606, 44.045202, 314.0],
          [-78.676291, 44.045402, 314.0],
          [-78.676521, 44.045602, 314.0],
          [-78.676752, 44.045801, 316.0],
          [-78.67696, 44.046016, 320.0],
          [-78.677167, 44.04623, 320.0],
          [-78.677375, 44.046445, 320.0],
          [-78.677582, 44.04666, 326.0],
          [-78.677789, 44.046874, 326.0],
          [-78.677962, 44.047074, 326.0],
          [-78.678135, 44.047274, 326.0],
          [-78.678307, 44.047474, 326.0],
          [-78.67848, 44.047674, 325.0],
          [-78.678653, 44.047874, 325.0],
          [-78.678826, 44.048074, 325.0],
          [-78.678998, 44.048274, 325.0],
          [-78.679133, 44.04845, 323.0],
          [-78.679267, 44.048626, 330.0],
          [-78.67937, 44.048791, 330.0],
          [-78.679473, 44.048956, 330.0],
          [-78.679543, 44.04909, 330.0],
          [-78.679613, 44.049224, 329.0],
          [-78.679712, 44.049469, 329.0],
          [-78.679812, 44.049715, 329.0],
          [-78.679912, 44.049961, 329.0],
          [-78.680011, 44.050206, 329.0],
          [-78.680111, 44.050452, 329.0],
          [-78.68021, 44.050697, 329.0],
          [-78.68031, 44.050943, 327.0],
          [-78.680409, 44.051189, 327.0],
          [-78.680509, 44.051434, 327.0],
          [-78.680552, 44.051613, 327.0],
          [-78.680596, 44.051792, 327.0],
          [-78.68061, 44.052022, 327.0],
          [-78.680612, 44.052048, 327.0],
          [-78.680572, 44.052253, 327.0],
          [-78.680485, 44.05244, 327.0],
          [-78.68039, 44.052561, 329.0],
          [-78.680294, 44.052681, 329.0],
          [-78.680176, 44.052791, 329.0],
          [-78.680058, 44.052901, 329.0],
          [-78.679844, 44.053032, 332.0],
          [-78.679635, 44.053123, 332.0],
          [-78.679425, 44.053213, 332.0],
          [-78.679117, 44.053276, 334.0],
          [-78.678824, 44.053316, 334.0],
          [-78.678547, 44.053316, 334.0],
          [-78.678346, 44.053327, 337.0],
          [-78.678144, 44.053339, 336.0],
          [-78.677938, 44.053401, 336.0],
          [-78.677725, 44.053498, 336.0],
          [-78.677567, 44.053623, 336.0],
          [-78.677488, 44.053731, 333.0],
          [-78.677385, 44.053981, 333.0],
          [-78.677279, 44.054212, 335.0],
          [-78.677172, 44.054444, 335.0],
          [-78.677067, 44.054627, 335.0],
          [-78.676999, 44.05471, 335.0],
          [-78.676918, 44.054771, 335.0],
          [-78.676784, 44.054816, 335.0],
          [-78.676602, 44.054833, 338.0],
          [-78.676409, 44.054826, 338.0],
          [-78.676229, 44.054787, 338.0],
          [-78.676048, 44.054748, 338.0],
          [-78.675694, 44.054674, 340.0],
          [-78.675339, 44.054601, 340.0],
          [-78.674985, 44.054527, 342.0],
          [-78.674631, 44.054453, 342.0],
          [-78.674276, 44.05438, 342.0],
          [-78.673922, 44.054306, 343.0],
          [-78.673651, 44.054242, 343.0],
          [-78.67338, 44.054177, 343.0],
          [-78.673109, 44.054113, 335.0],
          [-78.672837, 44.054049, 335.0],
          [-78.672654, 44.053995, 335.0],
          [-78.672387, 44.053901, 335.0],
          [-78.672221, 44.053793, 335.0],
          [-78.672136, 44.053723, 335.0],
          [-78.671996, 44.053575, 335.0],
          [-78.671867, 44.053402, 335.0],
          [-78.671804, 44.053226, 326.0],
          [-78.671761, 44.053053, 326.0],
          [-78.671756, 44.052915, 326.0],
          [-78.67178, 44.052774, 326.0]
        ]
      }
    }
  ]
}
