{
  "type": "FeatureCollection",
  "features": [
    {
      "type": "Feature",
      "properties": {
        "Name": "Road America",
        "source": "tobi/track-atlas (OpenStreetMap contributors; ODbL 1.0)",
        "source_id": "road-america/gp",
        "revision": "c783def5a24df8ce8f034262e8228c262b854e0e",
        "upstream_path": "tracks/road-america/raw/layers/gp.geojson",
        "upstream_sha256": "67e38b10e2cacf4e0c921f8c772a0196ee1c8797d477419d30698568f803fc88",
        "line": [
          43.797732,
          -87.989624
        ],
        "direction": "clockwise",
        "heights": "Open-Meteo DEM (Copernicus GLO-90), metres above sea level",
        "retrieved": "2026-09-27"
      },
      "geometry": {
        "type": "LineString",
        "coordinates": [
          [-87.989624, 43.797732, 319.0],
          [-87.98962, 43.797569, 319.0],
          [-87.989615, 43.797383, 321.0],
          [-87.989609, 43.797197, 321.0],
          [-87.989601, 43.796933, 321.0],
          [-87.989592, 43.796668, 321.0],
          [-87.989584, 43.796403, 321.0],
          [-87.989576, 43.796138, 321.0],
          [-87.989567, 43.795873, 321.0],
          [-87.989559, 43.795608, 321.0],
          [-87.98955, 43.795343, 321.0],
          [-87.989542, 43.795078, 321.0],
          [-87.989533, 43.794814, 321.0],
          [-87.989525, 43.794549, 321.0],
          [-87.989517, 43.794284, 321.0],
          [-87.989508, 43.794019, 330.0],
          [-87.9895, 43.793754, 330.0],
          [-87.989495, 43.793511, 330.0],
          [-87.98949, 43.793267, 325.0],
          [-87.989485, 43.793024, 325.0],
          [-87.98948, 43.792785, 325.0],
          [-87.989475, 43.792547, 325.0],
          [-87.989479, 43.792476, 322.0],
          [-87.98949, 43.792399, 322.0],
          [-87.989514, 43.792327, 322.0],
          [-87.989555, 43.792249, 322.0],
          [-87.989592, 43.792195, 322.0],
          [-87.989638, 43.792138, 322.0],
          [-87.989685, 43.792093, 322.0],
          [-87.989725, 43.792055, 322.0],
          [-87.989823, 43.791985, 322.0],
          [-87.989933, 43.791931, 322.0],
          [-87.990026, 43.791893, 330.0],
          [-87.990187, 43.791846, 330.0],
          [-87.990489, 43.791799, 330.0],
          [-87.990814, 43.791755, 330.0],
          [-87.991139, 43.791711, 328.0],
          [-87.991464, 43.791667, 328.0],
          [-87.991788, 43.791623, 315.0],
          [-87.992113, 43.791579, 315.0],
          [-87.992438, 43.791535, 315.0],
          [-87.992763, 43.791491, 313.0],
          [-87.993088, 43.791447, 313.0],
          [-87.993313, 43.791429, 313.0],
          [-87.993662, 43.791415, 310.0],
          [-87.994011, 43.791402, 310.0],
          [-87.99436, 43.791388, 307.0],
          [-87.994635, 43.791384, 307.0],
          [-87.994851, 43.791385, 307.0],
          [-87.994939, 43.791394, 307.0],
          [-87.995037, 43.79141, 305.0],
          [-87.995132, 43.791433, 305.0],
          [-87.995208, 43.791462, 305.0],
          [-87.995263, 43.791493, 305.0],
          [-87.995362, 43.791562, 305.0],
          [-87.995441, 43.791639, 305.0],
          [-87.995479, 43.791693, 305.0],
          [-87.995501, 43.791739, 305.0],
          [-87.995533, 43.791839, 305.0],
          [-87.995543, 43.791945, 305.0],
          [-87.99552, 43.792152, 305.0],
          [-87.995498, 43.792359, 305.0],
          [-87.995475, 43.792566, 305.0],
          [-87.995452, 43.792774, 305.0],
          [-87.995405, 43.793012, 305.0],
          [-87.995357, 43.793251, 305.0],
          [-87.995309, 43.79349, 306.0],
          [-87.995262, 43.793729, 306.0],
          [-87.995214, 43.793968, 306.0],
          [-87.995166, 43.794207, 308.0],
          [-87.995119, 43.794446, 308.0],
          [-87.995074, 43.794628, 308.0],
          [-87.995029, 43.79481, 308.0],
          [-87.994984, 43.794992, 308.0],
          [-87.994934, 43.795153, 307.0],
          [-87.994885, 43.795313, 307.0],
          [-87.994824, 43.795489, 307.0],
          [-87.994763, 43.795665, 307.0],
          [-87.994707, 43.795823, 307.0],
          [-87.994642, 43.795974, 304.0],
          [-87.994576, 43.796124, 304.0],
          [-87.994479, 43.796353, 304.0],
          [-87.994381, 43.796582, 304.0],
          [-87.994284, 43.796811, 316.0],
          [-87.994187, 43.79704, 316.0],
          [-87.99409, 43.797269, 310.0],
          [-87.99397, 43.797496, 321.0],
          [-87.99385, 43.797722, 321.0],
          [-87.99373, 43.797949, 321.0],
          [-87.993611, 43.798175, 321.0],
          [-87.993491, 43.798402, 319.0],
          [-87.993371, 43.798628, 319.0],
          [-87.993251, 43.798855, 316.0],
          [-87.993176, 43.799012, 316.0],
          [-87.9931, 43.799169, 317.0],
          [-87.993031, 43.799349, 317.0],
          [-87.992961, 43.79953, 317.0],
          [-87.992879, 43.799773, 317.0],
          [-87.992798, 43.800017, 303.0],
          [-87.992735, 43.800231, 303.0],
          [-87.992672, 43.800446, 303.0],
          [-87.992622, 43.800656, 303.0],
          [-87.992572, 43.800866, 294.0],
          [-87.992521, 43.801077, 294.0],
          [-87.992484, 43.801269, 294.0],
          [-87.992446, 43.801462, 294.0],
          [-87.992425, 43.801592, 294.0],
          [-87.992424, 43.801658, 293.0],
          [-87.992448, 43.801708, 293.0],
          [-87.992483, 43.801774, 293.0],
          [-87.992529, 43.801815, 293.0],
          [-87.992648, 43.801856, 293.0],
          [-87.992743, 43.801869, 293.0],
          [-87.992841, 43.801878, 293.0],
          [-87.992989, 43.801874, 293.0],
          [-87.99336, 43.801863, 295.0],
          [-87.993731, 43.801851, 295.0],
          [-87.994102, 43.801839, 295.0],
          [-87.994473, 43.801828, 317.0],
          [-87.994843, 43.801816, 317.0],
          [-87.995214, 43.801805, 325.0],
          [-87.995585, 43.801793, 325.0],
          [-87.995725, 43.801789, 325.0],
          [-87.995859, 43.801777, 319.0],
          [-87.995977, 43.801743, 319.0],
          [-87.996068, 43.8017, 319.0],
          [-87.996146, 43.801625, 311.0],
          [-87.996191, 43.801561, 311.0],
          [-87.996215, 43.80152, 311.0],
          [-87.996224, 43.801475, 311.0],
          [-87.996221, 43.801355, 311.0],
          [-87.996201, 43.801115, 311.0],
          [-87.996181, 43.800875, 311.0],
          [-87.996161, 43.800635, 307.0],
          [-87.996141, 43.800395, 307.0],
          [-87.99612, 43.800155, 307.0],
          [-87.9961, 43.799915, 306.0],
          [-87.9961, 43.799849, 306.0],
          [-87.996106, 43.799776, 306.0],
          [-87.996122, 43.799706, 306.0],
          [-87.996149, 43.799625, 306.0],
          [-87.996186, 43.799547, 306.0],
          [-87.99624, 43.799478, 306.0],
          [-87.99632, 43.799396, 306.0],
          [-87.996438, 43.799315, 306.0],
          [-87.996722, 43.79915, 299.0],
          [-87.997006, 43.798985, 299.0],
          [-87.99729, 43.79882, 299.0],
          [-87.997574, 43.798655, 297.0],
          [-87.997858, 43.79849, 297.0],
          [-87.998142, 43.798325, 294.0],
          [-87.998426, 43.79816, 290.0],
          [-87.998709, 43.797995, 290.0],
          [-87.998993, 43.797829, 290.0],
          [-87.999277, 43.797664, 287.0],
          [-87.999561, 43.797499, 287.0],
          [-87.999845, 43.797334, 287.0],
          [-87.999909, 43.797271, 287.0],
          [-87.999962, 43.797213, 287.0],
          [-87.999989, 43.797166, 287.0],
          [-88.0, 43.79712, 287.0],
          [-88.000005, 43.797073, 287.0],
          [-87.999995, 43.79703, 287.0],
          [-87.999973, 43.79698, 287.0],
          [-87.99992, 43.79691, 287.0],
          [-87.999855, 43.796837, 287.0],
          [-87.999671, 43.796658, 287.0],
          [-87.999488, 43.796479, 287.0],
          [-87.999304, 43.7963, 287.0],
          [-87.99912, 43.796121, 288.0],
          [-87.998937, 43.795941, 288.0],
          [-87.998886, 43.795881, 288.0],
          [-87.998815, 43.795795, 288.0],
          [-87.998745, 43.795675, 288.0],
          [-87.998702, 43.795571, 288.0],
          [-87.998681, 43.795458, 288.0],
          [-87.99867, 43.795366, 288.0],
          [-87.998675, 43.795288, 288.0],
          [-87.998681, 43.795203, 288.0],
          [-87.998697, 43.795114, 288.0],
          [-87.998729, 43.795017, 288.0],
          [-87.998777, 43.794909, 286.0],
          [-87.998831, 43.794808, 286.0],
          [-87.998901, 43.794715, 286.0],
          [-87.99897, 43.79463, 286.0],
          [-87.999051, 43.794556, 286.0],
          [-87.999136, 43.794486, 286.0],
          [-87.999238, 43.794413, 285.0],
          [-87.999351, 43.794351, 285.0],
          [-87.99948, 43.794285, 285.0],
          [-87.9996, 43.794239, 285.0],
          [-87.999758, 43.794196, 285.0],
          [-87.999925, 43.794165, 285.0],
          [-88.000107, 43.79415, 284.0],
          [-88.000327, 43.794142, 284.0],
          [-88.00051, 43.79415, 284.0],
          [-88.000676, 43.794169, 284.0],
          [-88.000869, 43.794215, 278.0],
          [-88.001089, 43.794281, 278.0],
          [-88.00125, 43.794355, 278.0],
          [-88.001368, 43.794421, 278.0],
          [-88.001491, 43.794517, 278.0],
          [-88.001625, 43.794649, 278.0],
          [-88.001776, 43.794839, 277.0],
          [-88.001861, 43.795013, 276.0],
          [-88.001926, 43.795216, 276.0],
          [-88.001991, 43.795419, 276.0],
          [-88.002055, 43.795622, 276.0],
          [-88.002111, 43.795801, 276.0],
          [-88.002167, 43.795981, 273.0],
          [-88.002223, 43.79616, 273.0],
          [-88.002283, 43.796363, 273.0],
          [-88.002342, 43.796567, 273.0],
          [-88.002401, 43.79677, 271.0],
          [-88.00246, 43.796973, 271.0],
          [-88.002516, 43.79718, 272.0],
          [-88.002571, 43.797387, 272.0],
          [-88.002627, 43.797594, 273.0],
          [-88.002682, 43.797801, 273.0],
          [-88.002725, 43.797948, 273.0],
          [-88.002748, 43.798091, 273.0],
          [-88.002749, 43.798137, 273.0],
          [-88.002753, 43.798319, 273.0],
          [-88.002736, 43.798416, 274.0],
          [-88.00272, 43.798491, 274.0],
          [-88.002691, 43.798608, 274.0],
          [-88.002545, 43.7988, 274.0],
          [-88.002426, 43.798941, 273.0],
          [-88.002332, 43.799044, 273.0],
          [-88.002175, 43.799196, 271.0],
          [-88.002036, 43.799331, 271.0],
          [-88.001897, 43.799466, 271.0],
          [-88.001724, 43.799623, 271.0],
          [-88.00155, 43.799779, 277.0],
          [-88.001413, 43.799905, 277.0],
          [-88.001276, 43.80003, 271.0],
          [-88.001067, 43.800218, 271.0],
          [-88.000878, 43.800376, 271.0],
          [-88.000748, 43.800477, 274.0],
          [-88.000589, 43.800586, 274.0],
          [-88.000431, 43.800694, 274.0],
          [-88.00025, 43.800823, 274.0],
          [-88.000109, 43.800927, 273.0],
          [-87.999898, 43.801096, 272.0],
          [-87.999754, 43.801241, 272.0],
          [-87.999593, 43.801403, 272.0],
          [-87.999492, 43.801513, 272.0],
          [-87.999362, 43.801676, 277.0],
          [-87.999224, 43.801872, 277.0],
          [-87.999061, 43.802108, 276.0],
          [-87.998899, 43.802343, 276.0],
          [-87.998805, 43.802475, 276.0],
          [-87.998711, 43.802607, 271.0],
          [-87.99863, 43.802732, 271.0],
          [-87.998549, 43.802856, 271.0],
          [-87.998434, 43.80304, 271.0],
          [-87.998344, 43.803198, 271.0],
          [-87.99827, 43.803354, 273.0],
          [-87.998172, 43.803587, 273.0],
          [-87.998115, 43.80373, 273.0],
          [-87.998058, 43.803872, 273.0],
          [-87.99798, 43.804074, 273.0],
          [-87.997903, 43.804277, 274.0],
          [-87.997825, 43.804479, 274.0],
          [-87.997747, 43.804681, 274.0],
          [-87.997719, 43.804749, 274.0],
          [-87.997684, 43.804807, 274.0],
          [-87.997634, 43.80486, 274.0],
          [-87.997551, 43.804921, 274.0],
          [-87.997457, 43.804967, 274.0],
          [-87.997364, 43.804993, 276.0],
          [-87.997287, 43.805004, 276.0],
          [-87.997187, 43.805007, 276.0],
          [-87.997084, 43.804998, 276.0],
          [-87.996804, 43.804946, 274.0],
          [-87.996554, 43.804893, 281.0],
          [-87.996303, 43.80484, 281.0],
          [-87.996009, 43.80477, 281.0],
          [-87.995759, 43.804693, 291.0],
          [-87.995591, 43.804632, 291.0],
          [-87.995389, 43.804545, 291.0],
          [-87.99523, 43.804461, 291.0],
          [-87.995108, 43.804383, 291.0],
          [-87.994924, 43.804251, 292.0],
          [-87.994786, 43.80415, 296.0],
          [-87.994538, 43.803987, 296.0],
          [-87.994435, 43.803922, 296.0],
          [-87.994343, 43.803872, 296.0],
          [-87.99424, 43.803828, 296.0],
          [-87.994123, 43.80379, 289.0],
          [-87.994024, 43.803767, 289.0],
          [-87.993929, 43.803748, 289.0],
          [-87.993803, 43.803731, 289.0],
          [-87.993651, 43.80373, 289.0],
          [-87.993499, 43.803735, 289.0],
          [-87.993366, 43.803749, 289.0],
          [-87.993229, 43.803774, 292.0],
          [-87.992961, 43.803831, 292.0],
          [-87.992693, 43.803889, 292.0],
          [-87.992426, 43.803947, 292.0],
          [-87.992088, 43.804022, 292.0],
          [-87.991814, 43.80408, 292.0],
          [-87.991682, 43.804106, 292.0],
          [-87.991508, 43.804133, 292.0],
          [-87.991397, 43.804147, 292.0],
          [-87.991278, 43.804159, 292.0],
          [-87.991031, 43.804181, 291.0],
          [-87.990894, 43.80419, 291.0],
          [-87.990784, 43.804193, 291.0],
          [-87.990607, 43.804193, 291.0],
          [-87.990468, 43.804185, 291.0],
          [-87.990327, 43.804167, 291.0],
          [-87.99023, 43.804145, 291.0],
          [-87.990124, 43.804112, 291.0],
          [-87.990048, 43.804072, 291.0],
          [-87.989983, 43.804025, 293.0],
          [-87.989932, 43.803983, 293.0],
          [-87.989886, 43.803936, 293.0],
          [-87.98985, 43.803887, 293.0],
          [-87.989822, 43.803837, 293.0],
          [-87.989805, 43.803786, 293.0],
          [-87.989795, 43.803738, 293.0],
          [-87.989781, 43.803541, 293.0],
          [-87.989776, 43.803317, 292.0],
          [-87.98977, 43.803093, 292.0],
          [-87.989765, 43.80287, 292.0],
          [-87.98976, 43.802646, 292.0],
          [-87.989754, 43.802422, 294.0],
          [-87.989751, 43.802314, 294.0],
          [-87.989747, 43.802164, 294.0],
          [-87.989743, 43.802015, 294.0],
          [-87.989736, 43.801745, 294.0],
          [-87.989729, 43.801476, 297.0],
          [-87.989722, 43.801207, 297.0],
          [-87.989715, 43.800938, 297.0],
          [-87.989708, 43.800668, 307.0],
          [-87.9897, 43.800399, 307.0],
          [-87.989693, 43.800149, 307.0],
          [-87.989686, 43.799898, 314.0],
          [-87.989679, 43.799648, 314.0],
          [-87.989672, 43.799398, 314.0],
          [-87.989664, 43.799147, 316.0],
          [-87.989657, 43.798897, 316.0],
          [-87.98965, 43.798646, 316.0],
          [-87.989643, 43.798396, 316.0],
          [-87.989635, 43.798146, 319.0],
          [-87.989628, 43.797895, 319.0],
          [-87.989624, 43.797732, 319.0]
        ]
      }
    }
  ]
}
