{
  "type": "FeatureCollection",
  "features": [
    {
      "type": "Feature",
      "properties": {
        "Name": "Michelin Raceway Road Atlanta",
        "source": "tobi/track-atlas (OpenStreetMap contributors; ODbL 1.0)",
        "source_id": "road-atlanta/gp",
        "revision": "c783def5a24df8ce8f034262e8228c262b854e0e",
        "upstream_path": "tracks/road-atlanta/raw/layers/gp.geojson",
        "upstream_sha256": "a68615a90a124d037cfcffb6143a6242f1583fb3e4a116ca1eb82a2527d1514e",
        "line": [
          34.1500048,
          -83.8135175
        ],
        "direction": "clockwise",
        "heights": "Open-Meteo DEM (Copernicus GLO-90), metres above sea level",
        "retrieved": "2026-09-27"
      },
      "geometry": {
        "type": "LineString",
        "coordinates": [
          [-83.8135151, 34.1500035, 292.0],
          [-83.813371, 34.1499284, 282.0],
          [-83.8132269, 34.1498534, 281.0],
          [-83.8130828, 34.1497783, 281.0],
          [-83.8129387, 34.1497032, 281.0],
          [-83.812842, 34.1496533, 281.0],
          [-83.8127452, 34.1496034, 281.0],
          [-83.8126257, 34.1495412, 281.0],
          [-83.8125063, 34.149479, 281.0],
          [-83.8124139, 34.1494318, 283.0],
          [-83.8123039, 34.1493739, 283.0],
          [-83.812194, 34.1493161, 283.0],
          [-83.8120493, 34.1492407, 283.0],
          [-83.8119046, 34.1491652, 283.0],
          [-83.8117599, 34.1490898, 279.0],
          [-83.8116153, 34.1490144, 279.0],
          [-83.8114963, 34.1489515, 279.0],
          [-83.8113689, 34.1488829, 279.0],
          [-83.8112616, 34.1488217, 279.0],
          [-83.8111196, 34.1487389, 279.0],
          [-83.8110757, 34.1487124, 279.0],
          [-83.8110329, 34.1486848, 279.0],
          [-83.8109571, 34.1486337, 279.0],
          [-83.8108253, 34.1485398, 279.0],
          [-83.8107763, 34.1485043, 279.0],
          [-83.8106793, 34.1484321, 279.0],
          [-83.8106321, 34.1483949, 279.0],
          [-83.810555, 34.1483316, 279.0],
          [-83.8105144, 34.1483016, 276.0],
          [-83.8104831, 34.1482767, 276.0],
          [-83.8104307, 34.148231, 276.0],
          [-83.8104101, 34.1482102, 276.0],
          [-83.8103987, 34.1481948, 276.0],
          [-83.8103849, 34.1481703, 276.0],
          [-83.8103211, 34.1480265, 276.0],
          [-83.8103117, 34.1480006, 276.0],
          [-83.8103063, 34.1479832, 276.0],
          [-83.8102976, 34.1479478, 276.0],
          [-83.8102901, 34.1479123, 276.0],
          [-83.8102859, 34.1478855, 276.0],
          [-83.8102831, 34.1478586, 276.0],
          [-83.8102806, 34.1478226, 276.0],
          [-83.8102798, 34.1477955, 276.0],
          [-83.8102802, 34.1477775, 276.0],
          [-83.8102826, 34.1477505, 276.0],
          [-83.8102875, 34.1477147, 276.0],
          [-83.8102922, 34.1476879, 276.0],
          [-83.8103086, 34.1476171, 276.0],
          [-83.8103244, 34.1475646, 276.0],
          [-83.8103436, 34.147513, 276.0],
          [-83.8103822, 34.1474003, 278.0],
          [-83.8104023, 34.1473488, 278.0],
          [-83.8104139, 34.1473235, 278.0],
          [-83.8104236, 34.1473074, 278.0],
          [-83.8104947, 34.1472062, 278.0],
          [-83.8105049, 34.1471903, 278.0],
          [-83.8105134, 34.1471737, 278.0],
          [-83.8105322, 34.1471315, 278.0],
          [-83.8105493, 34.1470983, 278.0],
          [-83.8105732, 34.1470578, 278.0],
          [-83.8105987, 34.1470181, 278.0],
          [-83.8106845, 34.1468927, 278.0],
          [-83.8107524, 34.1468004, 278.0],
          [-83.8107951, 34.1467482, 278.0],
          [-83.8108209, 34.1467193, 278.0],
          [-83.8108417, 34.1466985, 289.0],
          [-83.8108711, 34.1466719, 289.0],
          [-83.8109015, 34.1466462, 294.0],
          [-83.8109724, 34.1465905, 294.0],
          [-83.8110687, 34.1465177, 294.0],
          [-83.811165, 34.146445, 294.0],
          [-83.8112747, 34.1463578, 294.0],
          [-83.8113844, 34.1462705, 294.0],
          [-83.8114539, 34.1462136, 294.0],
          [-83.811484, 34.1461876, 294.0],
          [-83.811599, 34.1460796, 294.0],
          [-83.8116337, 34.146045, 294.0],
          [-83.8117101, 34.1459574, 298.0],
          [-83.8117814, 34.1458669, 298.0],
          [-83.8117971, 34.1458432, 298.0],
          [-83.8118518, 34.1457551, 298.0],
          [-83.8118894, 34.1456901, 298.0],
          [-83.811911, 34.1456488, 298.0],
          [-83.8119475, 34.1455735, 298.0],
          [-83.8119588, 34.1455482, 298.0],
          [-83.8119785, 34.1454966, 298.0],
          [-83.8119863, 34.1454704, 298.0],
          [-83.8120077, 34.145382, 298.0],
          [-83.812029, 34.1452936, 298.0],
          [-83.8120466, 34.1452046, 298.0],
          [-83.812053, 34.1451781, 298.0],
          [-83.8120595, 34.1451609, 298.0],
          [-83.812068, 34.1451443, 298.0],
          [-83.8120791, 34.1451288, 298.0],
          [-83.8120918, 34.1451142, 298.0],
          [-83.8121545, 34.145052, 298.0],
          [-83.8121692, 34.1450388, 298.0],
          [-83.8121934, 34.1450207, 298.0],
          [-83.8122111, 34.1450104, 298.0],
          [-83.8122298, 34.1450012, 298.0],
          [-83.8122595, 34.1449902, 293.0],
          [-83.812352, 34.1449644, 293.0],
          [-83.812403, 34.1449491, 293.0],
          [-83.8124757, 34.144931, 293.0],
          [-83.8125371, 34.1449131, 292.0],
          [-83.812589, 34.1449, 292.0],
          [-83.8126196, 34.1448908, 292.0],
          [-83.8127591, 34.144841, 292.0],
          [-83.8127985, 34.1448259, 292.0],
          [-83.8128273, 34.1448134, 292.0],
          [-83.8128557, 34.1448002, 292.0],
          [-83.81292, 34.1447666, 292.0],
          [-83.8129469, 34.1447514, 292.0],
          [-83.8129732, 34.1447355, 292.0],
          [-83.8130329, 34.1446966, 292.0],
          [-83.8130904, 34.1446554, 292.0],
          [-83.8131542, 34.1446066, 292.0],
          [-83.8131845, 34.1445808, 292.0],
          [-83.8132268, 34.1445396, 292.0],
          [-83.8132743, 34.1444904, 292.0],
          [-83.8133056, 34.1444536, 292.0],
          [-83.8133283, 34.1444229, 292.0],
          [-83.8133775, 34.1443528, 293.0],
          [-83.8133927, 34.1443289, 293.0],
          [-83.8134066, 34.1443044, 293.0],
          [-83.813419, 34.1442794, 293.0],
          [-83.8134339, 34.1442456, 293.0],
          [-83.8134704, 34.1441512, 287.0],
          [-83.8134913, 34.1441, 287.0],
          [-83.8135031, 34.1440653, 287.0],
          [-83.8135297, 34.1439779, 287.0],
          [-83.8135642, 34.143855, 287.0],
          [-83.8135889, 34.1437764, 287.0],
          [-83.8135987, 34.1437507, 287.0],
          [-83.813625, 34.1436915, 287.0],
          [-83.8136386, 34.1436572, 287.0],
          [-83.8136909, 34.1435009, 287.0],
          [-83.8137328, 34.143389, 287.0],
          [-83.8137408, 34.1433628, 287.0],
          [-83.8137606, 34.1432833, 279.0],
          [-83.813768, 34.143257, 279.0],
          [-83.8137943, 34.1431789, 279.0],
          [-83.8138077, 34.1431446, 279.0],
          [-83.8138198, 34.1431195, 279.0],
          [-83.8138381, 34.1430867, 279.0],
          [-83.8138579, 34.1430547, 279.0],
          [-83.8138741, 34.1430312, 279.0],
          [-83.8138985, 34.1430014, 279.0],
          [-83.8139249, 34.1429728, 279.0],
          [-83.8139635, 34.1429293, 279.0],
          [-83.8139904, 34.142901, 279.0],
          [-83.8140186, 34.1428736, 279.0],
          [-83.8140481, 34.1428472, 279.0],
          [-83.8140789, 34.1428218, 279.0],
          [-83.8141192, 34.1427916, 279.0],
          [-83.8141607, 34.1427627, 279.0],
          [-83.8141867, 34.1427464, 287.0],
          [-83.8142136, 34.1427312, 287.0],
          [-83.8142593, 34.1427069, 287.0],
          [-83.8142877, 34.1426937, 287.0],
          [-83.8143073, 34.142686, 287.0],
          [-83.8144219, 34.1426452, 287.0],
          [-83.8145365, 34.1426044, 287.0],
          [-83.8146076, 34.1425821, 287.0],
          [-83.8146692, 34.1425649, 287.0],
          [-83.8147189, 34.1425467, 287.0],
          [-83.8147571, 34.1425297, 287.0],
          [-83.8147941, 34.1425109, 287.0],
          [-83.8148208, 34.1424954, 287.0],
          [-83.8148728, 34.142463, 276.0],
          [-83.8149263, 34.1424322, 276.0],
          [-83.8149777, 34.1423991, 276.0],
          [-83.8150182, 34.142369, 301.0],
          [-83.8151318, 34.1422723, 301.0],
          [-83.815169, 34.1422395, 301.0],
          [-83.8152118, 34.1421987, 301.0],
          [-83.8152658, 34.1421423, 301.0],
          [-83.8152919, 34.1421135, 301.0],
          [-83.8153871, 34.1420038, 301.0],
          [-83.8154138, 34.1419754, 301.0],
          [-83.8154281, 34.1419619, 301.0],
          [-83.8154511, 34.1419428, 301.0],
          [-83.8154754, 34.1419248, 301.0],
          [-83.8155005, 34.1419076, 301.0],
          [-83.8155689, 34.1418632, 301.0],
          [-83.8155954, 34.1418476, 301.0],
          [-83.8156316, 34.1418277, 301.0],
          [-83.8156685, 34.1418087, 301.0],
          [-83.8157712, 34.1417584, 301.0],
          [-83.8157996, 34.1417451, 301.0],
          [-83.8158284, 34.1417326, 301.0],
          [-83.8158579, 34.1417212, 305.0],
          [-83.8158978, 34.1417071, 305.0],
          [-83.8159282, 34.1416975, 305.0],
          [-83.815959, 34.1416888, 305.0],
          [-83.8160009, 34.1416793, 305.0],
          [-83.8160221, 34.1416757, 305.0],
          [-83.8160649, 34.1416698, 305.0],
          [-83.8160755, 34.1416679, 305.0],
          [-83.8160963, 34.1416627, 305.0],
          [-83.8161265, 34.1416527, 291.0],
          [-83.8161462, 34.1416451, 291.0],
          [-83.8161842, 34.1416277, 291.0],
          [-83.8162115, 34.141613, 291.0],
          [-83.8162377, 34.1415971, 291.0],
          [-83.8162712, 34.1415741, 291.0],
          [-83.8162947, 34.1415554, 291.0],
          [-83.8163092, 34.1415421, 291.0],
          [-83.8163293, 34.1415207, 291.0],
          [-83.8163609, 34.1414841, 291.0],
          [-83.8163782, 34.1414612, 291.0],
          [-83.8163882, 34.1414452, 291.0],
          [-83.8163972, 34.1414288, 291.0],
          [-83.8164169, 34.1413868, 291.0],
          [-83.8164237, 34.1413697, 291.0],
          [-83.8164294, 34.1413523, 291.0],
          [-83.816435, 34.1413257, 291.0],
          [-83.8164368, 34.1412987, 291.0],
          [-83.8164349, 34.1412536, 291.0],
          [-83.8164354, 34.1412356, 291.0],
          [-83.8164372, 34.1412176, 291.0],
          [-83.8164442, 34.1411729, 291.0],
          [-83.8164462, 34.1410738, 291.0],
          [-83.8164489, 34.1410468, 291.0],
          [-83.816455, 34.1410111, 291.0],
          [-83.816457, 34.1409932, 291.0],
          [-83.8164574, 34.1409751, 291.0],
          [-83.8164559, 34.1409301, 291.0],
          [-83.8164572, 34.1409121, 291.0],
          [-83.816463, 34.1408673, 291.0],
          [-83.8164653, 34.1408403, 291.0],
          [-83.8164659, 34.1408133, 293.0],
          [-83.8164632, 34.1407412, 293.0],
          [-83.8164644, 34.1407141, 293.0],
          [-83.8164692, 34.1406602, 293.0],
          [-83.8164722, 34.1406333, 293.0],
          [-83.8164772, 34.1406065, 293.0],
          [-83.8164819, 34.1405889, 293.0],
          [-83.8164962, 34.1405455, 293.0],
          [-83.8165049, 34.1405101, 293.0],
          [-83.8165092, 34.1404833, 293.0],
          [-83.8165173, 34.1404115, 293.0],
          [-83.816519, 34.1403755, 293.0],
          [-83.816519, 34.1403034, 293.0],
          [-83.8165161, 34.1402764, 293.0],
          [-83.8165088, 34.1402409, 293.0],
          [-83.8165059, 34.140223, 293.0],
          [-83.816502, 34.1401871, 293.0],
          [-83.816501, 34.140151, 293.0],
          [-83.8165028, 34.1400609, 293.0],
          [-83.8165066, 34.1400159, 293.0],
          [-83.8165215, 34.1398994, 297.0],
          [-83.8165274, 34.1398455, 297.0],
          [-83.8165343, 34.1397556, 297.0],
          [-83.8165396, 34.1396655, 297.0],
          [-83.8165494, 34.1395486, 297.0],
          [-83.8165592, 34.1394317, 297.0],
          [-83.8165624, 34.1393777, 297.0],
          [-83.8165668, 34.1392605, 297.0],
          [-83.8165752, 34.1391616, 297.0],
          [-83.8165798, 34.1390896, 295.0],
          [-83.8165864, 34.1390086, 295.0],
          [-83.8165888, 34.1389636, 295.0],
          [-83.8165912, 34.1388915, 295.0],
          [-83.816594, 34.1387653, 295.0],
          [-83.8165916, 34.1386481, 295.0],
          [-83.8165892, 34.138531, 295.0],
          [-83.8165858, 34.1384409, 295.0],
          [-83.8165793, 34.1383057, 289.0],
          [-83.8165727, 34.1381706, 289.0],
          [-83.8165662, 34.1380355, 289.0],
          [-83.816556, 34.1378734, 289.0],
          [-83.8165459, 34.1377114, 289.0],
          [-83.8165423, 34.1376393, 289.0],
          [-83.8165344, 34.1375223, 289.0],
          [-83.8165247, 34.1374235, 288.0],
          [-83.8165221, 34.1373875, 288.0],
          [-83.8165212, 34.1373514, 288.0],
          [-83.816524, 34.1373064, 288.0],
          [-83.8165243, 34.1372884, 288.0],
          [-83.8165211, 34.1372253, 288.0],
          [-83.8165186, 34.1371984, 288.0],
          [-83.8165066, 34.1371088, 288.0],
          [-83.8165025, 34.1370638, 288.0],
          [-83.8164943, 34.1370011, 288.0],
          [-83.8164847, 34.1368661, 288.0],
          [-83.8164794, 34.1367761, 288.0],
          [-83.8164793, 34.13674, 288.0],
          [-83.816483, 34.1367041, 288.0],
          [-83.8164936, 34.1366507, 286.0],
          [-83.8165005, 34.1366243, 286.0],
          [-83.816506, 34.1366068, 286.0],
          [-83.8165161, 34.1365811, 286.0],
          [-83.8165284, 34.1365561, 286.0],
          [-83.8165475, 34.1365237, 286.0],
          [-83.8165738, 34.1364843, 286.0],
          [-83.8165971, 34.1364539, 286.0],
          [-83.8166223, 34.1364245, 286.0],
          [-83.8166492, 34.1363962, 286.0],
          [-83.8166783, 34.1363695, 288.0],
          [-83.8167018, 34.1363508, 288.0],
          [-83.816735, 34.1363276, 288.0],
          [-83.81677, 34.1363063, 288.0],
          [-83.8167974, 34.1362917, 288.0],
          [-83.816826, 34.1362788, 288.0],
          [-83.8168653, 34.1362635, 288.0],
          [-83.8169055, 34.1362501, 288.0],
          [-83.8169363, 34.1362414, 288.0],
          [-83.816978, 34.1362316, 288.0],
          [-83.8170205, 34.1362243, 288.0],
          [-83.8170958, 34.1362162, 288.0],
          [-83.8171494, 34.1362097, 288.0],
          [-83.8171925, 34.1362056, 288.0],
          [-83.8173979, 34.1361921, 288.0],
          [-83.8174953, 34.1361873, 288.0],
          [-83.8175816, 34.1361803, 290.0],
          [-83.817679, 34.1361749, 290.0],
          [-83.8178087, 34.1361658, 290.0],
          [-83.8178844, 34.1361617, 290.0],
          [-83.8179384, 34.1361576, 290.0],
          [-83.8180033, 34.1361541, 290.0],
          [-83.8180681, 34.1361494, 290.0],
          [-83.8181006, 34.136148, 290.0],
          [-83.8181331, 34.136149, 290.0],
          [-83.8181546, 34.1361512, 290.0],
          [-83.8181868, 34.1361554, 290.0],
          [-83.8182291, 34.136163, 290.0],
          [-83.8182497, 34.1361687, 290.0],
          [-83.8182696, 34.1361759, 290.0],
          [-83.8182887, 34.1361845, 290.0],
          [-83.8182977, 34.1361894, 290.0],
          [-83.8183148, 34.1362005, 290.0],
          [-83.8183228, 34.1362067, 290.0],
          [-83.8183371, 34.1362202, 290.0],
          [-83.8183497, 34.1362348, 294.0],
          [-83.8183611, 34.1362502, 294.0],
          [-83.8183765, 34.136274, 294.0],
          [-83.8183854, 34.1362905, 294.0],
          [-83.8183925, 34.1363075, 294.0],
          [-83.8183976, 34.136325, 294.0],
          [-83.8184008, 34.1363429, 294.0],
          [-83.8184021, 34.1363609, 294.0],
          [-83.8184019, 34.1363789, 294.0],
          [-83.8183977, 34.1364238, 294.0],
          [-83.8183809, 34.1365493, 294.0],
          [-83.818364, 34.1366747, 299.0],
          [-83.8183451, 34.1367726, 299.0],
          [-83.8183418, 34.1368357, 299.0],
          [-83.8183325, 34.1369074, 294.0],
          [-83.8183259, 34.1369793, 294.0],
          [-83.8183104, 34.137073, 294.0],
          [-83.8182948, 34.1371668, 294.0],
          [-83.818272, 34.1372825, 294.0],
          [-83.8182491, 34.1373981, 294.0],
          [-83.8182196, 34.1375311, 298.0],
          [-83.8181914, 34.1376505, 298.0],
          [-83.8181631, 34.1377699, 298.0],
          [-83.818144, 34.1378587, 298.0],
          [-83.8181291, 34.1379389, 298.0],
          [-83.8181063, 34.1380727, 298.0],
          [-83.8180969, 34.1381354, 298.0],
          [-83.8180876, 34.1382071, 298.0],
          [-83.8180783, 34.138324, 298.0],
          [-83.8180714, 34.1384411, 301.0],
          [-83.8180674, 34.1385492, 301.0],
          [-83.8180658, 34.1386664, 301.0],
          [-83.8180669, 34.1387836, 301.0],
          [-83.8180703, 34.1389007, 301.0],
          [-83.8180729, 34.1389548, 301.0],
          [-83.8180791, 34.1390538, 301.0],
          [-83.8180854, 34.1391529, 301.0],
          [-83.8180944, 34.1392517, 300.0],
          [-83.8181075, 34.1393639, 300.0],
          [-83.8181206, 34.1394761, 300.0],
          [-83.8181318, 34.1395657, 300.0],
          [-83.8181546, 34.1397269, 300.0],
          [-83.8181774, 34.1398881, 300.0],
          [-83.8181956, 34.1400088, 299.0],
          [-83.8182139, 34.1401296, 299.0],
          [-83.8182288, 34.1402189, 299.0],
          [-83.8182448, 34.1403262, 299.0],
          [-83.8182608, 34.1404336, 299.0],
          [-83.8182811, 34.1405587, 299.0],
          [-83.8183009, 34.1406929, 299.0],
          [-83.8183175, 34.1407956, 299.0],
          [-83.8183342, 34.1408984, 300.0],
          [-83.8183456, 34.140979, 309.0],
          [-83.8183738, 34.1411486, 309.0],
          [-83.8183961, 34.1413098, 309.0],
          [-83.8184071, 34.1413723, 309.0],
          [-83.8184237, 34.141475, 309.0],
          [-83.8184404, 34.1415778, 309.0],
          [-83.8184643, 34.1417297, 311.0],
          [-83.818476, 34.1418103, 311.0],
          [-83.8185012, 34.1419667, 311.0],
          [-83.8185263, 34.142123, 311.0],
          [-83.818552, 34.142293, 311.0],
          [-83.8185762, 34.1424449, 311.0],
          [-83.8186005, 34.1425968, 312.0],
          [-83.8186247, 34.1427488, 312.0],
          [-83.8186508, 34.1429187, 312.0],
          [-83.8186719, 34.1430437, 312.0],
          [-83.8186897, 34.1431234, 312.0],
          [-83.8186944, 34.1431502, 312.0],
          [-83.8186957, 34.1431682, 312.0],
          [-83.8186948, 34.1431862, 312.0],
          [-83.8186791, 34.1432936, 312.0],
          [-83.8186767, 34.1433206, 312.0],
          [-83.8186773, 34.1433386, 314.0],
          [-83.8186804, 34.1433564, 314.0],
          [-83.8186888, 34.1433918, 314.0],
          [-83.8187061, 34.1434899, 314.0],
          [-83.8187225, 34.1435607, 314.0],
          [-83.8187407, 34.1436496, 314.0],
          [-83.8187589, 34.1437385, 314.0],
          [-83.8187823, 34.1438449, 314.0],
          [-83.8187973, 34.1439159, 314.0],
          [-83.8188003, 34.1439338, 314.0],
          [-83.8188033, 34.1439607, 314.0],
          [-83.8188105, 34.1440507, 314.0],
          [-83.8188177, 34.1441768, 311.0],
          [-83.8188215, 34.1442759, 311.0],
          [-83.8188225, 34.144348, 311.0],
          [-83.8188219, 34.1444291, 311.0],
          [-83.818819, 34.1445463, 311.0],
          [-83.8188149, 34.1446274, 311.0],
          [-83.8188071, 34.1447173, 311.0],
          [-83.8187993, 34.1448072, 311.0],
          [-83.8187889, 34.1448969, 311.0],
          [-83.8187719, 34.1450224, 308.0],
          [-83.8187609, 34.1450939, 308.0],
          [-83.8187435, 34.145192, 308.0],
          [-83.8187218, 34.1452895, 308.0],
          [-83.8187001, 34.145387, 308.0],
          [-83.818669, 34.1455197, 308.0],
          [-83.818651, 34.1455903, 308.0],
          [-83.8186262, 34.1456781, 308.0],
          [-83.8185961, 34.145774, 308.0],
          [-83.8185664, 34.1458607, 311.0],
          [-83.8185136, 34.1460076, 311.0],
          [-83.8184842, 34.1460943, 311.0],
          [-83.8184309, 34.1462598, 311.0],
          [-83.8183821, 34.1464076, 311.0],
          [-83.8183334, 34.1465554, 306.0],
          [-83.8182847, 34.1467032, 298.0],
          [-83.818236, 34.146851, 298.0],
          [-83.8181873, 34.1469988, 298.0],
          [-83.8181579, 34.1470856, 298.0],
          [-83.8181165, 34.1472164, 298.0],
          [-83.818081, 34.1473205, 298.0],
          [-83.8180456, 34.1474246, 298.0],
          [-83.8179913, 34.1475804, 296.0],
          [-83.817946, 34.1477009, 296.0],
          [-83.8178883, 34.1478653, 296.0],
          [-83.8178671, 34.1479352, 296.0],
          [-83.8178497, 34.1479874, 296.0],
          [-83.81784, 34.1480225, 296.0],
          [-83.8178253, 34.1480844, 296.0],
          [-83.8178095, 34.1481369, 296.0],
          [-83.8177888, 34.1481976, 296.0],
          [-83.8177831, 34.1482242, 296.0],
          [-83.8177822, 34.1482423, 296.0],
          [-83.8177843, 34.1482602, 296.0],
          [-83.8177865, 34.148269, 296.0],
          [-83.8177931, 34.1482862, 296.0],
          [-83.8178061, 34.148311, 296.0],
          [-83.8178158, 34.1483271, 304.0],
          [-83.8178273, 34.1483424, 304.0],
          [-83.8178411, 34.1483563, 304.0],
          [-83.8178723, 34.1483814, 304.0],
          [-83.8179213, 34.1484169, 304.0],
          [-83.8180241, 34.1484832, 304.0],
          [-83.8180936, 34.1485264, 304.0],
          [-83.8181188, 34.1485435, 304.0],
          [-83.8181423, 34.1485622, 304.0],
          [-83.8181874, 34.1486012, 304.0],
          [-83.8182086, 34.1486217, 304.0],
          [-83.8182275, 34.1486437, 304.0],
          [-83.8182437, 34.1486672, 304.0],
          [-83.8182531, 34.1486834, 304.0],
          [-83.8182613, 34.1487001, 304.0],
          [-83.8182717, 34.1487257, 304.0],
          [-83.818282, 34.1487608, 304.0],
          [-83.818289, 34.1487963, 304.0],
          [-83.8182912, 34.1488143, 304.0],
          [-83.818292, 34.1488323, 304.0],
          [-83.8182897, 34.1488593, 304.0],
          [-83.8182832, 34.1488858, 304.0],
          [-83.8182769, 34.148903, 304.0],
          [-83.8182652, 34.1489283, 304.0],
          [-83.8182331, 34.1489854, 304.0],
          [-83.8182028, 34.1490433, 304.0],
          [-83.8181934, 34.1490596, 304.0],
          [-83.8181563, 34.1491146, 304.0],
          [-83.8180777, 34.1492381, 315.0],
          [-83.8179991, 34.1493616, 315.0],
          [-83.8179556, 34.149424, 315.0],
          [-83.8179055, 34.149504, 315.0],
          [-83.8178187, 34.1496493, 315.0],
          [-83.8177542, 34.1497636, 315.0],
          [-83.8177396, 34.1497877, 315.0],
          [-83.8177237, 34.1498113, 315.0],
          [-83.8176847, 34.1498655, 315.0],
          [-83.8176264, 34.1499415, 315.0],
          [-83.817601, 34.1499707, 315.0],
          [-83.8175742, 34.149999, 326.0],
          [-83.8175599, 34.1500126, 326.0],
          [-83.8175443, 34.1500251, 326.0],
          [-83.8175186, 34.1500417, 326.0],
          [-83.8174822, 34.1500614, 308.0],
          [-83.8174442, 34.1500787, 308.0],
          [-83.8173853, 34.1501017, 308.0],
          [-83.8173664, 34.1501105, 308.0],
          [-83.8173029, 34.1501451, 308.0],
          [-83.817247, 34.1501727, 308.0],
          [-83.817174, 34.1502117, 308.0],
          [-83.8171368, 34.1502303, 308.0],
          [-83.81707, 34.1502602, 308.0],
          [-83.8170227, 34.1502823, 308.0],
          [-83.8169651, 34.1503074, 308.0],
          [-83.8168778, 34.1503436, 308.0],
          [-83.8167698, 34.1503857, 308.0],
          [-83.8167511, 34.1503948, 308.0],
          [-83.8166603, 34.1504441, 292.0],
          [-83.816577, 34.1504864, 292.0],
          [-83.8165581, 34.1504952, 292.0],
          [-83.8165, 34.1505196, 292.0],
          [-83.8163947, 34.1505661, 292.0],
          [-83.816346, 34.150586, 292.0],
          [-83.8162469, 34.1506225, 292.0],
          [-83.8161372, 34.1506614, 292.0],
          [-83.8160275, 34.1507003, 292.0],
          [-83.815906, 34.1507391, 292.0],
          [-83.8158346, 34.1507606, 286.0],
          [-83.8157933, 34.1507716, 286.0],
          [-83.8157619, 34.1507785, 286.0],
          [-83.8157301, 34.1507843, 286.0],
          [-83.8156981, 34.150789, 286.0],
          [-83.8156551, 34.1507938, 286.0],
          [-83.8156119, 34.1507973, 286.0],
          [-83.8155687, 34.1507996, 286.0],
          [-83.8155037, 34.1508023, 286.0],
          [-83.8154603, 34.1508029, 286.0],
          [-83.8153519, 34.1508004, 286.0],
          [-83.8152652, 34.1508002, 286.0],
          [-83.8152219, 34.1507977, 286.0],
          [-83.8151897, 34.1507938, 286.0],
          [-83.8151579, 34.1507883, 286.0],
          [-83.815084, 34.1507738, 286.0],
          [-83.8150531, 34.1507653, 286.0],
          [-83.8149441, 34.1507251, 286.0],
          [-83.8148666, 34.1506927, 286.0],
          [-83.8147611, 34.1506465, 286.0],
          [-83.8146388, 34.1505882, 286.0],
          [-83.8144728, 34.1505029, 286.0],
          [-83.8143813, 34.1504545, 286.0],
          [-83.8142701, 34.1503984, 286.0],
          [-83.8141876, 34.1503551, 286.0],
          [-83.8140857, 34.1503035, 292.0],
          [-83.8140034, 34.1502599, 292.0],
          [-83.8138834, 34.1501984, 292.0],
          [-83.8137833, 34.1501445, 292.0],
          [-83.8136492, 34.150074, 292.0],
          [-83.8135151, 34.1500035, 292.0]
        ]
      }
    }
  ]
}
