{
  "type": "FeatureCollection",
  "features": [
    {
      "type": "Feature",
      "properties": {
        "Name": "Sebring International Raceway",
        "source": "tobi/track-atlas (OpenStreetMap contributors; ODbL 1.0)",
        "source_id": "sebring/wec",
        "revision": "c783def5a24df8ce8f034262e8228c262b854e0e",
        "upstream_path": "tracks/sebring/raw/layers/wec.geojson",
        "upstream_sha256": "a0c58ebf4be5be5da09547275a8a14bd170a391f53bc234195947afe0464cac6",
        "line": [
          27.4502322,
          -81.3535293
        ],
        "direction": "clockwise",
        "heights": "Open-Meteo DEM (Copernicus GLO-90), metres above sea level",
        "retrieved": "2026-09-27"
      },
      "geometry": {
        "type": "LineString",
        "coordinates": [
          [-81.353528, 27.4502322, 19.0],
          [-81.3533531, 27.4502327, 19.0],
          [-81.3531782, 27.4502332, 19.0],
          [-81.3530032, 27.4502337, 19.0],
          [-81.3528212, 27.4502348, 19.0],
          [-81.35272, 27.4502349, 19.0],
          [-81.3526188, 27.4502349, 19.0],
          [-81.352457, 27.4502367, 19.0],
          [-81.3523187, 27.4502367, 19.0],
          [-81.3521805, 27.4502368, 19.0],
          [-81.3520422, 27.4502368, 19.0],
          [-81.3518439, 27.4502374, 19.0],
          [-81.3516456, 27.4502379, 19.0],
          [-81.3514474, 27.4502385, 19.0],
          [-81.3512491, 27.450239, 19.0],
          [-81.3510508, 27.4502396, 19.0],
          [-81.3510103, 27.4502407, 19.0],
          [-81.3509195, 27.4502457, 19.0],
          [-81.3508391, 27.4502543, 19.0],
          [-81.3507987, 27.450256, 19.0],
          [-81.3506925, 27.4502566, 19.0],
          [-81.3505862, 27.4502571, 19.0],
          [-81.350475, 27.450259, 19.0],
          [-81.3503435, 27.4502576, 19.0],
          [-81.3502221, 27.4502597, 19.0],
          [-81.3501412, 27.450259, 19.0],
          [-81.3500198, 27.4502595, 19.0],
          [-81.3499287, 27.4502587, 19.0],
          [-81.3498377, 27.4502591, 19.0],
          [-81.3497163, 27.450256, 19.0],
          [-81.3496455, 27.4502552, 19.0],
          [-81.3495747, 27.4502565, 19.0],
          [-81.3494838, 27.4502614, 19.0],
          [-81.3494335, 27.4502659, 19.0],
          [-81.3493936, 27.4502717, 19.0],
          [-81.3493341, 27.4502825, 19.0],
          [-81.3492851, 27.4502938, 19.0],
          [-81.3492465, 27.4503045, 19.0],
          [-81.3492085, 27.450317, 19.0],
          [-81.3491524, 27.4503376, 19.0],
          [-81.3491063, 27.4503561, 19.0],
          [-81.3490701, 27.4503723, 19.0],
          [-81.3490259, 27.4503943, 19.0],
          [-81.3489915, 27.4504132, 19.0],
          [-81.3489496, 27.4504385, 19.0],
          [-81.3489095, 27.450466, 19.0],
          [-81.348871, 27.4504953, 19.0],
          [-81.3488414, 27.4505199, 19.0],
          [-81.3488059, 27.4505521, 19.0],
          [-81.3487658, 27.4505927, 19.0],
          [-81.348747, 27.4506139, 19.0],
          [-81.3487291, 27.4506358, 19.0],
          [-81.3487125, 27.4506584, 19.0],
          [-81.348702, 27.4506739, 19.0],
          [-81.3486971, 27.4506817, 19.0],
          [-81.3486784, 27.4507138, 19.0],
          [-81.3486741, 27.4507219, 19.0],
          [-81.3486618, 27.4507467, 19.0],
          [-81.3486467, 27.4507802, 19.0],
          [-81.3486128, 27.4508652, 19.0],
          [-81.3485969, 27.450908, 19.0],
          [-81.3485881, 27.450934, 19.0],
          [-81.3485776, 27.4509688, 19.0],
          [-81.3485684, 27.451004, 19.0],
          [-81.3485568, 27.4510571, 19.0],
          [-81.3485527, 27.4510839, 19.0],
          [-81.3485495, 27.451129, 19.0],
          [-81.3485486, 27.4511921, 19.0],
          [-81.3485501, 27.4512282, 19.0],
          [-81.3485536, 27.4512642, 19.0],
          [-81.3485607, 27.4513179, 19.0],
          [-81.3485719, 27.4513895, 19.0],
          [-81.3485764, 27.4514253, 19.0],
          [-81.3485782, 27.4514524, 19.0],
          [-81.348578, 27.4514704, 19.0],
          [-81.3485746, 27.4514973, 19.0],
          [-81.3485589, 27.4515681, 19.0],
          [-81.348543, 27.4516481, 19.0],
          [-81.3485388, 27.4516749, 19.0],
          [-81.3485379, 27.4516929, 19.0],
          [-81.3485391, 27.4517109, 19.0],
          [-81.3485436, 27.4517377, 19.0],
          [-81.3485455, 27.4517466, 19.0],
          [-81.3485653, 27.4518351, 19.0],
          [-81.3485887, 27.4519459, 19.0],
          [-81.348612, 27.4520568, 19.0],
          [-81.3486405, 27.4521713, 19.0],
          [-81.3486424, 27.4521802, 19.0],
          [-81.3486682, 27.4523044, 19.0],
          [-81.348694, 27.4524287, 19.0],
          [-81.3487151, 27.4525261, 19.0],
          [-81.3487276, 27.4525883, 19.0],
          [-81.3487346, 27.4526147, 19.0],
          [-81.3487716, 27.4527178, 19.0],
          [-81.3487775, 27.4527351, 19.0],
          [-81.3487822, 27.4527526, 19.0],
          [-81.3487854, 27.4527704, 19.0],
          [-81.3487866, 27.4527794, 19.0],
          [-81.348796, 27.4528511, 19.0],
          [-81.3487984, 27.4528781, 19.0],
          [-81.3488008, 27.4529232, 19.0],
          [-81.3488046, 27.4529591, 19.0],
          [-81.3488106, 27.4529948, 19.0],
          [-81.3488233, 27.4530478, 19.0],
          [-81.3488305, 27.4530833, 19.0],
          [-81.3488348, 27.4531101, 19.0],
          [-81.3488396, 27.453155, 19.0],
          [-81.3488475, 27.4531996, 19.0],
          [-81.3488514, 27.4532264, 19.0],
          [-81.3488556, 27.4532623, 19.0],
          [-81.3488588, 27.4532983, 19.0],
          [-81.3488631, 27.4533975, 20.0],
          [-81.3488633, 27.4535509, 20.0],
          [-81.3488636, 27.4537043, 20.0],
          [-81.3488638, 27.4538578, 20.0],
          [-81.3488635, 27.4539706, 20.0],
          [-81.3488632, 27.4540834, 20.0],
          [-81.3488701, 27.4542186, 20.0],
          [-81.3488731, 27.4542456, 20.0],
          [-81.3488748, 27.4542545, 20.0],
          [-81.34888, 27.4542719, 20.0],
          [-81.3488969, 27.4543144, 20.0],
          [-81.3489125, 27.4543477, 20.0],
          [-81.3489305, 27.45438, 20.0],
          [-81.3489508, 27.4544112, 20.0],
          [-81.3489681, 27.4544335, 20.0],
          [-81.3489874, 27.4544544, 20.0],
          [-81.3490086, 27.4544737, 20.0],
          [-81.3490314, 27.4544916, 20.0],
          [-81.3490554, 27.4545082, 20.0],
          [-81.3490805, 27.4545235, 20.0],
          [-81.3491147, 27.4545427, 20.0],
          [-81.3491413, 27.4545558, 20.0],
          [-81.3491595, 27.4545635, 20.0],
          [-81.3491783, 27.4545703, 20.0],
          [-81.3491975, 27.4545758, 20.0],
          [-81.3492174, 27.4545791, 20.0],
          [-81.3492477, 27.4545809, 20.0],
          [-81.3493286, 27.4545802, 20.0],
          [-81.3494095, 27.4545803, 20.0],
          [-81.3494803, 27.454579, 20.0],
          [-81.3495916, 27.4545816, 20.0],
          [-81.3496117, 27.4545836, 20.0],
          [-81.3496315, 27.4545874, 20.0],
          [-81.3496508, 27.4545925, 20.0],
          [-81.3496793, 27.4546019, 20.0],
          [-81.3497072, 27.4546127, 20.0],
          [-81.3497982, 27.454652, 20.0],
          [-81.3498338, 27.4546691, 20.0],
          [-81.3498596, 27.4546834, 20.0],
          [-81.3499179, 27.4547192, 20.0],
          [-81.3500144, 27.4547849, 20.0],
          [-81.3500936, 27.4548411, 20.0],
          [-81.3501504, 27.4548788, 20.0],
          [-81.350184, 27.454899, 20.0],
          [-81.3502191, 27.4549168, 20.0],
          [-81.3503095, 27.4549574, 20.0],
          [-81.3503467, 27.4549715, 20.0],
          [-81.350385, 27.4549833, 20.0],
          [-81.3504336, 27.4549959, 20.0],
          [-81.3504532, 27.455, 20.0],
          [-81.3504831, 27.455005, 20.0],
          [-81.3505131, 27.455009, 20.0],
          [-81.3505433, 27.455012, 20.0],
          [-81.3505634, 27.4550131, 20.0],
          [-81.3505938, 27.4550134, 20.0],
          [-81.3506342, 27.4550114, 20.0],
          [-81.3506742, 27.4550061, 20.0],
          [-81.3507531, 27.4549901, 20.0],
          [-81.3507823, 27.4549826, 20.0],
          [-81.3508013, 27.4549766, 20.0],
          [-81.3508198, 27.4549691, 20.0],
          [-81.3508287, 27.4549648, 20.0],
          [-81.3508538, 27.4549497, 20.0],
          [-81.3508927, 27.4549208, 20.0],
          [-81.3509302, 27.4548905, 20.0],
          [-81.350951, 27.4548708, 20.0],
          [-81.3509701, 27.4548498, 20.0],
          [-81.3509935, 27.4548204, 20.0],
          [-81.3510154, 27.45479, 20.0],
          [-81.3510306, 27.4547666, 20.0],
          [-81.3510438, 27.4547422, 20.0],
          [-81.3511079, 27.4546096, 20.0],
          [-81.3511721, 27.454477, 20.0],
          [-81.35121, 27.4544032, 20.0],
          [-81.3512451, 27.4543381, 20.0],
          [-81.3512658, 27.454297, 20.0],
          [-81.351279, 27.4542726, 20.0],
          [-81.3513524, 27.4541541, 20.0],
          [-81.3513779, 27.4541152, 20.0],
          [-81.3514266, 27.4540465, 20.0],
          [-81.3514608, 27.4540017, 20.0],
          [-81.35149, 27.4539649, 20.0],
          [-81.3515512, 27.4538931, 20.0],
          [-81.3516398, 27.4537945, 20.0],
          [-81.3516912, 27.4537387, 20.0],
          [-81.3517776, 27.4536503, 20.0],
          [-81.3518455, 27.4535834, 20.0],
          [-81.3518873, 27.4535441, 20.0],
          [-81.3519444, 27.4534929, 20.0],
          [-81.3520176, 27.4534306, 20.0],
          [-81.3520633, 27.4533951, 20.0],
          [-81.3521492, 27.4533319, 20.0],
          [-81.3522135, 27.4532881, 20.0],
          [-81.3523689, 27.4531871, 20.0],
          [-81.3524697, 27.4531268, 20.0],
          [-81.3525125, 27.4531027, 19.0],
          [-81.3525559, 27.4530795, 19.0],
          [-81.3526793, 27.4530176, 19.0],
          [-81.3527869, 27.4529675, 19.0],
          [-81.3528508, 27.4529403, 19.0],
          [-81.3529519, 27.4528988, 19.0],
          [-81.353064, 27.452857, 19.0],
          [-81.3531207, 27.4528378, 19.0],
          [-81.3531874, 27.4528167, 19.0],
          [-81.3533608, 27.4527669, 19.0],
          [-81.3534481, 27.4527438, 19.0],
          [-81.3535462, 27.452722, 19.0],
          [-81.3536155, 27.4527087, 19.0],
          [-81.3537245, 27.4526891, 19.0],
          [-81.3537843, 27.4526798, 19.0],
          [-81.3539045, 27.4526643, 19.0],
          [-81.3540857, 27.4526483, 19.0],
          [-81.3541261, 27.4526458, 19.0],
          [-81.3542979, 27.4526388, 19.0],
          [-81.3544445, 27.4526368, 19.0],
          [-81.3545912, 27.4526347, 19.0],
          [-81.3547126, 27.4526354, 19.0],
          [-81.354834, 27.4526361, 19.0],
          [-81.3548947, 27.4526377, 19.0],
          [-81.3550059, 27.452642, 19.0],
          [-81.3550767, 27.4526433, 19.0],
          [-81.3552115, 27.4526431, 19.0],
          [-81.3553464, 27.4526428, 19.0],
          [-81.3554813, 27.4526426, 19.0],
          [-81.3555977, 27.452642, 19.0],
          [-81.355714, 27.4526413, 19.0],
          [-81.3558657, 27.45264, 18.0],
          [-81.3560175, 27.4526386, 18.0],
          [-81.3561692, 27.4526385, 18.0],
          [-81.356321, 27.4526384, 18.0],
          [-81.3564626, 27.4526375, 18.0],
          [-81.3566143, 27.4526353, 18.0],
          [-81.3567458, 27.4526353, 18.0],
          [-81.3568874, 27.4526334, 18.0],
          [-81.3570291, 27.4526314, 18.0],
          [-81.3572111, 27.4526299, 18.0],
          [-81.3573882, 27.4526271, 18.0],
          [-81.3575652, 27.4526243, 18.0],
          [-81.3576714, 27.4526221, 18.0],
          [-81.3577776, 27.4526198, 18.0],
          [-81.3578989, 27.4526181, 18.0],
          [-81.3579697, 27.4526196, 18.0],
          [-81.3580304, 27.4526195, 18.0],
          [-81.3580506, 27.4526211, 18.0],
          [-81.3580704, 27.4526249, 18.0],
          [-81.3580892, 27.4526314, 18.0],
          [-81.3581436, 27.4526554, 18.0],
          [-81.3581615, 27.4526638, 18.0],
          [-81.3581787, 27.4526733, 18.0],
          [-81.3581948, 27.4526842, 18.0],
          [-81.3582097, 27.4526964, 18.0],
          [-81.3582236, 27.4527096, 18.0],
          [-81.3582358, 27.452724, 18.0],
          [-81.3582454, 27.4527399, 18.0],
          [-81.3582528, 27.4527567, 18.0],
          [-81.3582584, 27.452774, 18.0],
          [-81.3582644, 27.4528005, 18.0],
          [-81.358267, 27.4528184, 18.0],
          [-81.3582687, 27.4528455, 18.0],
          [-81.3582677, 27.4528725, 18.0],
          [-81.3582655, 27.4528905, 18.0],
          [-81.3582616, 27.4529082, 18.0],
          [-81.358259, 27.4529169, 18.0],
          [-81.3582517, 27.4529337, 18.0],
          [-81.3582425, 27.4529498, 18.0],
          [-81.3582265, 27.4529728, 18.0],
          [-81.3582091, 27.452995, 18.0],
          [-81.3581904, 27.4530163, 18.0],
          [-81.3581215, 27.4530824, 18.0],
          [-81.3581015, 27.4531028, 18.0],
          [-81.3580891, 27.453117, 18.0],
          [-81.3580719, 27.4531393, 18.0],
          [-81.3580616, 27.4531549, 18.0],
          [-81.3580522, 27.4531709, 18.0],
          [-81.3580439, 27.4531873, 18.0],
          [-81.3580367, 27.4532042, 18.0],
          [-81.3580276, 27.45323, 18.0],
          [-81.3580203, 27.4532563, 18.0],
          [-81.3580163, 27.453274, 18.0],
          [-81.3580133, 27.4532918, 18.0],
          [-81.3580103, 27.4533188, 18.0],
          [-81.3580073, 27.4533819, 18.0],
          [-81.358005, 27.4534089, 18.0],
          [-81.357999, 27.4534446, 18.0],
          [-81.3579919, 27.4534709, 18.0],
          [-81.3579688, 27.4535401, 18.0],
          [-81.3579211, 27.4536591, 18.0],
          [-81.3579058, 27.4536925, 18.0],
          [-81.3578893, 27.4537254, 18.0],
          [-81.35788, 27.4537415, 18.0],
          [-81.3578689, 27.4537565, 18.0],
          [-81.3578052, 27.4538267, 18.0],
          [-81.3577415, 27.4538968, 18.0],
          [-81.3577215, 27.4539172, 18.0],
          [-81.3576089, 27.4540209, 18.0],
          [-81.3575159, 27.4541038, 18.0],
          [-81.3574228, 27.4541867, 17.0],
          [-81.3573395, 27.4542655, 17.0],
          [-81.3573182, 27.4542848, 17.0],
          [-81.3572062, 27.4543761, 17.0],
          [-81.357145, 27.4544233, 17.0],
          [-81.3571137, 27.4544462, 17.0],
          [-81.3570575, 27.4544847, 17.0],
          [-81.3570167, 27.4545113, 17.0],
          [-81.3569666, 27.4545419, 17.0],
          [-81.3569234, 27.4545654, 17.0],
          [-81.3568707, 27.4545922, 17.0],
          [-81.356826, 27.4546134, 17.0],
          [-81.3567806, 27.4546332, 17.0],
          [-81.3567256, 27.4546562, 17.0],
          [-81.3566792, 27.454674, 17.0],
          [-81.3566129, 27.4546964, 19.0],
          [-81.3565472, 27.4547199, 19.0],
          [-81.3564234, 27.4547594, 19.0],
          [-81.3562862, 27.4548013, 19.0],
          [-81.356149, 27.4548433, 19.0],
          [-81.3560118, 27.4548852, 19.0],
          [-81.3558397, 27.4549383, 19.0],
          [-81.3556676, 27.4549913, 19.0],
          [-81.3554955, 27.4550443, 19.0],
          [-81.3553234, 27.4550974, 19.0],
          [-81.3552853, 27.4551096, 19.0],
          [-81.3552383, 27.4551263, 19.0],
          [-81.3551826, 27.4551477, 19.0],
          [-81.3551368, 27.4551669, 19.0],
          [-81.3550916, 27.4551873, 19.0],
          [-81.3550385, 27.4552135, 19.0],
          [-81.3549777, 27.4552458, 20.0],
          [-81.3549265, 27.455275, 20.0],
          [-81.3548677, 27.4553101, 20.0],
          [-81.3548268, 27.4553367, 20.0],
          [-81.3547217, 27.4554072, 20.0],
          [-81.3546268, 27.4554748, 20.0],
          [-81.3545964, 27.4554986, 20.0],
          [-81.3545523, 27.4555358, 20.0],
          [-81.3545074, 27.4555722, 20.0],
          [-81.3543937, 27.455675, 20.0],
          [-81.3543332, 27.4557357, 20.0],
          [-81.3542139, 27.4558584, 20.0],
          [-81.3541797, 27.4558916, 20.0],
          [-81.3540797, 27.4559811, 20.0],
          [-81.3540112, 27.4560476, 20.0],
          [-81.353933, 27.4561182, 20.0],
          [-81.3538683, 27.4561753, 20.0],
          [-81.3538066, 27.456235, 20.0],
          [-81.3536744, 27.4563532, 20.0],
          [-81.3535422, 27.4564714, 20.0],
          [-81.3534314, 27.4565725, 20.0],
          [-81.3533207, 27.4566737, 20.0],
          [-81.35321, 27.4567749, 20.0],
          [-81.3530954, 27.4568769, 20.0],
          [-81.3530438, 27.4569201, 20.0],
          [-81.3529208, 27.4570273, 20.0],
          [-81.3528612, 27.4570762, 20.0],
          [-81.3528475, 27.4570895, 20.0],
          [-81.3528157, 27.4571245, 20.0],
          [-81.3528018, 27.4571377, 20.0],
          [-81.3527872, 27.4571502, 20.0],
          [-81.3527419, 27.4571862, 20.0],
          [-81.3527178, 27.4572027, 20.0],
          [-81.3527007, 27.4572123, 20.0],
          [-81.3526829, 27.4572208, 20.0],
          [-81.3526644, 27.4572282, 20.0],
          [-81.3526549, 27.4572314, 20.0],
          [-81.3526254, 27.4572376, 20.0],
          [-81.3525954, 27.4572416, 20.0],
          [-81.3525752, 27.4572435, 20.0],
          [-81.3525449, 27.4572438, 20.0],
          [-81.3525248, 27.4572421, 20.0],
          [-81.3525049, 27.4572389, 20.0],
          [-81.3524755, 27.4572321, 20.0],
          [-81.3524269, 27.4572195, 20.0],
          [-81.3524077, 27.4572139, 20.0],
          [-81.3523889, 27.4572072, 20.0],
          [-81.3523707, 27.4571993, 20.0],
          [-81.3523534, 27.45719, 20.0],
          [-81.3523367, 27.4571797, 20.0],
          [-81.3523126, 27.4571633, 20.0],
          [-81.3522892, 27.4571461, 20.0],
          [-81.3522596, 27.4571215, 20.0],
          [-81.3522176, 27.4570824, 20.0],
          [-81.352191, 27.4570552, 20.0],
          [-81.3521725, 27.4570337, 20.0],
          [-81.3521249, 27.4569753, 20.0],
          [-81.35209, 27.456931, 20.0],
          [-81.352031, 27.4568577, 20.0],
          [-81.3519719, 27.4567844, 20.0],
          [-81.3519355, 27.4567411, 20.0],
          [-81.35191, 27.4567131, 20.0],
          [-81.3518892, 27.4566933, 20.0],
          [-81.3518742, 27.4566813, 20.0],
          [-81.3518496, 27.4566654, 20.0],
          [-81.3518238, 27.4566512, 20.0],
          [-81.3517712, 27.4566242, 20.0],
          [-81.3517352, 27.4566076, 20.0],
          [-81.351662, 27.4565769, 21.0],
          [-81.3515148, 27.4565169, 21.0],
          [-81.351468, 27.4564998, 21.0],
          [-81.3514393, 27.456491, 21.0],
          [-81.3513715, 27.4564726, 21.0],
          [-81.3512752, 27.456445, 21.0],
          [-81.351217, 27.4564295, 21.0],
          [-81.3511876, 27.456423, 21.0],
          [-81.3511579, 27.4564174, 21.0],
          [-81.3511279, 27.4564131, 21.0],
          [-81.3510978, 27.4564098, 21.0],
          [-81.3510675, 27.4564076, 21.0],
          [-81.3510372, 27.4564066, 21.0],
          [-81.3509866, 27.4564077, 21.0],
          [-81.3509363, 27.4564122, 21.0],
          [-81.3509063, 27.4564162, 21.0],
          [-81.3508765, 27.4564214, 21.0],
          [-81.3508175, 27.4564341, 20.0],
          [-81.3507497, 27.4564524, 20.0],
          [-81.3506618, 27.4564734, 20.0],
          [-81.3506328, 27.4564813, 20.0],
          [-81.3504886, 27.4565236, 20.0],
          [-81.3504691, 27.4565286, 20.0],
          [-81.3504395, 27.4565342, 20.0],
          [-81.3503595, 27.4565452, 20.0],
          [-81.3503299, 27.4565512, 20.0],
          [-81.3503007, 27.4565588, 20.0],
          [-81.3502818, 27.456565, 20.0],
          [-81.3502541, 27.4565763, 20.0],
          [-81.3501725, 27.4566121, 20.0],
          [-81.3500826, 27.4566536, 20.0],
          [-81.3499937, 27.4566967, 22.0],
          [-81.3499058, 27.4567414, 22.0],
          [-81.3498347, 27.4567758, 22.0],
          [-81.349747, 27.4568208, 22.0],
          [-81.3497111, 27.4568375, 22.0],
          [-81.3496647, 27.4568554, 22.0],
          [-81.3496362, 27.4568649, 22.0],
          [-81.349617, 27.4568705, 22.0],
          [-81.3495679, 27.4568811, 22.0],
          [-81.3495181, 27.4568894, 22.0],
          [-81.3494277, 27.4568989, 22.0],
          [-81.3493471, 27.4569055, 22.0],
          [-81.3492866, 27.4569094, 22.0],
          [-81.3491754, 27.4569143, 22.0],
          [-81.3490844, 27.4569165, 19.0],
          [-81.3489529, 27.4569185, 19.0],
          [-81.3488822, 27.456921, 19.0],
          [-81.3488114, 27.4569193, 19.0],
          [-81.3487001, 27.4569216, 19.0],
          [-81.3485079, 27.4569225, 19.0],
          [-81.348427, 27.4569238, 19.0],
          [-81.3483865, 27.456923, 19.0],
          [-81.3483562, 27.4569214, 19.0],
          [-81.3483261, 27.4569183, 19.0],
          [-81.3482665, 27.4569082, 19.0],
          [-81.3482468, 27.4569039, 19.0],
          [-81.3481402, 27.4568756, 19.0],
          [-81.3481018, 27.456864, 19.0],
          [-81.3480647, 27.4568496, 19.0],
          [-81.3480468, 27.4568412, 19.0],
          [-81.3480297, 27.4568315, 19.0],
          [-81.3480138, 27.4568204, 19.0],
          [-81.347999, 27.4568082, 19.0],
          [-81.3479853, 27.4567948, 19.0],
          [-81.3479732, 27.4567804, 19.0],
          [-81.3479572, 27.4567574, 19.0],
          [-81.3479378, 27.4567257, 19.0],
          [-81.3479292, 27.4567094, 19.0],
          [-81.3479222, 27.4566925, 19.0],
          [-81.3479143, 27.4566663, 19.0],
          [-81.3479057, 27.4566218, 19.0],
          [-81.3478947, 27.4565412, 19.0],
          [-81.3478834, 27.4564789, 19.0],
          [-81.3478817, 27.4564609, 19.0],
          [-81.3478808, 27.4564338, 19.0],
          [-81.3478804, 27.4563887, 19.0],
          [-81.3478814, 27.4562894, 19.0],
          [-81.3478825, 27.4561902, 19.0],
          [-81.3478816, 27.4560999, 19.0],
          [-81.3478808, 27.4560097, 19.0],
          [-81.3478845, 27.4559059, 19.0],
          [-81.3478882, 27.4558022, 19.0],
          [-81.3478871, 27.4556488, 19.0],
          [-81.3478859, 27.4554954, 19.0],
          [-81.3478847, 27.4553419, 19.0],
          [-81.3478844, 27.4551765, 19.0],
          [-81.3478841, 27.455011, 19.0],
          [-81.3478838, 27.4548456, 19.0],
          [-81.3478891, 27.4547283, 19.0],
          [-81.34789, 27.4546922, 19.0],
          [-81.3478868, 27.4546201, 19.0],
          [-81.3478855, 27.4545569, 19.0],
          [-81.3478857, 27.4545299, 19.0],
          [-81.3478881, 27.4544758, 19.0],
          [-81.3478884, 27.4544306, 19.0],
          [-81.3478872, 27.4543404, 19.0],
          [-81.3478839, 27.4542231, 19.0],
          [-81.3478832, 27.4541148, 19.0],
          [-81.3478814, 27.4540246, 19.0],
          [-81.3478829, 27.4539298, 19.0],
          [-81.3478844, 27.4538351, 19.0],
          [-81.3478821, 27.4537629, 19.0],
          [-81.3478776, 27.453718, 19.0],
          [-81.3478755, 27.453691, 19.0],
          [-81.3478745, 27.4536458, 19.0],
          [-81.3478755, 27.4536188, 19.0],
          [-81.3478803, 27.4535739, 19.0],
          [-81.3478824, 27.4535468, 19.0],
          [-81.3478846, 27.4535289, 19.0],
          [-81.3478889, 27.4535113, 19.0],
          [-81.3479022, 27.4534678, 19.0],
          [-81.3479185, 27.453397, 19.0],
          [-81.3479261, 27.4533524, 19.0],
          [-81.3479319, 27.4533076, 19.0],
          [-81.34794, 27.4532539, 19.0],
          [-81.3479441, 27.453218, 19.0],
          [-81.3479453, 27.453191, 19.0],
          [-81.3479432, 27.4530737, 19.0],
          [-81.3479411, 27.4530466, 19.0],
          [-81.3479389, 27.4530287, 19.0],
          [-81.3479332, 27.4530021, 19.0],
          [-81.3479245, 27.4529762, 19.0],
          [-81.347892, 27.4529003, 19.0],
          [-81.3478686, 27.4528407, 19.0],
          [-81.3478561, 27.4528064, 19.0],
          [-81.3478348, 27.4527556, 19.0],
          [-81.3477826, 27.4526382, 19.0],
          [-81.3477304, 27.4525305, 19.0],
          [-81.3477163, 27.4524967, 19.0],
          [-81.3477111, 27.4524792, 19.0],
          [-81.3477084, 27.4524614, 19.0],
          [-81.3477063, 27.4524072, 19.0],
          [-81.3477035, 27.4523803, 19.0],
          [-81.3476974, 27.4523538, 19.0],
          [-81.3476885, 27.4523279, 19.0],
          [-81.3476808, 27.4523112, 19.0],
          [-81.3476719, 27.452295, 19.0],
          [-81.3476265, 27.4522246, 19.0],
          [-81.3476121, 27.4522007, 19.0],
          [-81.3475851, 27.4521522, 19.0],
          [-81.3475555, 27.4520949, 19.0],
          [-81.3475397, 27.4520616, 19.0],
          [-81.3475254, 27.4520278, 19.0],
          [-81.347509, 27.4519852, 19.0],
          [-81.3474812, 27.4519078, 19.0],
          [-81.3474601, 27.451857, 19.0],
          [-81.3474442, 27.4518238, 19.0],
          [-81.3474268, 27.4517913, 19.0],
          [-81.3474125, 27.4517674, 19.0],
          [-81.3473967, 27.4517443, 19.0],
          [-81.3473854, 27.4517293, 19.0],
          [-81.3473673, 27.4517076, 19.0],
          [-81.3473342, 27.4516734, 19.0],
          [-81.3472991, 27.451641, 18.0],
          [-81.3471625, 27.4515203, 18.0],
          [-81.3470984, 27.4514626, 18.0],
          [-81.3470569, 27.4514231, 18.0],
          [-81.3469829, 27.4513489, 18.0],
          [-81.3469275, 27.4512964, 18.0],
          [-81.3468487, 27.4512263, 18.0],
          [-81.3467699, 27.4511562, 18.0],
          [-81.3466441, 27.4510515, 18.0],
          [-81.3465723, 27.450988, 18.0],
          [-81.3465005, 27.4509244, 18.0],
          [-81.3464276, 27.4508618, 18.0],
          [-81.3463059, 27.4507534, 18.0],
          [-81.34625, 27.4507012, 18.0],
          [-81.3462365, 27.4506878, 18.0],
          [-81.3462173, 27.4506668, 18.0],
          [-81.3461996, 27.4506448, 18.0],
          [-81.346189, 27.4506294, 18.0],
          [-81.3461801, 27.4506132, 18.0],
          [-81.3461731, 27.4505963, 18.0],
          [-81.3461678, 27.4505789, 18.0],
          [-81.3461622, 27.4505523, 18.0],
          [-81.3461591, 27.4505253, 18.0],
          [-81.3461578, 27.4504802, 18.0],
          [-81.3461548, 27.4504262, 18.0],
          [-81.3461557, 27.4503991, 18.0],
          [-81.34616, 27.4503541, 18.0],
          [-81.346167, 27.4503094, 18.0],
          [-81.3461774, 27.4502653, 18.0],
          [-81.3461883, 27.4502305, 18.0],
          [-81.3462053, 27.450188, 18.0],
          [-81.3462206, 27.4501546, 18.0],
          [-81.3462334, 27.45013, 18.0],
          [-81.3462525, 27.4500982, 18.0],
          [-81.3462734, 27.4500673, 18.0],
          [-81.3463345, 27.4499843, 18.0],
          [-81.3463461, 27.4499696, 18.0],
          [-81.3463586, 27.4499554, 18.0],
          [-81.3464041, 27.449907, 18.0],
          [-81.3464226, 27.4498855, 18.0],
          [-81.3464338, 27.4498705, 18.0],
          [-81.3464707, 27.4498165, 18.0],
          [-81.3464903, 27.449785, 18.0],
          [-81.3465032, 27.4497605, 18.0],
          [-81.346514, 27.4497352, 18.0],
          [-81.3465229, 27.4497093, 18.0],
          [-81.3465685, 27.449552, 18.0],
          [-81.3465773, 27.4495168, 18.0],
          [-81.3465844, 27.4494812, 18.0],
          [-81.3465894, 27.4494454, 18.0],
          [-81.3465923, 27.4494094, 18.0],
          [-81.346593, 27.4493192, 18.0],
          [-81.3465942, 27.4492921, 18.0],
          [-81.3465966, 27.4492651, 18.0],
          [-81.3466012, 27.4492293, 18.0],
          [-81.3466109, 27.4491667, 18.0],
          [-81.3466231, 27.4491045, 18.0],
          [-81.3466354, 27.4490607, 18.0],
          [-81.3466614, 27.4489829, 18.0],
          [-81.3466642, 27.4489742, 18.0],
          [-81.3466688, 27.4489566, 18.0],
          [-81.346691, 27.448841, 18.0],
          [-81.3467133, 27.4487253, 18.0],
          [-81.3467219, 27.4486901, 18.0],
          [-81.3467345, 27.4486464, 18.0],
          [-81.3467372, 27.4486377, 18.0],
          [-81.3467494, 27.4486033, 18.0],
          [-81.3467568, 27.4485865, 18.0],
          [-81.3467609, 27.4485782, 18.0],
          [-81.3467698, 27.448562, 18.0],
          [-81.3467796, 27.4485462, 18.0],
          [-81.3467849, 27.4485386, 18.0],
          [-81.3468024, 27.4485164, 18.0],
          [-81.3468151, 27.4485024, 18.0],
          [-81.3468217, 27.4484956, 18.0],
          [-81.3468428, 27.4484761, 18.0],
          [-81.3468501, 27.4484699, 18.0],
          [-81.3468654, 27.448458, 18.0],
          [-81.3468732, 27.4484523, 18.0],
          [-81.3469054, 27.4484305, 18.0],
          [-81.3469301, 27.4484147, 18.0],
          [-81.3469385, 27.4484097, 18.0],
          [-81.3469644, 27.4483956, 18.0],
          [-81.3470086, 27.4483736, 18.0],
          [-81.3470176, 27.4483695, 18.0],
          [-81.3470449, 27.4483577, 18.0],
          [-81.3470542, 27.4483542, 18.0],
          [-81.3470732, 27.448348, 18.0],
          [-81.3470828, 27.4483452, 18.0],
          [-81.3471313, 27.4483323, 18.0],
          [-81.3471509, 27.4483279, 18.0],
          [-81.3471609, 27.4483264, 18.0],
          [-81.3471709, 27.4483256, 18.0],
          [-81.3472617, 27.4483194, 18.0],
          [-81.3473123, 27.4483175, 18.0],
          [-81.3474336, 27.4483164, 18.0],
          [-81.3475348, 27.4483178, 18.0],
          [-81.3476661, 27.4483248, 18.0],
          [-81.3476761, 27.4483257, 18.0],
          [-81.3478066, 27.4483408, 18.0],
          [-81.3478368, 27.4483433, 18.0],
          [-81.3479075, 27.4483454, 18.0],
          [-81.3480593, 27.4483471, 18.0],
          [-81.3481908, 27.4483453, 18.0],
          [-81.3483526, 27.4483443, 18.0],
          [-81.3484589, 27.4483445, 18.0],
          [-81.3485651, 27.4483448, 18.0],
          [-81.348764, 27.448344, 18.0],
          [-81.348963, 27.4483431, 18.0],
          [-81.3491619, 27.4483423, 18.0],
          [-81.3493002, 27.4483414, 19.0],
          [-81.3494385, 27.4483405, 19.0],
          [-81.3495767, 27.4483396, 19.0],
          [-81.3497709, 27.4483393, 19.0],
          [-81.3499652, 27.4483391, 19.0],
          [-81.3501594, 27.4483388, 18.0],
          [-81.3503537, 27.4483385, 18.0],
          [-81.3505479, 27.4483382, 18.0],
          [-81.3506743, 27.4483375, 18.0],
          [-81.3508008, 27.4483368, 18.0],
          [-81.3509694, 27.4483364, 19.0],
          [-81.351138, 27.4483361, 19.0],
          [-81.3513066, 27.4483357, 19.0],
          [-81.3514719, 27.4483347, 19.0],
          [-81.3516371, 27.4483338, 19.0],
          [-81.3518023, 27.4483328, 18.0],
          [-81.3518327, 27.4483334, 18.0],
          [-81.3518933, 27.4483363, 18.0],
          [-81.3519438, 27.4483382, 18.0],
          [-81.3519539, 27.4483382, 18.0],
          [-81.3520854, 27.4483359, 18.0],
          [-81.3522168, 27.4483313, 18.0],
          [-81.3522977, 27.4483295, 18.0],
          [-81.352414, 27.4483251, 18.0],
          [-81.3525302, 27.4483207, 18.0],
          [-81.3527274, 27.4483147, 18.0],
          [-81.3529245, 27.4483088, 18.0],
          [-81.3530459, 27.4483081, 18.0],
          [-81.3531673, 27.4483074, 18.0],
          [-81.3532988, 27.4483081, 18.0],
          [-81.353405, 27.4483079, 18.0],
          [-81.3535113, 27.4483077, 18.0],
          [-81.3536023, 27.4483067, 18.0],
          [-81.3537743, 27.4483076, 18.0],
          [-81.3538653, 27.4483062, 18.0],
          [-81.3540373, 27.4483052, 18.0],
          [-81.354189, 27.4483034, 18.0],
          [-81.3542092, 27.4483037, 18.0],
          [-81.3542294, 27.4483048, 18.0],
          [-81.3542695, 27.4483099, 18.0],
          [-81.3542896, 27.448312, 18.0],
          [-81.3543098, 27.4483131, 18.0],
          [-81.3543502, 27.4483134, 18.0],
          [-81.3544514, 27.4483122, 18.0],
          [-81.3545525, 27.4483109, 18.0],
          [-81.3545828, 27.4483088, 18.0],
          [-81.3546228, 27.4483034, 18.0],
          [-81.3546429, 27.4483013, 18.0],
          [-81.3547035, 27.4482987, 18.0],
          [-81.3547136, 27.4482986, 18.0],
          [-81.3547844, 27.4482981, 18.0],
          [-81.3548957, 27.4482988, 18.0],
          [-81.3550475, 27.4482976, 18.0],
          [-81.3551537, 27.4482979, 18.0],
          [-81.3552599, 27.4482981, 18.0],
          [-81.3554319, 27.4482966, 18.0],
          [-81.3556039, 27.4482951, 18.0],
          [-81.3557961, 27.448295, 18.0],
          [-81.3558871, 27.448293, 18.0],
          [-81.3559275, 27.4482935, 18.0],
          [-81.3559881, 27.4482975, 18.0],
          [-81.3560083, 27.4482981, 18.0],
          [-81.3560285, 27.4482978, 18.0],
          [-81.3560992, 27.4482936, 18.0],
          [-81.3562205, 27.4482909, 18.0],
          [-81.3563317, 27.4482874, 18.0],
          [-81.3563621, 27.4482879, 18.0],
          [-81.3563923, 27.4482899, 18.0],
          [-81.3564827, 27.4483002, 18.0],
          [-81.3565622, 27.4483133, 18.0],
          [-81.3565819, 27.4483176, 18.0],
          [-81.356601, 27.4483236, 18.0],
          [-81.3566287, 27.4483346, 18.0],
          [-81.3566554, 27.4483474, 18.0],
          [-81.3566812, 27.4483616, 18.0],
          [-81.3567058, 27.4483775, 18.0],
          [-81.3567137, 27.4483832, 18.0],
          [-81.3567831, 27.4484357, 18.0],
          [-81.356807, 27.4484524, 18.0],
          [-81.3568316, 27.4484683, 18.0],
          [-81.3568652, 27.4484884, 18.0],
          [-81.356908, 27.4485124, 18.0],
          [-81.3570469, 27.4485865, 18.0],
          [-81.3570887, 27.4486119, 18.0],
          [-81.3571203, 27.4486345, 18.0],
          [-81.3572105, 27.448707, 18.0],
          [-81.3572941, 27.4487726, 18.0],
          [-81.3573777, 27.4488381, 18.0],
          [-81.3574467, 27.448891, 18.0],
          [-81.3574687, 27.4489097, 18.0],
          [-81.3574824, 27.448923, 18.0],
          [-81.3574949, 27.4489371, 18.0],
          [-81.3575005, 27.4489447, 18.0],
          [-81.357511, 27.4489601, 17.0],
          [-81.3575157, 27.448968, 17.0],
          [-81.3575245, 27.4489843, 17.0],
          [-81.3575359, 27.4490094, 17.0],
          [-81.3575678, 27.449095, 17.0],
          [-81.3575756, 27.4491212, 17.0],
          [-81.3575857, 27.4491654, 18.0],
          [-81.3575965, 27.4492095, 18.0],
          [-81.3575983, 27.4492183, 18.0],
          [-81.3576046, 27.449254, 18.0],
          [-81.3576087, 27.4492899, 18.0],
          [-81.3576093, 27.4492989, 18.0],
          [-81.35761, 27.449326, 18.0],
          [-81.3576099, 27.449335, 18.0],
          [-81.3576075, 27.4494072, 18.0],
          [-81.3576058, 27.4494252, 18.0],
          [-81.3576029, 27.449443, 18.0],
          [-81.3575981, 27.4494605, 18.0],
          [-81.3575948, 27.4494691, 18.0],
          [-81.3575907, 27.4494773, 18.0],
          [-81.3575546, 27.4495419, 18.0],
          [-81.3575401, 27.4495657, 18.0],
          [-81.3575245, 27.4495889, 18.0],
          [-81.3574959, 27.4496261, 18.0],
          [-81.3574898, 27.4496333, 18.0],
          [-81.3574015, 27.4497321, 18.0],
          [-81.3573834, 27.4497538, 18.0],
          [-81.3573777, 27.4497613, 18.0],
          [-81.3573562, 27.4497919, 18.0],
          [-81.3573058, 27.4498701, 18.0],
          [-81.3573005, 27.4498778, 18.0],
          [-81.3572898, 27.4498931, 18.0],
          [-81.3572728, 27.4499155, 18.0],
          [-81.3572479, 27.449944, 18.0],
          [-81.3572205, 27.4499705, 18.0],
          [-81.3571907, 27.449995, 18.0],
          [-81.3571588, 27.4500172, 18.0],
          [-81.3571248, 27.4500368, 18.0],
          [-81.3570719, 27.4500632, 18.0],
          [-81.3570447, 27.4500752, 18.0],
          [-81.3569894, 27.4500975, 18.0],
          [-81.3569439, 27.4501173, 18.0],
          [-81.3569157, 27.4501273, 18.0],
          [-81.356887, 27.4501362, 18.0],
          [-81.3568192, 27.4501543, 18.0],
          [-81.3567323, 27.4501787, 18.0],
          [-81.3566834, 27.4501903, 18.0],
          [-81.3566436, 27.4501966, 18.0],
          [-81.3566135, 27.4501998, 18.0],
          [-81.3565077, 27.450209, 18.0],
          [-81.356402, 27.4502181, 18.0],
          [-81.3563717, 27.4502195, 18.0],
          [-81.35622, 27.4502228, 18.0],
          [-81.3561189, 27.4502198, 18.0],
          [-81.3560481, 27.4502199, 18.0],
          [-81.3559874, 27.4502214, 18.0],
          [-81.3558762, 27.4502259, 18.0],
          [-81.3558257, 27.4502269, 18.0],
          [-81.3556537, 27.4502246, 18.0],
          [-81.355502, 27.4502275, 18.0],
          [-81.3554109, 27.4502268, 18.0],
          [-81.355244, 27.4502275, 18.0],
          [-81.3550771, 27.4502282, 18.0],
          [-81.3549051, 27.4502278, 19.0],
          [-81.3547702, 27.4502284, 19.0],
          [-81.3546354, 27.4502289, 19.0],
          [-81.3545005, 27.4502295, 19.0],
          [-81.3543993, 27.4502294, 19.0],
          [-81.3542981, 27.4502294, 19.0],
          [-81.3541059, 27.4502304, 19.0],
          [-81.3539137, 27.4502314, 19.0],
          [-81.3537209, 27.4502318, 19.0],
          [-81.353528, 27.4502322, 19.0]
        ]
      }
    }
  ]
}
