{
  "type": "FeatureCollection",
  "features": [
    {
      "type": "Feature",
      "properties": {
        "Name": "Virginia International Raceway",
        "source": "tobi/track-atlas (OpenStreetMap contributors; ODbL 1.0)",
        "source_id": "virginia-international-raceway/gp",
        "revision": "c783def5a24df8ce8f034262e8228c262b854e0e",
        "upstream_path": "tracks/virginia-international-raceway/raw/layers/gp.geojson",
        "upstream_sha256": "ef52544c3859405b33d93390d1d16c07402fab3ab22645caa16c8fafa571b5e3",
        "line": [
          36.5688019,
          -79.2063046
        ],
        "direction": "clockwise",
        "heights": "Open-Meteo DEM (Copernicus GLO-90), metres above sea level",
        "retrieved": "2026-09-27"
      },
      "geometry": {
        "type": "LineString",
        "coordinates": [
          [-79.2063041, 36.5688019, 112.0],
          [-79.2062378, 36.5688064, 112.0],
          [-79.2061826, 36.5688132, 112.0],
          [-79.2061382, 36.5688174, 112.0],
          [-79.2059881, 36.5688293, 112.0],
          [-79.2058381, 36.5688412, 112.0],
          [-79.2056487, 36.5688523, 113.0],
          [-79.2055594, 36.5688551, 113.0],
          [-79.2054812, 36.5688565, 113.0],
          [-79.2053304, 36.5688575, 113.0],
          [-79.2051796, 36.5688586, 113.0],
          [-79.2050232, 36.5688565, 113.0],
          [-79.2048669, 36.5688544, 113.0],
          [-79.2047887, 36.5688525, 113.0],
          [-79.2046102, 36.5688464, 113.0],
          [-79.2043982, 36.5688373, 113.0],
          [-79.204231, 36.5688291, 113.0],
          [-79.2040637, 36.5688208, 111.0],
          [-79.20393, 36.5688131, 111.0],
          [-79.2037963, 36.5688054, 111.0],
          [-79.2036793, 36.5687994, 111.0],
          [-79.2035622, 36.5687933, 111.0],
          [-79.203473, 36.5687893, 111.0],
          [-79.203395, 36.5687847, 111.0],
          [-79.2033057, 36.5687816, 111.0],
          [-79.2030884, 36.56877, 111.0],
          [-79.202871, 36.5687585, 111.0],
          [-79.2027709, 36.5687511, 111.0],
          [-79.2026818, 36.5687463, 111.0],
          [-79.2025705, 36.5687382, 111.0],
          [-79.2025374, 36.5687339, 111.0],
          [-79.2024942, 36.5687249, 111.0],
          [-79.202452, 36.568713, 111.0],
          [-79.2024113, 36.5686981, 111.0],
          [-79.2023821, 36.5686848, 111.0],
          [-79.2023545, 36.5686695, 111.0],
          [-79.2023201, 36.5686465, 111.0],
          [-79.202296, 36.5686278, 111.0],
          [-79.202274, 36.5686073, 111.0],
          [-79.2022477, 36.5685782, 111.0],
          [-79.2022299, 36.5685553, 111.0],
          [-79.2022198, 36.5685392, 111.0],
          [-79.2022079, 36.568514, 111.0],
          [-79.2021961, 36.5684792, 111.0],
          [-79.2021877, 36.5684438, 111.0],
          [-79.2021843, 36.5684169, 111.0],
          [-79.2021842, 36.5683989, 111.0],
          [-79.2021859, 36.5683809, 111.0],
          [-79.2021913, 36.5683542, 111.0],
          [-79.2021984, 36.5683278, 111.0],
          [-79.2022072, 36.5683017, 112.0],
          [-79.2022146, 36.5682847, 112.0],
          [-79.2022234, 36.5682682, 112.0],
          [-79.2022336, 36.5682521, 112.0],
          [-79.2022508, 36.5682289, 112.0],
          [-79.2022692, 36.5682063, 112.0],
          [-79.2022884, 36.5681842, 112.0],
          [-79.2023218, 36.568148, 112.0],
          [-79.2023582, 36.5681027, 112.0],
          [-79.2023777, 36.5680807, 112.0],
          [-79.2023984, 36.5680594, 112.0],
          [-79.2024201, 36.5680388, 112.0],
          [-79.2024427, 36.5680189, 112.0],
          [-79.202459, 36.5680065, 112.0],
          [-79.2024856, 36.5679902, 112.0],
          [-79.2025042, 36.5679801, 112.0],
          [-79.2025236, 36.5679711, 112.0],
          [-79.2026245, 36.5679325, 112.0],
          [-79.2026843, 36.5679081, 112.0],
          [-79.2027256, 36.5678943, 112.0],
          [-79.2027467, 36.5678886, 112.0],
          [-79.2027789, 36.5678811, 112.0],
          [-79.2028223, 36.5678724, 112.0],
          [-79.202866, 36.5678648, 112.0],
          [-79.2028989, 36.5678597, 112.0],
          [-79.202932, 36.5678555, 112.0],
          [-79.2029876, 36.5678511, 112.0],
          [-79.2030434, 36.5678498, 112.0],
          [-79.2031551, 36.5678509, 112.0],
          [-79.2031997, 36.5678532, 112.0],
          [-79.2032776, 36.5678589, 112.0],
          [-79.2033552, 36.5678663, 112.0],
          [-79.2034325, 36.5678758, 112.0],
          [-79.2035313, 36.567891, 112.0],
          [-79.2035857, 36.5679013, 112.0],
          [-79.2036609, 36.5679184, 112.0],
          [-79.2037036, 36.5679292, 112.0],
          [-79.2038506, 36.5679721, 112.0],
          [-79.2039988, 36.5680124, 112.0],
          [-79.2041878, 36.5680677, 112.0],
          [-79.2043444, 36.5681158, 112.0],
          [-79.2045434, 36.5681753, 112.0],
          [-79.2046592, 36.5682085, 112.0],
          [-79.2047228, 36.5682255, 112.0],
          [-79.204755, 36.5682331, 112.0],
          [-79.2048419, 36.5682497, 112.0],
          [-79.2049188, 36.5682615, 112.0],
          [-79.2049851, 36.5682693, 112.0],
          [-79.2050407, 36.5682738, 112.0],
          [-79.2050965, 36.5682752, 112.0],
          [-79.2051635, 36.5682734, 112.0],
          [-79.2052191, 36.5682692, 112.0],
          [-79.2052743, 36.5682623, 112.0],
          [-79.2053508, 36.5682494, 112.0],
          [-79.2053833, 36.5682427, 112.0],
          [-79.2054261, 36.5682325, 112.0],
          [-79.2055008, 36.5682139, 112.0],
          [-79.2055432, 36.5682025, 112.0],
          [-79.20569, 36.5681589, 112.0],
          [-79.2058349, 36.5681115, 112.0],
          [-79.2058756, 36.5680966, 113.0],
          [-79.2059056, 36.5680846, 113.0],
          [-79.2059649, 36.5680594, 113.0],
          [-79.2060326, 36.5680279, 113.0],
          [-79.2061027, 36.5679999, 113.0],
          [-79.2061503, 36.5679763, 113.0],
          [-79.2061963, 36.5679508, 113.0],
          [-79.2062229, 36.5679343, 113.0],
          [-79.2062487, 36.5679171, 113.0],
          [-79.2062733, 36.5678987, 113.0],
          [-79.2062885, 36.5678855, 113.0],
          [-79.2063025, 36.5678714, 113.0],
          [-79.2063485, 36.5678205, 113.0],
          [-79.2063612, 36.5678056, 113.0],
          [-79.2063727, 36.5677902, 113.0],
          [-79.206387, 36.5677657, 113.0],
          [-79.2063945, 36.5677488, 113.0],
          [-79.2064007, 36.5677315, 113.0],
          [-79.2064081, 36.5677051, 113.0],
          [-79.2064188, 36.5676609, 113.0],
          [-79.2064281, 36.5676164, 113.0],
          [-79.2064314, 36.5675895, 113.0],
          [-79.2064324, 36.5675625, 113.0],
          [-79.2064309, 36.5675355, 113.0],
          [-79.2064272, 36.5675086, 113.0],
          [-79.206422, 36.5674819, 114.0],
          [-79.2064156, 36.5674554, 114.0],
          [-79.2063832, 36.5673412, 114.0],
          [-79.2063671, 36.5672339, 114.0],
          [-79.2063537, 36.5671717, 114.0],
          [-79.2063457, 36.5671455, 114.0],
          [-79.2063389, 36.5671283, 114.0],
          [-79.2063156, 36.5670776, 114.0],
          [-79.2062803, 36.5669921, 114.0],
          [-79.2062717, 36.5669755, 114.0],
          [-79.2062483, 36.5669346, 114.0],
          [-79.2062402, 36.5669178, 114.0],
          [-79.2062159, 36.5668578, 114.0],
          [-79.2061826, 36.5667813, 114.0],
          [-79.2061406, 36.5666692, 114.0],
          [-79.2061093, 36.5665921, 116.0],
          [-79.2060799, 36.566524, 116.0],
          [-79.2060148, 36.5663801, 116.0],
          [-79.2059675, 36.5662886, 116.0],
          [-79.2059392, 36.5662396, 116.0],
          [-79.205913, 36.5661998, 116.0],
          [-79.2058949, 36.5661771, 116.0],
          [-79.2058816, 36.5661626, 116.0],
          [-79.2058599, 36.566142, 116.0],
          [-79.2058361, 36.566123, 114.0],
          [-79.2058103, 36.5661057, 114.0],
          [-79.2057825, 36.5660906, 114.0],
          [-79.2057627, 36.5660822, 114.0],
          [-79.2057313, 36.5660728, 114.0],
          [-79.2056986, 36.5660669, 114.0],
          [-79.2056652, 36.5660647, 114.0],
          [-79.2056317, 36.5660656, 114.0],
          [-79.2055984, 36.5660687, 114.0],
          [-79.2055434, 36.5660762, 114.0],
          [-79.2055107, 36.5660822, 114.0],
          [-79.2054787, 36.5660902, 114.0],
          [-79.2054154, 36.566108, 114.0],
          [-79.2053011, 36.5661444, 114.0],
          [-79.2052063, 36.5661713, 114.0],
          [-79.2051742, 36.5661793, 114.0],
          [-79.2051419, 36.5661863, 114.0],
          [-79.2051092, 36.5661922, 114.0],
          [-79.2050871, 36.5661951, 114.0],
          [-79.2050537, 36.5661972, 114.0],
          [-79.2050314, 36.5661966, 114.0],
          [-79.2050092, 36.5661943, 114.0],
          [-79.2049875, 36.5661901, 116.0],
          [-79.2049557, 36.5661817, 116.0],
          [-79.2049244, 36.5661719, 116.0],
          [-79.2048941, 36.5661604, 116.0],
          [-79.204865, 36.5661469, 116.0],
          [-79.2048187, 36.5661217, 116.0],
          [-79.2047834, 36.5660997, 116.0],
          [-79.2046653, 36.5660169, 116.0],
          [-79.2046409, 36.5659985, 116.0],
          [-79.2046022, 36.565966, 116.0],
          [-79.2045424, 36.5659124, 116.0],
          [-79.2045029, 36.5658805, 116.0],
          [-79.2044879, 36.5658672, 116.0],
          [-79.2044673, 36.5658459, 116.0],
          [-79.2044356, 36.5658088, 117.0],
          [-79.2044053, 36.5657709, 117.0],
          [-79.204383, 36.5657397, 117.0],
          [-79.2043685, 36.5657153, 117.0],
          [-79.2043513, 36.5656821, 117.0],
          [-79.2043372, 36.5656575, 117.0],
          [-79.2043014, 36.5656015, 117.0],
          [-79.2042638, 36.5655461, 117.0],
          [-79.2042399, 36.5655054, 117.0],
          [-79.2042075, 36.5654382, 117.0],
          [-79.2041903, 36.5653954, 117.0],
          [-79.2041773, 36.5653516, 117.0],
          [-79.2041717, 36.5653249, 117.0],
          [-79.2041693, 36.565307, 117.0],
          [-79.2041681, 36.565289, 117.0],
          [-79.2041685, 36.565271, 117.0],
          [-79.2041704, 36.565253, 117.0],
          [-79.2041738, 36.5652352, 117.0],
          [-79.2041786, 36.5652176, 117.0],
          [-79.2041899, 36.5651827, 117.0],
          [-79.2041963, 36.5651655, 117.0],
          [-79.204204, 36.5651485, 117.0],
          [-79.2042227, 36.5651158, 117.0],
          [-79.2042941, 36.5650036, 117.0],
          [-79.2043103, 36.5649799, 122.0],
          [-79.2043774, 36.5648863, 122.0],
          [-79.2043934, 36.5648626, 122.0],
          [-79.2044085, 36.5648384, 122.0],
          [-79.2044218, 36.5648136, 122.0],
          [-79.2044334, 36.5647882, 122.0],
          [-79.2044506, 36.5647454, 122.0],
          [-79.2044626, 36.5647106, 122.0],
          [-79.2044695, 36.5646842, 122.0],
          [-79.2044761, 36.5646486, 122.0],
          [-79.2044858, 36.5645769, 122.0],
          [-79.2044898, 36.564532, 122.0],
          [-79.2044915, 36.5644689, 122.0],
          [-79.2044884, 36.5643518, 122.0],
          [-79.2044891, 36.5642346, 122.0],
          [-79.2044914, 36.5641896, 122.0],
          [-79.2044946, 36.5641627, 122.0],
          [-79.2044976, 36.5641448, 121.0],
          [-79.204526, 36.56403, 121.0],
          [-79.2045336, 36.5640036, 121.0],
          [-79.2045429, 36.5639777, 121.0],
          [-79.2045539, 36.5639521, 121.0],
          [-79.2045662, 36.563927, 121.0],
          [-79.2046233, 36.5638193, 121.0],
          [-79.2046343, 36.5637938, 121.0],
          [-79.2046534, 36.5637419, 121.0],
          [-79.2046635, 36.5637068, 121.0],
          [-79.2046692, 36.5636802, 121.0],
          [-79.2046733, 36.5636533, 121.0],
          [-79.2046796, 36.5635905, 121.0],
          [-79.20468, 36.5635634, 121.0],
          [-79.2046765, 36.5634914, 121.0],
          [-79.2046643, 36.5633115, 121.0],
          [-79.2046546, 36.5632081, 121.0],
          [-79.2046448, 36.5631048, 121.0],
          [-79.2046416, 36.5630598, 121.0],
          [-79.20464, 36.5630238, 121.0],
          [-79.2046409, 36.5629697, 121.0],
          [-79.2046404, 36.5629517, 121.0],
          [-79.2046343, 36.5628527, 121.0],
          [-79.2046281, 36.5627537, 121.0],
          [-79.2046203, 36.5626007, 121.0],
          [-79.2046169, 36.5624836, 120.0],
          [-79.2046166, 36.5623844, 120.0],
          [-79.2046163, 36.5622853, 120.0],
          [-79.2046186, 36.5621907, 120.0],
          [-79.2046208, 36.5620961, 120.0],
          [-79.2046229, 36.5620421, 120.0],
          [-79.204627, 36.5619791, 120.0],
          [-79.2046324, 36.5619252, 120.0],
          [-79.2046524, 36.5617729, 120.0],
          [-79.2046724, 36.5616205, 121.0],
          [-79.2046899, 36.5614997, 121.0],
          [-79.2047074, 36.5613789, 121.0],
          [-79.2047173, 36.5613163, 121.0],
          [-79.2047408, 36.5611552, 121.0],
          [-79.2047507, 36.5610836, 121.0],
          [-79.2047681, 36.5609265, 121.0],
          [-79.2047856, 36.5607694, 121.0],
          [-79.204796, 36.5606616, 121.0],
          [-79.2048065, 36.5605538, 121.0],
          [-79.2048098, 36.5605269, 121.0],
          [-79.204817, 36.5604822, 121.0],
          [-79.2048236, 36.5604013, 121.0],
          [-79.2048269, 36.5603383, 121.0],
          [-79.2048296, 36.5603023, 121.0],
          [-79.2048461, 36.5601361, 121.0],
          [-79.2048626, 36.55997, 120.0],
          [-79.2048716, 36.559835, 120.0],
          [-79.2048741, 36.5597269, 120.0],
          [-79.2048717, 36.5596638, 120.0],
          [-79.2048649, 36.559601, 120.0],
          [-79.2048591, 36.5595653, 120.0],
          [-79.2048324, 36.5594318, 120.0],
          [-79.204821, 36.5593877, 120.0],
          [-79.2047861, 36.559274, 120.0],
          [-79.2047448, 36.5591477, 121.0],
          [-79.2047034, 36.5590213, 121.0],
          [-79.2046856, 36.5589599, 121.0],
          [-79.2046625, 36.5588718, 121.0],
          [-79.2046493, 36.5588187, 121.0],
          [-79.2046443, 36.558792, 121.0],
          [-79.2046292, 36.5586484, 121.0],
          [-79.204627, 36.5586124, 121.0],
          [-79.2046274, 36.5585853, 121.0],
          [-79.2046292, 36.5585583, 121.0],
          [-79.2046349, 36.5585045, 121.0],
          [-79.2046374, 36.5584594, 121.0],
          [-79.2046394, 36.5584415, 121.0],
          [-79.2046452, 36.5584149, 121.0],
          [-79.2046607, 36.5583716, 121.0],
          [-79.204666, 36.5583541, 121.0],
          [-79.2046806, 36.558283, 125.0],
          [-79.2047074, 36.5581955, 125.0],
          [-79.2047303, 36.5581073, 125.0],
          [-79.2047445, 36.5580453, 125.0],
          [-79.2047495, 36.5580095, 125.0],
          [-79.2047526, 36.5579374, 125.0],
          [-79.2047553, 36.5579014, 125.0],
          [-79.2047622, 36.5578567, 125.0],
          [-79.204764, 36.5578388, 125.0],
          [-79.2047651, 36.5577757, 125.0],
          [-79.2047631, 36.5577217, 125.0],
          [-79.2047579, 36.5576587, 125.0],
          [-79.2047549, 36.5576409, 125.0],
          [-79.2047473, 36.5576145, 125.0],
          [-79.2046975, 36.5574667, 127.0],
          [-79.2046842, 36.5574229, 127.0],
          [-79.2046489, 36.5572908, 127.0],
          [-79.204641, 36.5572553, 127.0],
          [-79.2046363, 36.5572286, 127.0],
          [-79.2046332, 36.5572016, 127.0],
          [-79.2046289, 36.5571387, 127.0],
          [-79.2046184, 36.5570762, 127.0],
          [-79.2046162, 36.5570492, 127.0],
          [-79.2046159, 36.5570222, 127.0],
          [-79.2046171, 36.5569951, 127.0],
          [-79.2046265, 36.5568873, 127.0],
          [-79.204632, 36.5568515, 127.0],
          [-79.2046429, 36.5567982, 127.0],
          [-79.2046615, 36.5567185, 127.0],
          [-79.2046751, 36.5566655, 127.0],
          [-79.2046828, 36.5566392, 131.0],
          [-79.2046946, 36.5566044, 131.0],
          [-79.2047313, 36.5565098, 131.0],
          [-79.2047818, 36.5564, 131.0],
          [-79.2048323, 36.5562902, 131.0],
          [-79.2048737, 36.5562065, 131.0],
          [-79.204953, 36.556038, 131.0],
          [-79.2049946, 36.5559544, 131.0],
          [-79.2050434, 36.5558537, 129.0],
          [-79.2050899, 36.5557619, 133.0],
          [-79.2051645, 36.5556113, 133.0],
          [-79.205239, 36.5554606, 133.0],
          [-79.2052705, 36.5553932, 133.0],
          [-79.2053031, 36.5553261, 133.0],
          [-79.2053325, 36.555258, 133.0],
          [-79.2053418, 36.555232, 133.0],
          [-79.2053481, 36.5552055, 133.0],
          [-79.2053575, 36.5551157, 133.0],
          [-79.2053624, 36.5550527, 133.0],
          [-79.2053635, 36.5550167, 133.0],
          [-79.2053625, 36.5549987, 133.0],
          [-79.2053602, 36.5549807, 135.0],
          [-79.2053528, 36.5549452, 135.0],
          [-79.2053366, 36.5548835, 135.0],
          [-79.205322, 36.55484, 135.0],
          [-79.2052894, 36.5547633, 135.0],
          [-79.205272, 36.5547111, 135.0],
          [-79.2052577, 36.5546769, 135.0],
          [-79.2052424, 36.5546431, 135.0],
          [-79.2052286, 36.5546184, 135.0],
          [-79.2052012, 36.5545792, 135.0],
          [-79.2051814, 36.5545469, 135.0],
          [-79.2051325, 36.5544609, 135.0],
          [-79.2050836, 36.5543749, 135.0],
          [-79.2050308, 36.5542804, 135.0],
          [-79.204978, 36.5541859, 140.0],
          [-79.2049413, 36.5541104, 138.0],
          [-79.2049186, 36.5540693, 138.0],
          [-79.204888, 36.5540112, 138.0],
          [-79.2048284, 36.5539044, 138.0],
          [-79.2047982, 36.5538462, 138.0],
          [-79.2047583, 36.5537718, 138.0],
          [-79.2047029, 36.5536538, 138.0],
          [-79.2046843, 36.5536113, 138.0],
          [-79.2046666, 36.5535686, 138.0],
          [-79.2046383, 36.5534908, 138.0],
          [-79.2045811, 36.5533259, 138.0],
          [-79.204534, 36.5531682, 137.0],
          [-79.2045118, 36.5530891, 137.0],
          [-79.2044845, 36.5529878, 137.0],
          [-79.2044572, 36.5528866, 137.0],
          [-79.2044072, 36.5527109, 137.0],
          [-79.2043734, 36.5525877, 137.0],
          [-79.2043637, 36.5525434, 137.0],
          [-79.2043552, 36.5524898, 144.0],
          [-79.2043526, 36.5524628, 144.0],
          [-79.2043517, 36.5524358, 144.0],
          [-79.2043524, 36.5524178, 144.0],
          [-79.2043547, 36.5523998, 144.0],
          [-79.2043604, 36.5523732, 144.0],
          [-79.2043696, 36.5523379, 144.0],
          [-79.2043782, 36.5523118, 144.0],
          [-79.2043854, 36.5522947, 144.0],
          [-79.2043941, 36.5522782, 144.0],
          [-79.2044046, 36.5522623, 144.0],
          [-79.2044402, 36.5522164, 144.0],
          [-79.2044796, 36.5521619, 144.0],
          [-79.2044979, 36.5521393, 144.0],
          [-79.2045251, 36.5521107, 144.0],
          [-79.2045403, 36.5520975, 144.0],
          [-79.2045652, 36.5520795, 144.0],
          [-79.2046274, 36.5520412, 144.0],
          [-79.2046956, 36.5519946, 144.0],
          [-79.2047228, 36.5519789, 144.0],
          [-79.204742, 36.5519696, 144.0],
          [-79.2048014, 36.5519446, 144.0],
          [-79.2048323, 36.5519341, 144.0],
          [-79.2048534, 36.5519282, 144.0],
          [-79.2048748, 36.5519231, 144.0],
          [-79.2048966, 36.5519191, 144.0],
          [-79.2049296, 36.5519147, 144.0],
          [-79.2049519, 36.5519128, 144.0],
          [-79.2049742, 36.551912, 144.0],
          [-79.2050524, 36.5519118, 145.0],
          [-79.2050746, 36.5519137, 145.0],
          [-79.2050855, 36.5519156, 145.0],
          [-79.2051067, 36.5519212, 145.0],
          [-79.2051169, 36.5519248, 145.0],
          [-79.2051363, 36.5519337, 145.0],
          [-79.2051547, 36.5519441, 145.0],
          [-79.205172, 36.5519554, 145.0],
          [-79.2051883, 36.5519677, 145.0],
          [-79.2052035, 36.5519809, 145.0],
          [-79.2052174, 36.551995, 145.0],
          [-79.2052299, 36.55201, 145.0],
          [-79.2052466, 36.5520334, 145.0],
          [-79.2053044, 36.5521209, 145.0],
          [-79.2053426, 36.5521759, 145.0],
          [-79.2053849, 36.5522394, 145.0],
          [-79.2054341, 36.5523102, 145.0],
          [-79.2054822, 36.5523814, 145.0],
          [-79.2055315, 36.552452, 145.0],
          [-79.2055733, 36.5525158, 139.0],
          [-79.2056108, 36.5525711, 139.0],
          [-79.2056609, 36.5526414, 139.0],
          [-79.2057464, 36.5527577, 139.0],
          [-79.2058334, 36.5528732, 139.0],
          [-79.2059204, 36.5529887, 142.0],
          [-79.2060166, 36.5531208, 142.0],
          [-79.2060472, 36.5531585, 142.0],
          [-79.206099, 36.5532172, 142.0],
          [-79.2061112, 36.5532323, 142.0],
          [-79.2061542, 36.5532955, 142.0],
          [-79.206218, 36.5534007, 139.0],
          [-79.2062396, 36.5534323, 139.0],
          [-79.2063097, 36.5535244, 139.0],
          [-79.2063781, 36.5536175, 139.0],
          [-79.2064798, 36.5537521, 139.0],
          [-79.2065816, 36.5538867, 139.0],
          [-79.2066607, 36.5539955, 139.0],
          [-79.2067532, 36.5541189, 141.0],
          [-79.2068386, 36.5542352, 137.0],
          [-79.206897, 36.554312, 137.0],
          [-79.2069997, 36.5544515, 137.0],
          [-79.2070558, 36.5545294, 137.0],
          [-79.2071423, 36.5546452, 137.0],
          [-79.2072065, 36.5547297, 137.0],
          [-79.2072707, 36.5548142, 137.0],
          [-79.2073712, 36.5549442, 137.0],
          [-79.2074716, 36.5550742, 136.0],
          [-79.2075614, 36.5551989, 141.0],
          [-79.2076514, 36.5553337, 141.0],
          [-79.2077331, 36.5554413, 141.0],
          [-79.2077815, 36.5555124, 141.0],
          [-79.2077958, 36.5555369, 141.0],
          [-79.2078288, 36.5556039, 141.0],
          [-79.2078472, 36.5556367, 141.0],
          [-79.2078988, 36.5557166, 141.0],
          [-79.2079891, 36.5558615, 141.0],
          [-79.2080795, 36.5560064, 141.0],
          [-79.2081633, 36.5561439, 141.0],
          [-79.2082432, 36.5562729, 141.0],
          [-79.2083231, 36.5564018, 141.0],
          [-79.2084116, 36.5565475, 149.0],
          [-79.2085001, 36.5566931, 145.0],
          [-79.2085604, 36.5567947, 145.0],
          [-79.2086208, 36.5568963, 145.0],
          [-79.2087021, 36.5570347, 145.0],
          [-79.2087835, 36.5571781, 145.0],
          [-79.2088649, 36.5573214, 145.0],
          [-79.2089055, 36.5573857, 145.0],
          [-79.2089781, 36.5575174, 147.0],
          [-79.2090398, 36.5576333, 147.0],
          [-79.2091303, 36.5577981, 147.0],
          [-79.209186, 36.5578965, 151.0],
          [-79.2092418, 36.5579948, 151.0],
          [-79.2092903, 36.5580859, 151.0],
          [-79.2093136, 36.5581268, 151.0],
          [-79.2093366, 36.5581776, 151.0],
          [-79.2093492, 36.5582026, 151.0],
          [-79.2094083, 36.5583096, 151.0],
          [-79.2094566, 36.5584008, 149.0],
          [-79.2095407, 36.5585531, 149.0],
          [-79.2096248, 36.5587053, 149.0],
          [-79.2097022, 36.5588501, 149.0],
          [-79.2097796, 36.5589949, 149.0],
          [-79.2098311, 36.5590948, 149.0],
          [-79.2098538, 36.559136, 149.0],
          [-79.2098709, 36.5591693, 146.0],
          [-79.2098912, 36.5592112, 146.0],
          [-79.2099131, 36.5592623, 146.0],
          [-79.2099563, 36.5593454, 146.0],
          [-79.2100036, 36.5594271, 148.0],
          [-79.2100344, 36.559485, 148.0],
          [-79.2100961, 36.5595977, 148.0],
          [-79.2101579, 36.5597103, 148.0],
          [-79.2102197, 36.5598229, 148.0],
          [-79.2102931, 36.5599593, 148.0],
          [-79.2103665, 36.5600957, 143.0],
          [-79.210428, 36.5602084, 143.0],
          [-79.2104896, 36.560321, 143.0],
          [-79.2105512, 36.5604337, 143.0],
          [-79.2106273, 36.5605741, 143.0],
          [-79.2107034, 36.5607145, 143.0],
          [-79.2107794, 36.5608548, 144.0],
          [-79.2108346, 36.5609583, 148.0],
          [-79.2108898, 36.5610617, 148.0],
          [-79.2109614, 36.5611987, 148.0],
          [-79.211033, 36.5613358, 148.0],
          [-79.211122, 36.5615011, 148.0],
          [-79.21117, 36.5615923, 148.0],
          [-79.2111934, 36.5616332, 148.0],
          [-79.2112095, 36.5616569, 148.0],
          [-79.2112273, 36.5616798, 143.0],
          [-79.2112955, 36.5617623, 143.0],
          [-79.2113151, 36.5617842, 143.0],
          [-79.2113821, 36.5618447, 143.0],
          [-79.2114351, 36.561891, 143.0],
          [-79.2114942, 36.5619451, 143.0],
          [-79.2115337, 36.561977, 143.0],
          [-79.2115751, 36.5620072, 143.0],
          [-79.2116523, 36.5620592, 143.0],
          [-79.2117045, 36.5620931, 145.0],
          [-79.2117713, 36.562141, 145.0],
          [-79.2118232, 36.5621752, 145.0],
          [-79.2118586, 36.5621972, 145.0],
          [-79.2118755, 36.5622089, 145.0],
          [-79.2119065, 36.5622349, 145.0],
          [-79.2119354, 36.5622624, 145.0],
          [-79.2119483, 36.5622771, 145.0],
          [-79.2119644, 36.5623008, 145.0],
          [-79.2119769, 36.5623259, 145.0],
          [-79.2119829, 36.5623432, 145.0],
          [-79.2119902, 36.5623696, 145.0],
          [-79.211996, 36.5623962, 145.0],
          [-79.2119989, 36.5624141, 145.0],
          [-79.2120006, 36.5624321, 145.0],
          [-79.2120008, 36.5624501, 145.0],
          [-79.2119993, 36.5624681, 145.0],
          [-79.2119965, 36.562486, 145.0],
          [-79.2119906, 36.5625126, 146.0],
          [-79.2119855, 36.5625301, 146.0],
          [-79.2119793, 36.5625474, 146.0],
          [-79.2119717, 36.5625644, 146.0],
          [-79.2119628, 36.5625809, 146.0],
          [-79.211948, 36.5626052, 146.0],
          [-79.2119202, 36.5626443, 146.0],
          [-79.211865, 36.562712, 146.0],
          [-79.2118516, 36.5627264, 146.0],
          [-79.2118365, 36.5627398, 146.0],
          [-79.2118033, 36.5627639, 146.0],
          [-79.2116997, 36.5628325, 146.0],
          [-79.2116819, 36.5628434, 146.0],
          [-79.211636, 36.5628691, 135.0],
          [-79.2116186, 36.5628804, 135.0],
          [-79.2115945, 36.5628992, 135.0],
          [-79.2115581, 36.5629333, 135.0],
          [-79.2115446, 36.5629477, 135.0],
          [-79.2115259, 36.5629701, 135.0],
          [-79.2114848, 36.5630238, 135.0],
          [-79.2114686, 36.5630474, 135.0],
          [-79.2114591, 36.5630638, 135.0],
          [-79.2114467, 36.5630889, 135.0],
          [-79.2114356, 36.5631144, 135.0],
          [-79.2114257, 36.5631402, 135.0],
          [-79.2114203, 36.5631577, 135.0],
          [-79.2114142, 36.5631843, 135.0],
          [-79.211402, 36.5632648, 135.0],
          [-79.2114004, 36.5633008, 135.0],
          [-79.2114037, 36.5633818, 129.0],
          [-79.2114071, 36.5634178, 129.0],
          [-79.2114131, 36.5634626, 129.0],
          [-79.2114305, 36.5635698, 129.0],
          [-79.2114398, 36.5636142, 129.0],
          [-79.2114661, 36.5637203, 129.0],
          [-79.2114924, 36.5638078, 129.0],
          [-79.2115043, 36.5638426, 129.0],
          [-79.2115176, 36.563877, 129.0],
          [-79.2115455, 36.5639455, 129.0],
          [-79.2115781, 36.5640222, 129.0],
          [-79.2116193, 36.5641156, 129.0],
          [-79.2116467, 36.5641746, 123.0],
          [-79.2116787, 36.5642419, 121.0],
          [-79.211716, 36.5643173, 121.0],
          [-79.2117636, 36.5644183, 121.0],
          [-79.2118229, 36.5645351, 121.0],
          [-79.2118787, 36.5646334, 121.0],
          [-79.2118945, 36.5646572, 121.0],
          [-79.2119283, 36.5647039, 121.0],
          [-79.2119463, 36.5647268, 121.0],
          [-79.211972, 36.5647562, 121.0],
          [-79.2120052, 36.5647925, 121.0],
          [-79.2120265, 36.5648134, 121.0],
          [-79.2120415, 36.5648267, 121.0],
          [-79.2120653, 36.5648457, 121.0],
          [-79.2120902, 36.5648638, 121.0],
          [-79.2121328, 36.5648929, 121.0],
          [-79.2121593, 36.5649094, 121.0],
          [-79.2122408, 36.564957, 121.0],
          [-79.2122959, 36.5649877, 121.0],
          [-79.2123339, 36.5650067, 117.0],
          [-79.2124983, 36.5650834, 117.0],
          [-79.2125358, 36.565103, 114.0],
          [-79.2125712, 36.5651249, 114.0],
          [-79.2126312, 36.5651654, 114.0],
          [-79.212656, 36.5651836, 114.0],
          [-79.212679, 36.5652033, 114.0],
          [-79.2126931, 36.5652172, 114.0],
          [-79.2127132, 36.5652389, 114.0],
          [-79.2127323, 36.5652611, 114.0],
          [-79.2127442, 36.5652763, 114.0],
          [-79.2127596, 36.5653003, 114.0],
          [-79.2127682, 36.565317, 114.0],
          [-79.2127796, 36.5653424, 114.0],
          [-79.212796, 36.5653855, 114.0],
          [-79.2128037, 36.5654118, 114.0],
          [-79.21281, 36.5654383, 114.0],
          [-79.2128162, 36.565474, 114.0],
          [-79.2128221, 36.5655369, 114.0],
          [-79.2128257, 36.5655999, 114.0],
          [-79.2128256, 36.565636, 114.0],
          [-79.2128221, 36.565699, 114.0],
          [-79.2128129, 36.5657978, 114.0],
          [-79.2127989, 36.5659235, 117.0],
          [-79.2127952, 36.5659413, 117.0],
          [-79.2127723, 36.5660295, 117.0],
          [-79.2127445, 36.566126, 117.0],
          [-79.212736, 36.5661521, 117.0],
          [-79.212719, 36.5661951, 117.0],
          [-79.212692, 36.5662543, 117.0],
          [-79.2126788, 36.5662791, 117.0],
          [-79.2126635, 36.5663032, 117.0],
          [-79.2126096, 36.5663821, 117.0],
          [-79.2125978, 36.5663974, 117.0],
          [-79.2125849, 36.5664121, 117.0],
          [-79.2125568, 36.5664401, 117.0],
          [-79.2125192, 36.5664734, 117.0],
          [-79.2124878, 36.5664991, 113.0],
          [-79.2124316, 36.566543, 113.0],
          [-79.2123894, 36.5665725, 113.0],
          [-79.2123113, 36.5666235, 113.0],
          [-79.2122427, 36.5666698, 111.0],
          [-79.2121718, 36.5667136, 111.0],
          [-79.2120631, 36.5667769, 111.0],
          [-79.2119544, 36.5668402, 111.0],
          [-79.2117864, 36.5669292, 111.0],
          [-79.2117196, 36.566962, 111.0],
          [-79.2116919, 36.5669772, 111.0],
          [-79.2116213, 36.5670215, 113.0],
          [-79.2115959, 36.5670391, 113.0],
          [-79.2115467, 36.5670758, 113.0],
          [-79.2115216, 36.5670937, 113.0],
          [-79.2114428, 36.567144, 113.0],
          [-79.2114, 36.567173, 113.0],
          [-79.2113821, 36.5671838, 113.0],
          [-79.2113262, 36.5672136, 113.0],
          [-79.2112821, 36.5672412, 113.0],
          [-79.2112637, 36.5672515, 113.0],
          [-79.2112148, 36.5672733, 113.0],
          [-79.2111683, 36.5672983, 113.0],
          [-79.2111492, 36.5673076, 113.0],
          [-79.2110891, 36.5673316, 113.0],
          [-79.211031, 36.5673585, 113.0],
          [-79.211011, 36.5673665, 113.0],
          [-79.2109599, 36.5673848, 113.0],
          [-79.2108497, 36.5674285, 113.0],
          [-79.2107904, 36.5674538, 115.0],
          [-79.2107305, 36.567478, 115.0],
          [-79.2106627, 36.5675094, 120.0],
          [-79.2106022, 36.5675328, 120.0],
          [-79.2104521, 36.5675928, 120.0],
          [-79.2103531, 36.5676345, 120.0],
          [-79.210273, 36.5676664, 120.0],
          [-79.210134, 36.5677243, 120.0],
          [-79.2100142, 36.5677728, 120.0],
          [-79.2098944, 36.5678213, 114.0],
          [-79.2098041, 36.5678569, 114.0],
          [-79.2096645, 36.5679139, 114.0],
          [-79.2095757, 36.5679518, 114.0],
          [-79.2094948, 36.5679824, 114.0],
          [-79.2093909, 36.5680263, 114.0],
          [-79.209287, 36.5680703, 114.0],
          [-79.2091373, 36.568131, 114.0],
          [-79.2089784, 36.5681969, 114.0],
          [-79.2088584, 36.5682451, 114.0],
          [-79.2086922, 36.5683094, 114.0],
          [-79.208526, 36.5683737, 122.0],
          [-79.2084193, 36.5684129, 122.0],
          [-79.2083126, 36.5684522, 114.0],
          [-79.2081082, 36.568525, 114.0],
          [-79.2080361, 36.5685495, 114.0],
          [-79.2079223, 36.5685869, 114.0],
          [-79.2078804, 36.5685994, 114.0],
          [-79.207722, 36.5686433, 114.0],
          [-79.2075181, 36.5686908, 114.0],
          [-79.2073663, 36.5687213, 113.0],
          [-79.2072463, 36.5687426, 113.0],
          [-79.2071479, 36.5687592, 113.0],
          [-79.207082, 36.5687691, 113.0],
          [-79.2069386, 36.5687876, 113.0],
          [-79.2068942, 36.5687914, 113.0],
          [-79.2068607, 36.5687914, 113.0],
          [-79.2068272, 36.5687898, 113.0],
          [-79.2067052, 36.5687785, 113.0],
          [-79.2066717, 36.5687776, 113.0],
          [-79.2066158, 36.5687781, 112.0],
          [-79.2065712, 36.5687797, 112.0],
          [-79.2064932, 36.5687842, 112.0],
          [-79.2064046, 36.5687938, 112.0],
          [-79.2063041, 36.5688019, 112.0]
        ]
      }
    }
  ]
}
